[
  {
    "feature_type": "hotels",
    "lat": 46.0043513,
    "lon": 8.9497597,
    "tags": {
      "addr:city": "Lugano",
      "addr:housenumber": "5",
      "addr:postcode": "6900",
      "addr:street": "Piazza Cioccaro",
      "email": "info@hotel-luganodante.com",
      "internet_access": "wlan",
      "internet_access:fee": "no",
      "name": "Hotel Luganodante",
      "operator": "Flamel",
      "phone": "+41 91 910 57 00",
      "smoking": "no",
      "stars": "4",
      "tourism": "hotel",
      "website": "https://www.hotel-luganodante.com/",
      "wheelchair": "yes"
    },
    "distance_to_station": 940.3990002798045
  },
  {
    "feature_type": "hotels",
    "lat": 46.0057527,
    "lon": 8.9550285,
    "tags": {
      "addr:city": "Lugano",
      "addr:housenumber": "9",
      "addr:postcode": "6900",
      "addr:street": "Piazza Indipendenza",
      "check_date:currency:XBT": "2025-06-30",
      "currency:XBT": "yes",
      "email": "info@pestalozzi-lugano.ch",
      "name": "Pestalozzi",
      "payment:lightning": "yes",
      "phone": "+41 (0)91 921 46 46",
      "survey:date": "2022-10-27",
      "tourism": "hotel",
      "website": "https://www.pestalozzi-lugano.ch/",
      "wheelchair": "yes"
    },
    "distance_to_station": 517.5501878335153
  },
  {
    "feature_type": "hotels",
    "lat": 46.0028118,
    "lon": 8.9504436,
    "tags": {
      "addr:city": "Lugano",
      "addr:country": "CH",
      "addr:housenumber": "7",
      "addr:postcode": "6900",
      "addr:street": "Piazza Riziero Rezzonico",
      "check_date": "2024-09-07",
      "internet_access": "wlan",
      "internet_access:fee": "no",
      "name": "Hotel Walter au Lac",
      "rooms": "37",
      "stars": "3",
      "tourism": "hotel",
      "website": "https://www.walteraulac.ch/"
    },
    "distance_to_station": 935.6144394943753
  },
  {
    "feature_type": "hotels",
    "lat": 46.0044129,
    "lon": 8.9496379,
    "tags": {
      "check_date:currency:XBT": "2025-07-23",
      "contact:email": "info@acquarello.ch",
      "contact:fax": "+41 91 911 68 69",
      "contact:phone": "+41 91 911 68 68",
      "contact:website": "https://www.acquarello.ch",
      "currency:XBT": "yes",
      "name": "Acquarello",
      "payment:lightning": "yes",
      "payment:lightning_contactless": "no",
      "payment:onchain": "no",
      "phone": "+41 91 911 68 68",
      "stars": "3",
      "tourism": "hotel",
      "website": "https://acquarello.ch/"
    },
    "distance_to_station": 948.5088731737794
  },
  {
    "feature_type": "hotels",
    "lat": 46.0049767,
    "lon": 8.9704571,
    "tags": {
      "name": "Art Residence",
      "phone": "+41 91 9732555",
      "tourism": "hotel",
      "website": "http://www.artresidence.ch"
    },
    "distance_to_station": 684.4923386971842
  },
  {
    "feature_type": "hotels",
    "lat": 46.0061332,
    "lon": 8.9532455,
    "tags": {
      "addr:city": "Lugano",
      "addr:housenumber": "13",
      "addr:postcode": "6900",
      "addr:street": "Corso Pestalozzi",
      "check_date": "2025-07-02",
      "check_date:currency:XBT": "2025-07-02",
      "currency:XBT": "yes",
      "email": "hotelzurigo@horizoncollection.ch",
      "name": "Zurigo Downtown",
      "payment:lightning": "yes",
      "payment:lightning_contactless": "no",
      "payment:onchain": "no",
      "phone": "+41 91 923 43 43",
      "stars": "3",
      "survey:date": "2022-10-27",
      "tourism": "hotel",
      "website": "https://www.hotelzurigo.ch/"
    },
    "distance_to_station": 656.3005406352754
  },
  {
    "feature_type": "hotels",
    "lat": 46.0115521,
    "lon": 8.9634135,
    "tags": {
      "name": "Pensione La Santa",
      "name:it": "Pensione La Santa",
      "tourism": "hotel"
    },
    "distance_to_station": 647.5086965600505
  },
  {
    "feature_type": "hotels",
    "lat": 46.0062899,
    "lon": 8.9693125,
    "tags": {
      "name": "Villa Castagnola",
      "tourism": "hotel"
    },
    "distance_to_station": 590.9632782432151
  },
  {
    "feature_type": "hotels",
    "lat": 46.0042505,
    "lon": 8.9501037,
    "tags": {
      "addr:city": "Lugano",
      "addr:country": "CH",
      "addr:housenumber": "1",
      "addr:postcode": "6900",
      "addr:street": "Piazza Cioccaro",
      "check_date": "2025-06-15",
      "check_date:currency:XBT": "2025-06-15",
      "contact:phone": "+41 91 921 34 70",
      "contact:website": "http://www.hotel-gabbani.ch",
      "currency:XBT": "yes",
      "name": "Hotel Gabbani",
      "payment:lightning": "yes",
      "payment:lightning_contactless": "no",
      "payment:onchain": "no",
      "phone": "41 91 921 34 70",
      "tourism": "hotel",
      "website": "https://www.gabbani.com/home/",
      "wikidata": "Q111875043"
    },
    "distance_to_station": 916.2943153390414
  },
  {
    "feature_type": "hotels",
    "lat": 46.0130118,
    "lon": 8.9632123,
    "tags": {
      "name": "Icon H",
      "tourism": "hotel",
      "website": "https://iconh.ch/"
    },
    "distance_to_station": 804.6244340701636
  },
  {
    "feature_type": "hotels",
    "lat": 46.0081591,
    "lon": 8.9566246,
    "tags": {
      "addr:city": "Lugano",
      "addr:country": "CH",
      "addr:housenumber": "19",
      "addr:postcode": "6900",
      "addr:street": "Via Serafino Balestra",
      "building": "yes",
      "check_date": "2024-09-07",
      "check_date:currency:XBT": "2025-06-21",
      "currency:XBT": "yes",
      "email": "info@hotelceresio.ch",
      "internet_access": "wlan",
      "internet_access:fee": "no",
      "name": "Ceresio",
      "payment:lightning": "yes",
      "payment:lightning_contactless": "no",
      "payment:onchain": "no",
      "phone": "+41 91 923 10 44",
      "rooms": "53",
      "stars": "3",
      "tourism": "hotel",
      "website": "https://www.hotelceresio.ch",
      "wikidata": "Q29884419"
    },
    "distance_to_station": 470.1207036466214
  },
  {
    "feature_type": "hotels",
    "lat": 46.006881,
    "lon": 8.9673073,
    "tags": {
      "addr:city": "Lugano",
      "addr:housenumber": "12",
      "addr:postcode": "6900",
      "addr:street": "Via Concordia",
      "building": "yes",
      "email": "info@atlantico-lugano.ch",
      "name": "Hotel Atlantico",
      "phone": "+41 919712921",
      "stars": "2",
      "tourism": "hotel",
      "website": "https://www.atlantico-lugano.ch/",
      "wikidata": "Q111875046"
    },
    "distance_to_station": 448.52901400415743
  },
  {
    "feature_type": "hotels",
    "lat": 46.0121023,
    "lon": 8.956018,
    "tags": {
      "addr:city": "Lugano",
      "addr:country": "CH",
      "addr:housenumber": "4",
      "addr:postcode": "6900",
      "addr:street": "Via Giuseppe Bagutti",
      "building": "residential",
      "check_date": "2024-07-13",
      "contact:email": "city@hotelcitylugano.ch",
      "contact:phone": "+41 91 222 09 00",
      "contact:website": "https://www.hotelcitylugano.ch",
      "internet_access": "wlan",
      "internet_access:fee": "no",
      "name": "Hotel City",
      "start": "4",
      "tourism": "hotel"
    },
    "distance_to_station": 823.039318821194
  },
  {
    "feature_type": "hotels",
    "lat": 46.005531,
    "lon": 8.9680523,
    "tags": {
      "addr:city": "Lugano",
      "addr:country": "CH",
      "addr:housenumber": "24",
      "addr:postcode": "6900",
      "addr:street": "Viale Castagnola",
      "building": "yes",
      "check_date": "2025-04-13",
      "cuisine": "italian",
      "name": "Hotel Lido Seegarten",
      "phone": "+41919736363",
      "tourism": "hotel",
      "website": "http://www.HotelLido-lugano.com",
      "wikidata": "Q111875050"
    },
    "distance_to_station": 492.5923498249693
  }
]