[
  {
    "feature_type": "cafes",
    "lat": 46.5194865,
    "lon": 6.5724095,
    "tags": {
      "amenity": "cafe"
    },
    "distance_to_station": 558.7173492965513
  },
  {
    "feature_type": "cafes",
    "lat": 46.5182086,
    "lon": 6.5680231,
    "tags": {
      "amenity": "cafe",
      "diet:vegetarian": "yes",
      "name": "Paul Klee",
      "opening_hours": "Mo-Fr 07:00-21:00; Sa,Su 08:00-18:00",
      "website": "https://www.epfl.ch/campus/restaurants-shops-hotels/fr/restauration/cafeteria/le-klee-by-novae/",
      "wheelchair": "yes"
    },
    "distance_to_station": 911.6338198689007
  },
  {
    "feature_type": "cafes",
    "lat": 46.520415,
    "lon": 6.5694217,
    "tags": {
      "amenity": "cafe",
      "diet:vegetarian": "yes",
      "name": "L'Arcadie",
      "opening_hours": "Mo-Fr 07:00-17:00",
      "website": "https://restauration.epfl.ch/op/edit/page-74992.html"
    },
    "distance_to_station": 789.7727449789558
  },
  {
    "feature_type": "cafes",
    "lat": 46.5196747,
    "lon": 6.5688004,
    "tags": {
      "addr:city": "Lausanne",
      "addr:postcode": "1015",
      "addr:street": "Avenue A. Piccard",
      "amenity": "cafe",
      "name": "L'Epicure",
      "opening_hours": "Mo-Fr 11:00-14:00",
      "website": "https://restauration.epfl.ch/epicure"
    },
    "distance_to_station": 834.6627674929357
  },
  {
    "feature_type": "cafes",
    "lat": 46.5248245,
    "lon": 6.5757013,
    "tags": {
      "amenity": "cafe",
      "name": "Vortex",
      "opening_hours": "Mo-Fr 08:00-23:00"
    },
    "distance_to_station": 635.8862091527769
  }
]