[
  {
    "feature_type": "libraries",
    "lat": 46.5226786,
    "lon": 6.5796508,
    "tags": {
      "addr:city": "Lausanne",
      "addr:postcode": "1015",
      "amenity": "library",
      "capacity": "750",
      "contact:email": "Info-Dorigny@bcu.unil.ch",
      "description": "Biblioth\u00e8que regroupant les collections acad\u00e9miques de la BCUL ainsi que son service des Manuscrits et la collection de livres pr\u00e9cieux. Emprunt gratuit apr\u00e8s inscription. Membre du r\u00e9seau Renouvaud",
      "level": "1",
      "name": "Biblioth\u00e8que cantonale et universitaire de Lausanne, site Unith\u00e8que",
      "operator": "Etat de Vaud, DFJC",
      "phone": "+41 21 692 47 66",
      "ref:isil": "CH-000002-2",
      "website": "https://www.bcu-lausanne.ch/",
      "wheelchair": "yes",
      "wikidata": "Q676831",
      "wikimedia_commons": "Category:Biblioth\u00e8que cantonale et universitaire de Lausanne",
      "wikipedia": "fr:Biblioth\u00e8que cantonale et universitaire - Lausanne"
    },
    "distance_to_station": 319.439534587848
  },
  {
    "feature_type": "libraries",
    "lat": 46.5226775,
    "lon": 6.5835069,
    "tags": {
      "addr:city": "Lausanne-Dorigny",
      "addr:postcode": "1015",
      "alt_name": "BEF",
      "amenity": "library",
      "contact:email": "bibliotheque@fondation-fleuret.ch",
      "contact:phone": "+41 21 692 48 90",
      "contact:website": "http://fondation-fleuret.ch/bibliotheque/",
      "name": "Biblioth\u00e8que Edouard Fleuret",
      "operator": "Universit\u00e9 de Lausanne, site Internef",
      "wikidata": "Q27483289"
    },
    "distance_to_station": 434.0155290659404
  },
  {
    "feature_type": "libraries",
    "lat": 46.5206483,
    "lon": 6.5770502,
    "tags": {
      "amenity": "library",
      "name": "Biblioth\u00e8que de biologie"
    },
    "distance_to_station": 222.22792626142962
  },
  {
    "feature_type": "libraries",
    "lat": 46.5184121,
    "lon": 6.5684654,
    "tags": {
      "addr:city": "Ecublens",
      "addr:country": "CH",
      "addr:postcode": "1024",
      "addr:street": "Rolex Learning Center",
      "amenity": "library",
      "contact:email": "questions.bib@epfl.ch",
      "contact:phone": "+41 21 693 21 56",
      "contact:website": "https://library.epfl.ch",
      "internet_access": "wlan",
      "name": "Biblioth\u00e8que de l'EPFL",
      "opening_hours": "Mo-Su,PH 07:00-24:00",
      "operator": "\u00c9cole Polytechnique F\u00e9d\u00e9rale de Lausanne\u00a0EPFL",
      "operator:wikidata": "Q262760",
      "ref:isil": "CH-000010-4",
      "wheelchair": "yes",
      "wikidata": "Q27480131",
      "wikimedia_commons": "Category:Biblioth\u00e8que de l'EPFL"
    },
    "distance_to_station": 874.0766606641619
  },
  {
    "feature_type": "libraries",
    "lat": 46.5226304,
    "lon": 6.5838946,
    "tags": {
      "addr:city": "Lausanne",
      "addr:postcode": "1015",
      "amenity": "library",
      "capacity": "460",
      "contact:email": "bcu-internef@bcu.unil.ch",
      "description": "Biblioth\u00e8que regroupant les collections acad\u00e9miques de droit et d'\u00e9conomie de la BCUL. Emprunt gratuit apr\u00e8s inscription. Membre du r\u00e9seau Renouvaud",
      "level": "0",
      "name": "Biblioth\u00e8que cantonale et universitaire de Lausanne, site Internef",
      "operator": "Etat de Vaud, DFJC",
      "phone": "+41 21 692 48 83",
      "website": "https://www.bcu-lausanne.ch/",
      "wikidata": "Q676831",
      "wikimedia_commons": "Category:Biblioth\u00e8que cantonale et universitaire de Lausanne",
      "wikipedia": "fr:Biblioth\u00e8que cantonale et universitaire - Lausanne"
    },
    "distance_to_station": 451.0302278618596
  },
  {
    "feature_type": "libraries",
    "lat": 46.526511,
    "lon": 6.5792932,
    "tags": {
      "amenity": "library",
      "name": "Biblioth\u00e8que des sciences de la terre"
    },
    "distance_to_station": 746.0276987517267
  }
]