[
  {
    "feature_type": "shops",
    "lat": 46.5212828,
    "lon": 6.5746839,
    "tags": {
      "name": "KramerKrieg",
      "opening_hours": "Mo-Fr 08:15-10:30,11:00-14:45,15:15-17:30",
      "shop": "kiosk"
    },
    "distance_to_station": 416.8005885540631
  },
  {
    "feature_type": "shops",
    "lat": 46.5224108,
    "lon": 6.5842893,
    "tags": {
      "shop": "kiosk"
    },
    "distance_to_station": 457.401130670743
  },
  {
    "feature_type": "shops",
    "lat": 46.5232919,
    "lon": 6.5847081,
    "tags": {
      "shop": "kiosk"
    },
    "distance_to_station": 547.1131878706485
  },
  {
    "feature_type": "shops",
    "lat": 46.5182699,
    "lon": 6.5681519,
    "tags": {
      "name": "Poseidon",
      "shop": "rental",
      "website": "https://www.epfl.ch/campus/services/en/it-services/discount-and-loan-for-personnal-computers/"
    },
    "distance_to_station": 900.6249501891773
  },
  {
    "feature_type": "shops",
    "lat": 46.5184843,
    "lon": 6.5675233,
    "tags": {
      "internet_access": "yes",
      "name": "La Boutique",
      "opening_hours": "Mo-Fr 10:00-15:00",
      "operator": "EPFL",
      "shop": "books",
      "wheelchair": "yes"
    },
    "distance_to_station": 944.0308065404614
  },
  {
    "feature_type": "shops",
    "lat": 46.520557,
    "lon": 6.5681235,
    "tags": {
      "name": "Le N\u00e9goce",
      "opening_hours": "Mo-Fr 06:30-16:30",
      "shop": "convenience",
      "website": "https://restauration.epfl.ch/op/edit/page-75023.html"
    },
    "distance_to_station": 890.4043647864614
  },
  {
    "feature_type": "shops",
    "lat": 46.5244476,
    "lon": 6.5875933,
    "tags": {
      "addr:housenumber": "213",
      "addr:street": "Route de Chavannes",
      "name": "Best Foods",
      "shop": "supermarket"
    },
    "distance_to_station": 797.1200569305736
  },
  {
    "feature_type": "shops",
    "lat": 46.5266586,
    "lon": 6.5814935,
    "tags": {
      "addr:city": "Chavannes-pr\u00e8s-Renens",
      "addr:housenumber": "44",
      "addr:postcode": "1022",
      "addr:street": "Route de la Maladi\u00e8re",
      "brand": "Ford",
      "brand:wikidata": "Q44294",
      "name": "Emil Frey Chavannes",
      "opening_hours": "Mo-Fr 08:00-18:00",
      "operator": "Emil Frey",
      "phone": "+41 21 622 71 61",
      "shop": "car"
    },
    "distance_to_station": 774.5151950153867
  },
  {
    "feature_type": "shops",
    "lat": 46.5249148,
    "lon": 6.57481,
    "tags": {
      "addr:city": "Chavannes-pr\u00e8s-Renens",
      "addr:housenumber": "29",
      "addr:postcode": "1022",
      "addr:street": "Route de Praz-V\u00e9guey",
      "bulk_purchase": "yes",
      "contact:facebook": "levorace.epicerie",
      "contact:instagram": "le.vorace",
      "email": "info@levorace.ch",
      "membership": "yes",
      "name": "Le Vorace",
      "opening_hours": "Mo-Fr 14:00-19:00; Sa 14:00-18:00",
      "operator": "Coop\u00e9rative Le Vorace",
      "operator:governance": "volunteers",
      "operator:type": "cooperative",
      "shop": "convenience",
      "website": "https://levorace.ch/",
      "zero_waste": "yes"
    },
    "distance_to_station": 679.7402367663237
  },
  {
    "feature_type": "shops",
    "lat": 46.5272287,
    "lon": 6.5738951,
    "tags": {
      "addr:city": "Chavannes-pr\u00e8s-Renens",
      "addr:housenumber": "8",
      "addr:postcode": "1022",
      "addr:street": "Rue de la Mouline",
      "contact:facebook": "associationgloryland",
      "email": "info-gloryland@bluewin.ch",
      "name": "Gloryland",
      "opening_hours": "Mo-Fr 09:00-12:30,14:00-18:00; Sa 09:00-17:00",
      "operator": "Association Gloryland",
      "phone": "+41 21 691 41 50",
      "second_hand": "yes",
      "shop": "second_hand",
      "website": "https://www.gloryland.ch/"
    },
    "distance_to_station": 936.8857069639233
  },
  {
    "feature_type": "shops",
    "lat": 46.5239053,
    "lon": 6.5753406,
    "tags": {
      "name": "Kiosque du vortex",
      "opening_hours": "Mo-Fr 10:00-22:00; Sa 12:00-22:00; Su 12:00-20:00",
      "shop": "kiosk"
    },
    "distance_to_station": 564.2821677962013
  },
  {
    "feature_type": "shops",
    "lat": 46.5239106,
    "lon": 6.575484,
    "tags": {
      "name": "Tonton grain",
      "opening_hours": "Tu-Fr 07:30-20:00; Mo 08:00-14:30; Sa 08:00-18:00; Su 09:00-17:00",
      "shop": "bakery"
    },
    "distance_to_station": 558.3475888917209
  },
  {
    "feature_type": "shops",
    "lat": 46.5248247,
    "lon": 6.5746653,
    "tags": {
      "name": "The next cut",
      "opening_hours": "Tu-Fr 09:00-19:00; Mo 12:00-19:00; Sa 09:00-18:00",
      "shop": "hairdresser",
      "website": "https://the-next-cut-barber-shop-vortex.business.site/"
    },
    "distance_to_station": 677.6309492229744
  },
  {
    "feature_type": "shops",
    "lat": 46.5238207,
    "lon": 6.5837244,
    "tags": {
      "branch": "Basta Dorigny",
      "brand": "Basta",
      "check_date": "2024-08-08",
      "email": "dorigny@librairiebasta.ch",
      "fixme": "Unknown position",
      "name": "Basta",
      "opening_hours": "Mo-We 09:00-12:30,13:30-17:15; Th 10:30-12:30,13:30-17:15; Fr 09:00-13:00",
      "phone": "+44 21 691 39 37",
      "shop": "books",
      "start_date": "1991",
      "website": "https://librairiebasta.ch/"
    },
    "distance_to_station": 543.8411886551667
  },
  {
    "feature_type": "shops",
    "lat": 46.5264193,
    "lon": 6.5841481,
    "tags": {
      "addr:city": "Chavannes-pr\u00e8s-Renens",
      "addr:housenumber": "66",
      "addr:postcode": "1022",
      "addr:street": "Route de la Maladi\u00e8re",
      "name": "Elle & Ganse",
      "shop": "hairdresser",
      "start_date": "2025-06-02"
    },
    "distance_to_station": 811.3871794155322
  },
  {
    "feature_type": "shops",
    "lat": 46.5231859,
    "lon": 6.5915252,
    "tags": {
      "addr:city": "Lausanne",
      "addr:country": "CH",
      "brand": "Ford",
      "brand:wikidata": "Q44294",
      "brand:wikipedia": "en:Ford Motor Company",
      "building": "yes",
      "check_date": "2022-07-25",
      "name": "Garage du Sud-Ouest",
      "shop": "car",
      "source": "Orthophoto Ville de Lausanne 2008"
    },
    "distance_to_station": 983.8294178981083
  },
  {
    "feature_type": "shops",
    "lat": 46.5212874,
    "lon": 6.5862405,
    "tags": {
      "addr:city": "Chavanes-pres-Renens",
      "addr:country": "CH",
      "addr:housenumber": "1",
      "addr:street": "Route Cantonale",
      "brand": "Esso",
      "brand:wikidata": "Q867662",
      "brand:wikipedia": "en:Esso",
      "building": "yes",
      "check_date": "2022-07-25",
      "name": "Autos Carrefour Dorigny SA",
      "operator": "ESSO",
      "shop": "car_repair",
      "source": "Orthophoto Ville de Lausanne 2008"
    },
    "distance_to_station": 529.9871482027951
  },
  {
    "feature_type": "shops",
    "lat": 46.5217438,
    "lon": 6.567791,
    "tags": {
      "building": "industrial",
      "building:levels": "1",
      "description": "\u25baVente de v\u00e9los d'occasion pour tous les go\u00fbts \u25baPetites r\u00e9parations au prix des fournitures \u25baMise \u00e0 disposition d'outils pour les bricoleurs \u25baCours de m\u00e9canique Horaires hors semestre: Je-Ve 12:00 Pr\u00e9sentation : https://youtu.be/nqXQ7LixL8w",
      "name": "Point V\u00e9lo",
      "opening_hours": "Mo-Th 12:00-13:00; Fr 12:00-17:00; SH Tu 12:00-14:00 \"Hors semestre (off semester)\"; SH Th-Fr 12:00-17:00 \"Hors semestre (off semester)\"; Jul 15-Aug 15 Th-Fr 12:00-17:00",
      "phone": "+41 79 371 36 55",
      "service:bicycle:pump": "yes",
      "shop": "bicycle",
      "website": "https://www.epfl.ch/about/sustainability/fr/accueil/mobilite/pointvelo/"
    },
    "distance_to_station": 937.0959622942561
  }
]