[
  {
    "feature_type": "offices",
    "lat": 46.5204944,
    "lon": 6.5680142,
    "tags": {
      "level": "0",
      "name": "gnugen",
      "office": "association",
      "opening_hours": "\"by appointment\"",
      "website": "https://gnugen.ch"
    },
    "distance_to_station": 898.1347187049283
  },
  {
    "feature_type": "offices",
    "lat": 46.52396,
    "lon": 6.5838847,
    "tags": {
      "addr:city": "Lausanne",
      "addr:postcode": "1015",
      "addr:street": "B\u00e2timent Antrhopole",
      "email": "fsle@unil.ch",
      "level": "0",
      "name": "Fondation Solidarit\u00e9 Logements pour les \u00c9tudiant-e-s",
      "office": "association",
      "opening_hours": "online",
      "website": "https://www.fsle.ch",
      "wheelchair": "yes"
    },
    "distance_to_station": 563.5782648183199
  },
  {
    "feature_type": "offices",
    "lat": 46.5269103,
    "lon": 6.5741544,
    "tags": {
      "addr:city": "Chavannes-pr\u00e8s-Renens",
      "addr:housenumber": "8",
      "addr:postcode": "1022",
      "addr:street": "Rue de la Mouline",
      "name": "Picterra",
      "office": "company",
      "website": "https://picterra.ch/"
    },
    "distance_to_station": 896.291240749129
  },
  {
    "feature_type": "offices",
    "lat": 46.5204538,
    "lon": 6.5680156,
    "tags": {
      "level": "1",
      "name": "Unipoly",
      "office": "association",
      "website": "https://unipoly.ch"
    },
    "distance_to_station": 897.6541397983489
  }
]