[
  {
    "feature_type": "restaurants",
    "lat": 46.5291759,
    "lon": 6.5901475,
    "tags": {
      "amenity": "restaurant",
      "name": "Restaurant du Ch\u00eane"
    },
    "distance_to_station": 902.9188830051297
  },
  {
    "feature_type": "restaurants",
    "lat": 46.5227635,
    "lon": 6.5802756,
    "tags": {
      "addr:city": "Lausanne",
      "addr:housenumber": "109",
      "addr:postcode": "1015",
      "addr:street": "UNIL - B\u00e2timent Unith\u00e8que",
      "amenity": "restaurant",
      "cuisine": "regional;italian",
      "diet:vegetarian": "yes",
      "fax": "+41 21 692 26 85",
      "name": "Da Nino",
      "opening_hours": "Mo, Tu 08:00-15:00; We-Sa 08:00-15:00, 17:30-00:00",
      "phone": "+41 21 692 26 88",
      "website": "http://www.nino-dorigny.ch"
    },
    "distance_to_station": 376.57759333759685
  },
  {
    "feature_type": "restaurants",
    "lat": 46.5211797,
    "lon": 6.5740002,
    "tags": {
      "amenity": "restaurant",
      "cuisine": "regional",
      "name": "Caf\u00e9teria Amphimax"
    },
    "distance_to_station": 678.2164576610576
  },
  {
    "feature_type": "restaurants",
    "lat": 46.5237719,
    "lon": 6.5839948,
    "tags": {
      "amenity": "restaurant",
      "name": "Caf\u00e9t\u00e9ria de l'Anthropole"
    },
    "distance_to_station": 444.1911202414297
  },
  {
    "feature_type": "restaurants",
    "lat": 46.5221165,
    "lon": 6.5842811,
    "tags": {
      "amenity": "restaurant",
      "name": "Caf\u00e9t\u00e9ria de l'Internef"
    },
    "distance_to_station": 584.7863239533374
  },
  {
    "feature_type": "restaurants",
    "lat": 46.5316226,
    "lon": 6.5884676,
    "tags": {
      "amenity": "restaurant",
      "name": "Caf\u00e9 Restaurant du L\u00e9man",
      "opening_hours": "Mo-Fr 07:00-23:00; Sa 09:00-23:00"
    },
    "distance_to_station": 936.9719153013659
  },
  {
    "feature_type": "restaurants",
    "lat": 46.5280866,
    "lon": 6.5900896,
    "tags": {
      "amenity": "restaurant",
      "name": "Centre Portugais"
    },
    "distance_to_station": 859.7507756014761
  },
  {
    "feature_type": "restaurants",
    "lat": 46.5317466,
    "lon": 6.5839505,
    "tags": {
      "addr:city": "Renens",
      "addr:housenumber": "18",
      "addr:postcode": "1020",
      "addr:street": "Avenue du Censuy",
      "amenity": "restaurant",
      "cuisine": "chinese",
      "level": "0",
      "name": "Henan",
      "name:zh": "\u6cb3\u5357\u4eba\u5bb6",
      "opening_hours": "Mo-Fr 10:00-14:30,17:30-23:30, Sa 10:00-14:30,17:30-24:00, Su closed",
      "opening_hours:kitchen": "Mo-Sa 10:00-14:30,17:30-21:30",
      "outdoor_seating": "yes",
      "phone": "+41 21 635 46 10",
      "takeaway": "yes",
      "website": "https://restaurant-henan.business.site/",
      "wheelchair": "yes"
    },
    "distance_to_station": 725.2486810105955
  },
  {
    "feature_type": "restaurants",
    "lat": 46.5241215,
    "lon": 6.5887888,
    "tags": {
      "addr:housenumber": "201",
      "addr:street": "Route de Chavannes",
      "amenity": "restaurant",
      "name": "Restaurant de la Bourdonnette",
      "opening_hours": "Mo-Fr 08:00-00:00; Sa 09:00-00:00",
      "phone": "+41 21 625 62 62",
      "website": "http://www.restaurant-de-la-bourdonnette.com/"
    },
    "distance_to_station": 762.2248073345805
  },
  {
    "feature_type": "restaurants",
    "lat": 46.5339199,
    "lon": 6.578038,
    "tags": {
      "addr:housenumber": "15A",
      "addr:postcode": "1022",
      "addr:street": "Avenue de Pr\u00e9faully",
      "amenity": "restaurant",
      "cuisine": "burger;pizza",
      "name": "Brasserie de Chavannes",
      "website": "https://www.brasserie-des-chavannes-chavannes-pres-renens.ch"
    },
    "distance_to_station": 876.7010004287868
  },
  {
    "feature_type": "restaurants",
    "lat": 46.5189326,
    "lon": 6.57981,
    "tags": {
      "addr:city": "Lausanne",
      "addr:postcode": "1015",
      "addr:street": "Route Cantonale",
      "amenity": "restaurant",
      "name": "Centre Sport et Sant\u00e9",
      "operator": "Fit & Fun Saveurs S\u00e0rl",
      "phone": "+41 21 692 48 75",
      "self_service": "only",
      "website": "https://www.unil.ch/restos/fr/home/menuinst/ou-se-restaurer/self-service-du-css.html"
    },
    "distance_to_station": 795.4925621355718
  },
  {
    "feature_type": "restaurants",
    "lat": 46.5327176,
    "lon": 6.5771266,
    "tags": {
      "addr:postcode": "1022",
      "amenity": "restaurant",
      "cuisine": "pizza",
      "name": "Fabbrica Kitchen & Bar",
      "name:en": "Fabbrica Kitchen & Bar",
      "phone": "+41 79 571 61 61",
      "website": "https://www.fabbricadellapizza.com/"
    },
    "distance_to_station": 756.0245717413375
  },
  {
    "feature_type": "restaurants",
    "lat": 46.5266133,
    "lon": 6.5790251,
    "tags": {
      "amenity": "restaurant",
      "name": "Restaurant self-service de G\u00e9opolis",
      "website": "https://geopolis.sv-restaurant.ch/fr/plan-des-menus/"
    },
    "distance_to_station": 62.2489238165147
  },
  {
    "feature_type": "restaurants",
    "lat": 46.5227383,
    "lon": 6.579738,
    "tags": {
      "amenity": "restaurant",
      "name": "Restaurant self-service de l'Unith\u00e8que, \"Le R\u00e9fectoire\"",
      "website": "http://nino-unil.ch/menu-de-la-semaine/"
    },
    "distance_to_station": 373.10430724996775
  },
  {
    "feature_type": "restaurants",
    "lat": 46.5288686,
    "lon": 6.5904091,
    "tags": {
      "addr:housenumber": "25",
      "addr:street": "Rue du Lac",
      "amenity": "restaurant",
      "check_date": "2023-08-22",
      "cuisine": "japanese;sushi;asian",
      "name": "Takumi",
      "phone": "+41 21 553 80 81",
      "website": "https://takumi1020.ch/"
    },
    "distance_to_station": 909.2985274532348
  },
  {
    "feature_type": "restaurants",
    "lat": 46.5341615,
    "lon": 6.5844253,
    "tags": {
      "amenity": "restaurant",
      "check_date:opening_hours": "2025-04-14",
      "name": "Chez CFF",
      "opening_hours": "Mo-Fr 07:00-17:00"
    },
    "distance_to_station": 981.7290567502339
  },
  {
    "feature_type": "restaurants",
    "lat": 46.5342279,
    "lon": 6.5837924,
    "tags": {
      "amenity": "restaurant",
      "diet:vegetarian": "yes",
      "name": "Planet Bowl",
      "opening_hours": "Mo-Fr 08:45-22:00; Sa 09:00-22:00"
    },
    "distance_to_station": 970.0736992564513
  },
  {
    "feature_type": "restaurants",
    "lat": 46.5334896,
    "lon": 6.5775239,
    "tags": {
      "addr:city": "Chavannes-pr\u00e8s-Renens",
      "addr:housenumber": "40",
      "addr:postcode": "1022",
      "addr:street": "Avenue de la Gare",
      "amenity": "restaurant",
      "cuisine": "indian;sri_lankan;pizza",
      "diet:vegetarian": "yes",
      "name": "Chez Mano",
      "opening_hours": "Tu-Sa 11:30-14h30 18:00-22:00",
      "takeaway": "only",
      "website": "https://ch.wwwcafe.de/531/"
    },
    "distance_to_station": 834.5713691878775
  },
  {
    "feature_type": "restaurants",
    "lat": 46.5268058,
    "lon": 6.5741632,
    "tags": {
      "addr:city": "Chavannes-pr\u00e8s-Renens",
      "addr:country": "CH",
      "addr:housenumber": "8",
      "addr:postcode": "1022",
      "addr:street": "Rue de la Mouline",
      "amenity": "restaurant",
      "building": "yes",
      "cuisine": "indian",
      "name": "Indian Zayeka",
      "opening_hours": "Tu-Sa 11:30-14:30,18:30-23:00; Mo 18:30-23:00",
      "phone": "+41 21 691 58 57",
      "source": "EPFL ortho"
    },
    "distance_to_station": 399.9136891599513
  },
  {
    "feature_type": "restaurants",
    "lat": 46.5276575,
    "lon": 6.5724386,
    "tags": {
      "addr:city": "Chavanes-pres-Renens",
      "addr:country": "CH",
      "addr:postcode": "1022",
      "amenity": "restaurant",
      "building": "yes",
      "name": "Le Caf\u00e9 de Chavannes",
      "source": "Orthophoto Ville de Lausanne 2008"
    },
    "distance_to_station": 552.583595632719
  }
]