[
  {
    "feature_type": "sports_centres",
    "lat": 46.519749,
    "lon": 6.596582,
    "tags": {
      "addr:city": "Lausanne",
      "addr:housenumber": "27D",
      "addr:postcode": "1007",
      "addr:street": "route de Chavannes 27D-C",
      "contact:facebook": "bowlandvidy",
      "email": "vidy@bowland.ch",
      "leisure": "sports_centre",
      "name": "Bowling International Vidy",
      "opening_hours": "Mo-Fr 15:30-24:00; Sa 13:30-00:00; Su 13:30-23:00",
      "phone": "+41 21 626 36 37",
      "sport": "10pin",
      "website": "https://www.bowland-vidy.ch/",
      "wheelchair": "limited"
    },
    "distance_to_station": 946.021148181937
  },
  {
    "feature_type": "sports_centres",
    "lat": 46.5302703,
    "lon": 6.5913306,
    "tags": {
      "addr:city": "Renens VD",
      "addr:housenumber": "7",
      "addr:postcode": "1020",
      "addr:street": "Rue du Ch\u00eane",
      "fee": "yes",
      "leisure": "sports_centre",
      "name": "Squash Lausanne",
      "phone": "+41 21 634 10 00",
      "sport": "squash",
      "website": "https://www.squashlausanne.ch"
    },
    "distance_to_station": 983.6383149921782
  },
  {
    "feature_type": "sports_centres",
    "lat": 46.5297302,
    "lon": 6.5830315,
    "tags": {
      "fee": "yes",
      "leisure": "sports_centre",
      "name": "Piscine de Renens",
      "sport": "swimming",
      "website": "https://www.aquasplash.ch/"
    },
    "distance_to_station": 807.2949957139701
  },
  {
    "feature_type": "sports_centres",
    "lat": 46.5190715,
    "lon": 6.5813807,
    "tags": {
      "addr:city": "Lausanne",
      "addr:postcode": "1015",
      "leisure": "sports_centre",
      "name": "Centre sportif universitaire de Dorigny",
      "website": "https://sport.unil.ch/?mid=127"
    },
    "distance_to_station": 478.0572165175808
  },
  {
    "feature_type": "sports_centres",
    "lat": 46.5245071,
    "lon": 6.5863197,
    "tags": {
      "leisure": "sports_centre",
      "sport": "multi"
    },
    "distance_to_station": 237.14153471095887
  }
]