[
  {
    "feature_type": "cafes",
    "lat": 46.5196529,
    "lon": 6.5647162,
    "tags": {
      "amenity": "cafe",
      "layer": "0",
      "name": "Caf\u00e9t\u00e9ria NIKI",
      "opening_hours": "Mo-Fr 08:00-16:00"
    },
    "distance_to_station": 210.95698181536787
  },
  {
    "feature_type": "cafes",
    "lat": 46.5194865,
    "lon": 6.5724095,
    "tags": {
      "amenity": "cafe"
    },
    "distance_to_station": 788.5973594752662
  },
  {
    "feature_type": "cafes",
    "lat": 46.5183541,
    "lon": 6.5620608,
    "tags": {
      "amenity": "cafe",
      "cuisine": "french",
      "indoor_seating": "yes",
      "name": "Self-service Hopper",
      "opening_hours": "Mo-Sa 08:00-15:00",
      "outdoor_seating": "yes",
      "payment:credit_cards": "yes",
      "payment:debit_cards": "yes",
      "smoking": "outside",
      "website": "https://www.epfl.ch/campus/restaurants-shops-hotels/fr/restauration/self-service/cafeteria-bc/"
    },
    "distance_to_station": 66.8051635142296
  },
  {
    "feature_type": "cafes",
    "lat": 46.5182086,
    "lon": 6.5680231,
    "tags": {
      "amenity": "cafe",
      "diet:vegetarian": "yes",
      "name": "Paul Klee",
      "opening_hours": "Mo-Fr 07:00-21:00; Sa,Su 08:00-18:00",
      "website": "https://www.epfl.ch/campus/restaurants-shops-hotels/fr/restauration/cafeteria/le-klee-by-novae/",
      "wheelchair": "yes"
    },
    "distance_to_station": 457.2686320690487
  },
  {
    "feature_type": "cafes",
    "lat": 46.5200213,
    "lon": 6.5638979,
    "tags": {
      "amenity": "cafe",
      "diet:vegetarian": "yes",
      "name": "Cyber Caf\u00e9 SV",
      "opening_hours": "Mo-Fr 07:00-17:30"
    },
    "distance_to_station": 178.60228005804652
  },
  {
    "feature_type": "cafes",
    "lat": 46.5185684,
    "lon": 6.56336,
    "tags": {
      "amenity": "cafe",
      "diet:vegetarian": "yes",
      "level": "1",
      "name": "Caf\u00e9t\u00e9ria ZAHA",
      "opening_hours": "Mo-Fr 08:00-15:00",
      "start_date": "2021-09-27",
      "website": "https://www.epfl.ch/campus/restaurants-shops-hotels/fr/restauration/cafeteria/cafeterie-inm/"
    },
    "distance_to_station": 101.29140523091884
  },
  {
    "feature_type": "cafes",
    "lat": 46.5191968,
    "lon": 6.5636255,
    "tags": {
      "amenity": "cafe",
      "internet_access": "wlan",
      "name": "Caf\u00e9t\u00e9ria MX",
      "opening_hours": "Mo-Fr 08:45-02:30",
      "website": "https://restauration.epfl.ch/op/edit/cafeteria-MX"
    },
    "distance_to_station": 115.57890678696806
  },
  {
    "feature_type": "cafes",
    "lat": 46.520415,
    "lon": 6.5694217,
    "tags": {
      "amenity": "cafe",
      "diet:vegetarian": "yes",
      "name": "L'Arcadie",
      "opening_hours": "Mo-Fr 07:00-17:00",
      "website": "https://restauration.epfl.ch/op/edit/page-74992.html"
    },
    "distance_to_station": 580.3567411254992
  },
  {
    "feature_type": "cafes",
    "lat": 46.5196747,
    "lon": 6.5688004,
    "tags": {
      "addr:city": "Lausanne",
      "addr:postcode": "1015",
      "addr:street": "Avenue A. Piccard",
      "amenity": "cafe",
      "name": "L'Epicure",
      "opening_hours": "Mo-Fr 11:00-14:00",
      "website": "https://restauration.epfl.ch/epicure"
    },
    "distance_to_station": 515.7135993669747
  },
  {
    "feature_type": "cafes",
    "lat": 46.5178487,
    "lon": 6.5658619,
    "tags": {
      "addr:city": "Lausanne",
      "addr:postcode": "1015",
      "addr:street": "Place Cosandey",
      "amenity": "cafe",
      "image": "File:Montreux Jazz Cafe Lausanne EPFL 01.jpg",
      "name": "Montreux Jazz Caf\u00e9",
      "opening_hours": "Mo-Th 10:00-18:00; Fr 10:00-16:00",
      "website": "https://www.montreuxjazzcafe.com/fr/cafe/epfl-lausanne",
      "wikidata": "Q94283981",
      "wikimedia_commons": "Category:Montreux Jazz Cafe"
    },
    "distance_to_station": 309.23111935411606
  }
]