[
  {
    "feature_type": "schools",
    "lat": 46.5265003,
    "lon": 6.5719241,
    "tags": {
      "addr:city": "Chavannes-pr\u00e8s-Renens",
      "addr:country": "CH",
      "addr:housenumber": "2",
      "addr:postcode": "1022",
      "addr:street": "Rte de la Plaine",
      "amenity": "school",
      "building": "school",
      "building:levels": "3",
      "name": "Coll\u00e8ge de la Plaine",
      "roof:levels": "0",
      "source": "EPFL ortho"
    },
    "distance_to_station": 952.7400892918325
  },
  {
    "feature_type": "schools",
    "lat": 46.5238402,
    "lon": 6.5903604,
    "tags": {
      "amenity": "school",
      "building": "yes",
      "name": "\u00c9cole et Centre de vie enfantine de la Bourdonnette",
      "source": "Orthophoto Ville de Lausanne 2008"
    },
    "distance_to_station": 934.5228673540362
  },
  {
    "feature_type": "schools",
    "lat": 46.5267358,
    "lon": 6.5720466,
    "tags": {
      "amenity": "school",
      "check_date": "2024-12-30",
      "name": "Coll\u00e8ge de la Plaine"
    },
    "distance_to_station": 967.6112555212808
  }
]