[
  {
    "feature_type": "schools",
    "lat": 46.5127383,
    "lon": 6.5612655,
    "tags": {
      "amenity": "school"
    },
    "distance_to_station": 694.0306827192513
  },
  {
    "feature_type": "schools",
    "lat": 46.5232598,
    "lon": 6.5610893,
    "tags": {
      "amenity": "school",
      "name": "La Coquerellaz",
      "source": "survey"
    },
    "distance_to_station": 485.9937896038534
  },
  {
    "feature_type": "schools",
    "lat": 46.5233135,
    "lon": 6.5614558,
    "tags": {
      "addr:city": "Ecublens (VD)",
      "addr:country": "CH",
      "addr:postcode": "1024",
      "amenity": "school",
      "building": "school",
      "source": "EPFL ortho"
    },
    "distance_to_station": 487.96023355175276
  },
  {
    "feature_type": "schools",
    "lat": 46.522808,
    "lon": 6.5611502,
    "tags": {
      "addr:city": "Ecublens (VD)",
      "addr:country": "CH",
      "addr:housenumber": "1b",
      "addr:postcode": "1024",
      "addr:street": "Chemin de la Plantaz",
      "amenity": "school",
      "building": "school",
      "source": "EPFL ortho"
    },
    "distance_to_station": 435.72263410672207
  },
  {
    "feature_type": "schools",
    "lat": 46.5230823,
    "lon": 6.5607891,
    "tags": {
      "addr:city": "Ecublens (VD)",
      "addr:country": "CH",
      "addr:postcode": "1024",
      "amenity": "school",
      "building": "yes",
      "source": "EPFL ortho"
    },
    "distance_to_station": 471.16947612525286
  },
  {
    "feature_type": "schools",
    "lat": 46.5126339,
    "lon": 6.5611261,
    "tags": {
      "amenity": "school",
      "name": "\u00c9cole de Saint-Sulpice"
    },
    "distance_to_station": 706.702985358912
  }
]