[
  {
    "feature_type": "shops",
    "lat": 46.5212828,
    "lon": 6.5746839,
    "tags": {
      "name": "KramerKrieg",
      "opening_hours": "Mo-Fr 08:15-10:30,11:00-14:45,15:15-17:30",
      "shop": "kiosk"
    },
    "distance_to_station": 252.8818022564457
  },
  {
    "feature_type": "shops",
    "lat": 46.5224108,
    "lon": 6.5842893,
    "tags": {
      "shop": "kiosk"
    },
    "distance_to_station": 990.4797821474582
  },
  {
    "feature_type": "shops",
    "lat": 46.5278259,
    "lon": 6.567057,
    "tags": {
      "check_date:opening_hours": "2021-11-30",
      "name": "Kiosque Ariana",
      "opening_hours": "Mo-Fr 06:30-20:00; Sa,Su,PH 07:00-20:00",
      "shop": "convenience"
    },
    "distance_to_station": 921.8346872149743
  },
  {
    "feature_type": "shops",
    "lat": 46.5182699,
    "lon": 6.5681519,
    "tags": {
      "name": "Poseidon",
      "shop": "rental",
      "website": "https://www.epfl.ch/campus/services/en/it-services/discount-and-loan-for-personnal-computers/"
    },
    "distance_to_station": 351.863875871008
  },
  {
    "feature_type": "shops",
    "lat": 46.5184843,
    "lon": 6.5675233,
    "tags": {
      "internet_access": "yes",
      "name": "La Boutique",
      "opening_hours": "Mo-Fr 10:00-15:00",
      "operator": "EPFL",
      "shop": "books",
      "wheelchair": "yes"
    },
    "distance_to_station": 378.6195941679805
  },
  {
    "feature_type": "shops",
    "lat": 46.520557,
    "lon": 6.5681235,
    "tags": {
      "name": "Le N\u00e9goce",
      "opening_hours": "Mo-Fr 06:30-16:30",
      "shop": "convenience",
      "website": "https://restauration.epfl.ch/op/edit/page-75023.html"
    },
    "distance_to_station": 283.64301586714794
  },
  {
    "feature_type": "shops",
    "lat": 46.5229222,
    "lon": 6.5656983,
    "tags": {
      "brand": "Migros",
      "brand:wikidata": "Q680727",
      "brand:wikipedia": "en:Migros",
      "cash_withdrawal": "postfinance_card",
      "cash_withdrawal:fee": "no",
      "cash_withdrawal:purchase_required": "no",
      "cash_withdrawal:type": "checkout",
      "check_date:opening_hours": "2024-06-09",
      "name": "Migros",
      "opening_hours": "Mo-Fr 07:30-20:00; Sa 08:00-18:00",
      "shop": "supermarket",
      "wheelchair": "yes"
    },
    "distance_to_station": 556.3227635817851
  },
  {
    "feature_type": "shops",
    "lat": 46.5223266,
    "lon": 6.5658652,
    "tags": {
      "brand": "Salt",
      "brand:wikidata": "Q3884382",
      "check_date:opening_hours": "2024-04-04",
      "name": "Salt",
      "opening_hours": "Mo-Fr 09:00-18:00",
      "shop": "telecommunication",
      "wheelchair": "yes"
    },
    "distance_to_station": 511.9024601022375
  },
  {
    "feature_type": "shops",
    "lat": 46.5228102,
    "lon": 6.5657045,
    "tags": {
      "brand": "Denner",
      "brand:wikidata": "Q379911",
      "brand:wikipedia": "en:Denner (supermarket)",
      "cash_withdrawal": "migros_bank;postfinance_card",
      "cash_withdrawal:fee": "no",
      "cash_withdrawal:purchase_required": "no",
      "cash_withdrawal:type": "checkout",
      "check_date:opening_hours": "2024-06-09",
      "name": "Denner",
      "opening_hours": "Mo-Fr 07:30-20:00; Sa 08:00-18:00",
      "shop": "supermarket",
      "wheelchair": "yes"
    },
    "distance_to_station": 549.2513344268073
  },
  {
    "feature_type": "shops",
    "lat": 46.5223303,
    "lon": 6.5662301,
    "tags": {
      "addr:city": "Ecublens (VD)",
      "addr:housenumber": "10A",
      "addr:postcode": "1024",
      "addr:street": "Route Louis-Favre",
      "check_date:opening_hours": "2022-09-14",
      "female": "yes",
      "male": "yes",
      "name": "Arte Beauty & Wellness",
      "opening_hours": "Mo-Fr 08:00-20:00; Sa 08:00-18:00",
      "shop": "hairdresser"
    },
    "distance_to_station": 487.4315537358
  },
  {
    "feature_type": "shops",
    "lat": 46.5258777,
    "lon": 6.564068,
    "tags": {
      "addr:city": "Ecublens (VD)",
      "addr:housenumber": "26",
      "addr:street": "Rue de Bassenges",
      "name": "Coiffure Michou",
      "shop": "hairdresser"
    },
    "distance_to_station": 865.2066566253098
  },
  {
    "feature_type": "shops",
    "lat": 46.5249148,
    "lon": 6.57481,
    "tags": {
      "addr:city": "Chavannes-pr\u00e8s-Renens",
      "addr:housenumber": "29",
      "addr:postcode": "1022",
      "addr:street": "Route de Praz-V\u00e9guey",
      "bulk_purchase": "yes",
      "contact:facebook": "levorace.epicerie",
      "contact:instagram": "le.vorace",
      "email": "info@levorace.ch",
      "membership": "yes",
      "name": "Le Vorace",
      "opening_hours": "Mo-Fr 14:00-19:00; Sa 14:00-18:00",
      "operator": "Coop\u00e9rative Le Vorace",
      "operator:governance": "volunteers",
      "operator:type": "cooperative",
      "shop": "convenience",
      "website": "https://levorace.ch/",
      "zero_waste": "yes"
    },
    "distance_to_station": 573.0300412532191
  },
  {
    "feature_type": "shops",
    "lat": 46.5272287,
    "lon": 6.5738951,
    "tags": {
      "addr:city": "Chavannes-pr\u00e8s-Renens",
      "addr:housenumber": "8",
      "addr:postcode": "1022",
      "addr:street": "Rue de la Mouline",
      "contact:facebook": "associationgloryland",
      "email": "info-gloryland@bluewin.ch",
      "name": "Gloryland",
      "opening_hours": "Mo-Fr 09:00-12:30,14:00-18:00; Sa 09:00-17:00",
      "operator": "Association Gloryland",
      "phone": "+41 21 691 41 50",
      "second_hand": "yes",
      "shop": "second_hand",
      "website": "https://www.gloryland.ch/"
    },
    "distance_to_station": 797.7179347658576
  },
  {
    "feature_type": "shops",
    "lat": 46.5239053,
    "lon": 6.5753406,
    "tags": {
      "name": "Kiosque du vortex",
      "opening_hours": "Mo-Fr 10:00-22:00; Sa 12:00-22:00; Su 12:00-20:00",
      "shop": "kiosk"
    },
    "distance_to_station": 493.9067645496292
  },
  {
    "feature_type": "shops",
    "lat": 46.5239106,
    "lon": 6.575484,
    "tags": {
      "name": "Tonton grain",
      "opening_hours": "Tu-Fr 07:30-20:00; Mo 08:00-14:30; Sa 08:00-18:00; Su 09:00-17:00",
      "shop": "bakery"
    },
    "distance_to_station": 500.55574362181545
  },
  {
    "feature_type": "shops",
    "lat": 46.5248247,
    "lon": 6.5746653,
    "tags": {
      "name": "The next cut",
      "opening_hours": "Tu-Fr 09:00-19:00; Mo 12:00-19:00; Sa 09:00-18:00",
      "shop": "hairdresser",
      "website": "https://the-next-cut-barber-shop-vortex.business.site/"
    },
    "distance_to_station": 559.4078279332824
  },
  {
    "feature_type": "shops",
    "lat": 46.5282355,
    "lon": 6.5678281,
    "tags": {
      "addr:city": "Chavannes-pr\u00e8s-Renens",
      "addr:housenumber": "6",
      "addr:postcode": "1022",
      "addr:street": "Route de la Maladi\u00e8re",
      "brand": "Denner",
      "brand:wikidata": "Q379911",
      "cash_withdrawal": "migros_bank;postfinance_card",
      "cash_withdrawal:fee": "no",
      "cash_withdrawal:purchase_required": "no",
      "cash_withdrawal:type": "checkout",
      "check_date:opening_hours": "2024-09-10",
      "name": "Denner",
      "opening_hours": "Mo-Fr 08:00-19:00; Sa 08:00-18:00",
      "operator": "Denner",
      "payment:cash": "yes",
      "payment:credit_cards": "yes",
      "payment:twint": "yes",
      "phone": "+41 58 999 17 21",
      "shop": "supermarket",
      "website": "https://www.denner.ch/"
    },
    "distance_to_station": 943.1907869883961
  },
  {
    "feature_type": "shops",
    "lat": 46.5282567,
    "lon": 6.5674407,
    "tags": {
      "addr:city": "Chavannes-pr\u00e8s-Renens",
      "addr:housenumber": "6",
      "addr:postcode": "1022",
      "addr:street": "Route de la Maladi\u00e8re",
      "check_date:opening_hours": "2024-09-10",
      "name": "Halle aux boissons",
      "opening_hours": "Mo-Fr 08:00-19:00; Sa 08:00-18:00",
      "operator": "Alloboissons SA",
      "phone": "+41 21 624 27 27",
      "shop": "beverages",
      "website": "https://www.alloboissons.ch/"
    },
    "distance_to_station": 955.3803339076503
  },
  {
    "feature_type": "shops",
    "lat": 46.5279358,
    "lon": 6.5669296,
    "tags": {
      "shop": "laundry"
    },
    "distance_to_station": 936.9212803764499
  },
  {
    "feature_type": "shops",
    "lat": 46.5238207,
    "lon": 6.5837244,
    "tags": {
      "branch": "Basta Dorigny",
      "brand": "Basta",
      "check_date": "2024-08-08",
      "email": "dorigny@librairiebasta.ch",
      "fixme": "Unknown position",
      "name": "Basta",
      "opening_hours": "Mo-We 09:00-12:30,13:30-17:15; Th 10:30-12:30,13:30-17:15; Fr 09:00-13:00",
      "phone": "+44 21 691 39 37",
      "shop": "books",
      "start_date": "1991",
      "website": "https://librairiebasta.ch/"
    },
    "distance_to_station": 1000.623255061317
  },
  {
    "feature_type": "shops",
    "lat": 46.5201158,
    "lon": 6.5662168,
    "tags": {
      "description": "Vente de pulls, t-shirts, housses, reliure\nTrucs gratuits: capotes, tipp-ex, stylos,...",
      "name": "Boutique AGEPoly",
      "opening_hours": "Mo-Fr 10:00-16:00",
      "operator": "AGEPoly",
      "phone": "+41216932095",
      "shop": "stationery"
    },
    "distance_to_station": 427.3021921373191
  },
  {
    "feature_type": "shops",
    "lat": 46.5217438,
    "lon": 6.567791,
    "tags": {
      "building": "industrial",
      "building:levels": "1",
      "description": "\u25baVente de v\u00e9los d'occasion pour tous les go\u00fbts \u25baPetites r\u00e9parations au prix des fournitures \u25baMise \u00e0 disposition d'outils pour les bricoleurs \u25baCours de m\u00e9canique Horaires hors semestre: Je-Ve 12:00 Pr\u00e9sentation : https://youtu.be/nqXQ7LixL8w",
      "name": "Point V\u00e9lo",
      "opening_hours": "Mo-Th 12:00-13:00; Fr 12:00-17:00; SH Tu 12:00-14:00 \"Hors semestre (off semester)\"; SH Th-Fr 12:00-17:00 \"Hors semestre (off semester)\"; Jul 15-Aug 15 Th-Fr 12:00-17:00",
      "phone": "+41 79 371 36 55",
      "service:bicycle:pump": "yes",
      "shop": "bicycle",
      "website": "https://www.epfl.ch/about/sustainability/fr/accueil/mobilite/pointvelo/"
    },
    "distance_to_station": 351.07279929442547
  }
]