[
  {
    "feature_type": "atms",
    "lat": 46.5199858,
    "lon": 6.5687766,
    "tags": {
      "alt_name": "Postomat",
      "amenity": "atm",
      "cash_in": "yes",
      "check_date": "2024-01-22",
      "indoor": "no",
      "name": "Postfinance",
      "operator": "PostFinance"
    },
    "distance_to_station": 232.01882631459412
  },
  {
    "feature_type": "atms",
    "lat": 46.5204391,
    "lon": 6.5662707,
    "tags": {
      "amenity": "atm",
      "brand": "Credit Suisse",
      "brand:wikidata": "Q372657",
      "brand:wikipedia": "en:Credit Suisse",
      "check_date": "2021-04-27",
      "name": "Credit Suisse",
      "operator": "Credit Suisse",
      "operator:wikidata": "Q372657",
      "operator:wikipedia": "en:Credit Suisse",
      "wheelchair": "yes"
    },
    "distance_to_station": 423.8777149468968
  },
  {
    "feature_type": "atms",
    "lat": 46.5183883,
    "lon": 6.5676816,
    "tags": {
      "amenity": "atm",
      "brand": "Credit Suisse",
      "brand:wikidata": "Q372657",
      "brand:wikipedia": "en:Credit Suisse",
      "cash_in": "no",
      "indoor": "yes",
      "name": "Credit Suisse",
      "name:en": "Cr\u00e9dit Suisse ATM",
      "opening_hours": "Mo-Su 07:00-00:00",
      "operator": "Valiant",
      "operator:wikidata": "Q372657",
      "operator:wikipedia": "en:Credit Suisse"
    },
    "distance_to_station": 373.8271137610935
  },
  {
    "feature_type": "atms",
    "lat": 46.5229579,
    "lon": 6.5656988,
    "tags": {
      "amenity": "atm",
      "brand": "Credit Suisse",
      "brand:wikidata": "Q372657",
      "brand:wikipedia": "en:Credit Suisse",
      "cash_in": "no",
      "check_date": "2024-04-03",
      "name": "Credit Suisse",
      "operator": "UBS",
      "operator:wikidata": "Q372657",
      "operator:wikipedia": "en:Credit Suisse",
      "wheelchair": "yes"
    },
    "distance_to_station": 558.4574962093546
  }
]