[
  {
    "feature_type": "restaurants",
    "lat": 46.5201327,
    "lon": 6.5654592,
    "tags": {
      "amenity": "restaurant",
      "diet:vegan": "no",
      "diet:vegetarian": "yes",
      "indoor_seating": "yes",
      "name": "L'esplanade",
      "opening_hours": "Mo-Fr 07:00-19:00",
      "outdoor_seating": "yes",
      "payment:credit_cards": "yes",
      "payment:debit_cards": "yes",
      "smoking": "outside",
      "wheelchair": "yes"
    },
    "distance_to_station": 606.5468051464597
  },
  {
    "feature_type": "restaurants",
    "lat": 46.520841,
    "lon": 6.5643819,
    "tags": {
      "amenity": "restaurant",
      "diet:vegetarian": "yes",
      "name": "Piano",
      "opening_hours": "Mo-Fr 11:30-13:30",
      "website": "https://www.epfl.ch/campus/restaurants-shops-hotels/fr/restauration/self-service/le-corbusier/",
      "wheelchair": "yes"
    },
    "distance_to_station": 681.0774013884892
  },
  {
    "feature_type": "restaurants",
    "lat": 46.5203721,
    "lon": 6.5672157,
    "tags": {
      "amenity": "restaurant",
      "diet:vegetarian": "yes",
      "name": "Le Parmentier",
      "opening_hours": "Mo-Fr 11:00-14:00; Mo-Th 18:00-20:00"
    },
    "distance_to_station": 469.2274151393211
  },
  {
    "feature_type": "restaurants",
    "lat": 46.520374,
    "lon": 6.5675081,
    "tags": {
      "amenity": "restaurant",
      "diet:vegetarian": "yes",
      "name": "Le Native, Foodlab",
      "opening_hours": "Mo-Fr 11:30-14:00"
    },
    "distance_to_station": 447.05479356823156
  },
  {
    "feature_type": "restaurants",
    "lat": 46.520333,
    "lon": 6.5688234,
    "tags": {
      "amenity": "restaurant",
      "name": "Le Copernic",
      "opening_hours": "Mo-Fr 12:00-14:00"
    },
    "distance_to_station": 348.94147902056517
  },
  {
    "feature_type": "restaurants",
    "lat": 46.5227635,
    "lon": 6.5802756,
    "tags": {
      "addr:city": "Lausanne",
      "addr:housenumber": "109",
      "addr:postcode": "1015",
      "addr:street": "UNIL - B\u00e2timent Unith\u00e8que",
      "amenity": "restaurant",
      "cuisine": "regional;italian",
      "diet:vegetarian": "yes",
      "fax": "+41 21 692 26 85",
      "name": "Da Nino",
      "opening_hours": "Mo, Tu 08:00-15:00; We-Sa 08:00-15:00, 17:30-00:00",
      "phone": "+41 21 692 26 88",
      "website": "http://www.nino-dorigny.ch"
    },
    "distance_to_station": 571.7903091087974
  },
  {
    "feature_type": "restaurants",
    "lat": 46.5211797,
    "lon": 6.5740002,
    "tags": {
      "amenity": "restaurant",
      "cuisine": "regional",
      "name": "Caf\u00e9teria Amphimax"
    },
    "distance_to_station": 59.314345763859016
  },
  {
    "feature_type": "restaurants",
    "lat": 46.5237719,
    "lon": 6.5839948,
    "tags": {
      "amenity": "restaurant",
      "name": "Caf\u00e9t\u00e9ria de l'Anthropole"
    },
    "distance_to_station": 878.2795053024282
  },
  {
    "feature_type": "restaurants",
    "lat": 46.5221165,
    "lon": 6.5842811,
    "tags": {
      "amenity": "restaurant",
      "name": "Caf\u00e9t\u00e9ria de l'Internef"
    },
    "distance_to_station": 854.5831918889945
  },
  {
    "feature_type": "restaurants",
    "lat": 46.5204437,
    "lon": 6.567002,
    "tags": {
      "amenity": "restaurant",
      "cuisine": "vietnamese",
      "diet:vegetarian": "no",
      "name": "L'Atlantide",
      "opening_hours": "Mo-Fr 07:00-16:30"
    },
    "distance_to_station": 484.2646536200033
  },
  {
    "feature_type": "restaurants",
    "lat": 46.5200508,
    "lon": 6.5636699,
    "tags": {
      "amenity": "restaurant",
      "diet:vegetarian": "yes",
      "name": "L'Ornithorynque",
      "opening_hours": "Mo-Fr 11:30-14:00",
      "website": "https://restauration.epfl.ch/op/edit/Ornithorynque"
    },
    "distance_to_station": 743.571964707037
  },
  {
    "feature_type": "restaurants",
    "lat": 46.517884,
    "lon": 6.5688787,
    "tags": {
      "amenity": "restaurant",
      "check_date:opening_hours": "2023-05-18",
      "diet:vegetarian": "yes",
      "name": "La Table de Vallotton",
      "opening_hours": "Mo-Fr 11:45-14:00,18:30-22:00",
      "wheelchair": "yes"
    },
    "distance_to_station": 485.7799767817783
  },
  {
    "feature_type": "restaurants",
    "lat": 46.5163226,
    "lon": 6.5621224,
    "tags": {
      "amenity": "restaurant",
      "check_date:opening_hours": "2024-02-21",
      "cuisine": "regional",
      "email": "puur.epfl@eurest.ch",
      "mobile": "+41 79 812 49 13",
      "name": "Puur Innovation",
      "opening_hours": "Mo-Fr 8:00-16:00",
      "opening_hours:kitchen": "Mo-Fr 11:30-14:00",
      "outdoor_seating": "yes",
      "reservation": "yes",
      "smoking": "outside",
      "website": "https://www.epfl.ch/campus/restaurants-shops-hotels/self-service-2/puur/",
      "wheelchair": "yes"
    },
    "distance_to_station": 1002.4273623658863
  },
  {
    "feature_type": "restaurants",
    "lat": 46.5225192,
    "lon": 6.5657129,
    "tags": {
      "addr:city": "Ecublens (VD)",
      "addr:housenumber": "8c",
      "addr:postcode": "1024",
      "addr:street": "Route Louis-Favre",
      "amenity": "restaurant",
      "capacity": "150",
      "cuisine": "italian",
      "diet:vegetarian": "yes",
      "email": "ciao@gina-ristorante.ch",
      "name": "Gina Ristorante",
      "opening_hours": "Mo-Fr 11:45-14:00,18:45-21:30",
      "phone": "+41 21 691 01 33",
      "smoking": "outside",
      "source": "EPFL Website, http://restauration.epfl.ch/gina and http://bottin.epfl.ch/ubrowse.action?acro=GINA",
      "takeaway": "yes",
      "website": "https://restauration.epfl.ch/gina",
      "wheelchair": "yes"
    },
    "distance_to_station": 601.3874369971096
  },
  {
    "feature_type": "restaurants",
    "lat": 46.5169411,
    "lon": 6.5768211,
    "tags": {
      "addr:housenumber": "11",
      "addr:street": "Chemin du Petit-Port",
      "amenity": "restaurant",
      "cuisine": "french",
      "indoor_seating": "yes",
      "internet_access": "wlan",
      "name": "Bistrot Du Petit Port",
      "opening_hours": "PH,Mo-Su 09:00-23:00",
      "outdoor_seating": "yes"
    },
    "distance_to_station": 531.863368995671
  },
  {
    "feature_type": "restaurants",
    "lat": 46.5138873,
    "lon": 6.5707702,
    "tags": {
      "amenity": "restaurant",
      "name": "L'Abordage",
      "phone": "+41216919393",
      "website": "https://abordage-restaurant.ch/"
    },
    "distance_to_station": 817.93711907263
  },
  {
    "feature_type": "restaurants",
    "lat": 46.5189326,
    "lon": 6.57981,
    "tags": {
      "addr:city": "Lausanne",
      "addr:postcode": "1015",
      "addr:street": "Route Cantonale",
      "amenity": "restaurant",
      "name": "Centre Sport et Sant\u00e9",
      "operator": "Fit & Fun Saveurs S\u00e0rl",
      "phone": "+41 21 692 48 75",
      "self_service": "only",
      "website": "https://www.unil.ch/restos/fr/home/menuinst/ou-se-restaurer/self-service-du-css.html"
    },
    "distance_to_station": 555.1510192248965
  },
  {
    "feature_type": "restaurants",
    "lat": 46.5266133,
    "lon": 6.5790251,
    "tags": {
      "amenity": "restaurant",
      "name": "Restaurant self-service de G\u00e9opolis",
      "website": "https://geopolis.sv-restaurant.ch/fr/plan-des-menus/"
    },
    "distance_to_station": 761.2897905025712
  },
  {
    "feature_type": "restaurants",
    "lat": 46.5227383,
    "lon": 6.579738,
    "tags": {
      "amenity": "restaurant",
      "name": "Restaurant self-service de l'Unith\u00e8que, \"Le R\u00e9fectoire\"",
      "website": "http://nino-unil.ch/menu-de-la-semaine/"
    },
    "distance_to_station": 532.0954112594382
  },
  {
    "feature_type": "restaurants",
    "lat": 46.5268058,
    "lon": 6.5741632,
    "tags": {
      "addr:city": "Chavannes-pr\u00e8s-Renens",
      "addr:country": "CH",
      "addr:housenumber": "8",
      "addr:postcode": "1022",
      "addr:street": "Rue de la Mouline",
      "amenity": "restaurant",
      "building": "yes",
      "cuisine": "indian",
      "name": "Indian Zayeka",
      "opening_hours": "Tu-Sa 11:30-14:30,18:30-23:00; Mo 18:30-23:00",
      "phone": "+41 21 691 58 57",
      "source": "EPFL ortho"
    },
    "distance_to_station": 644.3974594046018
  },
  {
    "feature_type": "restaurants",
    "lat": 46.5276575,
    "lon": 6.5724386,
    "tags": {
      "addr:city": "Chavanes-pres-Renens",
      "addr:country": "CH",
      "addr:postcode": "1022",
      "amenity": "restaurant",
      "building": "yes",
      "name": "Le Caf\u00e9 de Chavannes",
      "source": "Orthophoto Ville de Lausanne 2008"
    },
    "distance_to_station": 737.9286048290053
  }
]