[
  {
    "feature_type": "offices",
    "lat": 46.9549027,
    "lon": 7.4683749,
    "tags": {
      "contact:addr": "Nussbaumstrasse 21, 3006 Bern",
      "contact:email": "hallo@dvbern.ch",
      "contact:fax": "+41 31 3782474",
      "contact:phone": "+41 31 3782424",
      "contact:website": "https://www.dvbern.ch/#unser-kontakt",
      "name": "DV Bern",
      "office": "it",
      "operator": "DV Bern AG",
      "source": "website and survey",
      "website": "https://www.dvbern.ch"
    },
    "distance_to_station": 276.1745776539357
  },
  {
    "feature_type": "offices",
    "lat": 46.954318,
    "lon": 7.4688216,
    "tags": {
      "alt_name": "Comfone Hauptsitz",
      "alt_name:en": "Comfone Headquarters",
      "contact:addr": "Nussbaumstrasse 25, 3006 Bern",
      "contact:email": "sales.support@comfone.com",
      "contact:fax": "+41 31 3411011",
      "contact:phone": "+41 31 3411010",
      "function": "headquarters",
      "name": "Comfone",
      "office": "it",
      "operator": "Comfone AG",
      "source": "website and survey",
      "website": "https://www.comfone.com"
    },
    "distance_to_station": 228.20208144081087
  },
  {
    "feature_type": "offices",
    "lat": 46.9544105,
    "lon": 7.4721782,
    "tags": {
      "addr:city": "Bern",
      "addr:country": "CH",
      "addr:housenumber": "13",
      "addr:postcode": "3006",
      "addr:street": "Galgenfeldweg",
      "contact:email": "info@woodtli-ag.ch",
      "contact:fax": "+41 31 3515773",
      "contact:phone": "+41 31 3515743",
      "craft": "gardener",
      "description": "de:Gartenbau- und pflege",
      "name": "Woodtli Gartenbau",
      "office": "company",
      "operator": "Woodtli AG",
      "source": "survey and website",
      "website": "https://www.woodtli-ag.ch/"
    },
    "distance_to_station": 419.81261506177
  },
  {
    "feature_type": "offices",
    "lat": 46.9546516,
    "lon": 7.4703799,
    "tags": {
      "contact:addr": "Galgenfeldweg 1, 3006 Bern",
      "contact:email": "info@kids-team.ch",
      "contact:facebook": "https://www.facebook.com/kidsteam.ch",
      "contact:phone": "+41 31 3304020",
      "name": "kids-team",
      "name:de": "kids-team",
      "name:en": "cef child evangelism fellowship",
      "office": "religion",
      "opening_hours": "Mo-Th 09:00-12:00, 13:30-17:00; Fr 09:00-12:00",
      "operator": "Missionsleiter Daniel von Reitzenstein",
      "website": "https://kids-team.com/ch-de/ueber-uns/team/zentrale-bern"
    },
    "distance_to_station": 328.4788281251485
  },
  {
    "feature_type": "offices",
    "lat": 46.9546956,
    "lon": 7.4675154,
    "tags": {
      "addr:city": "Bern",
      "addr:housenumber": "6",
      "addr:postcode": "3006",
      "addr:street": "Nussbaumstrasse",
      "alt_name": "Drudel 11 - Erlebnisp\u00e4dagogik und Umweltbildung",
      "contact:facebook": "https://www.facebook.com/Drudel11",
      "email": "info@drudel11.ch",
      "name": "Drudel 11",
      "office": "educational_institution",
      "operator": "Drudel 11 - Verein f\u00fcr Erlebnis- und Umweltp\u00e4dagogik",
      "phone": "+41 31 3051168",
      "website": "https://www.drudel11.ch"
    },
    "distance_to_station": 243.18816572381053
  },
  {
    "feature_type": "offices",
    "lat": 46.9541818,
    "lon": 7.4613295,
    "tags": {
      "alt_name": "Regionale Arbeitsvermittlung RAV",
      "check_date": "2023-07-25",
      "contact:addr": "Reiterstrasse 9b, 3013 Bern",
      "contact:email": "rav.bernzentrum@be.ch",
      "contact:phone": "+41 31 6360262",
      "name": "RAV Bern Zentrum",
      "office": "government",
      "opening_hours": "Mo-Th 08:00-12:00, 13:30-17:00; Fr 08:00-12:00; 13:30-16:30; Sa-Su off; PH off",
      "source": "Survey and website",
      "website": "https://www.vol.be.ch/vol/de/index/arbeit/arbeitsvermittlung/ueber_uns/standorte/rav_bern_zentrum.html"
    },
    "distance_to_station": 496.7736134153696
  },
  {
    "feature_type": "offices",
    "lat": 46.9508084,
    "lon": 7.4718081,
    "tags": {
      "contact:addr": "Schosshaldenstrasse 85, 3006 Bern",
      "contact:email": "backoffice@acceleris.ch",
      "contact:phone": "+41 31 9113322",
      "name": "Acceleris",
      "office": "it",
      "opening_hours": "Mo-Fr 08:00-12:00, 13:30-17:00; Sa-Su off; PH off",
      "operator": "Acceleris AG",
      "source": "survey;local knowledge",
      "website": "https://www.acceleris.ch",
      "wheelchair": "yes"
    },
    "distance_to_station": 384.449092349872
  },
  {
    "feature_type": "offices",
    "lat": 46.9507516,
    "lon": 7.4716404,
    "tags": {
      "contact:addr": "Schosshaldenstrasse 85, 3006 Bern",
      "contact:email": "welcome@admire.ch",
      "contact:facebook": "https://www.facebook.com/admiregmbh/",
      "contact:phone": "+41 21 5102000",
      "contact:twitter": "https://twitter.com/admiredcl",
      "name": "Admire",
      "office": "advertising_agency",
      "operator": "Admire GmbH",
      "source": "survey;local knowledge;website",
      "website": "https://admire.ch"
    },
    "distance_to_station": 376.6606815072991
  },
  {
    "feature_type": "offices",
    "lat": 46.9486223,
    "lon": 7.4644984,
    "tags": {
      "contact:addr": "Laubeggstrasse 49, 3006 Bern",
      "contact:email": "info@kacon.ch",
      "contact:phone": "+41 79 3758930",
      "description:de": "IT-Dienstleister",
      "name": "kacon",
      "office": "it",
      "operator": "kacon GmbH"
    },
    "distance_to_station": 485.13042701398126
  },
  {
    "feature_type": "offices",
    "lat": 46.948817,
    "lon": 7.4640429,
    "tags": {
      "contact:addr": "Bantigerstrasse 47, 3006 Bern",
      "contact:email": "info@jadesign.ch",
      "contact:phone": "+41 31 3681020",
      "name": "jaDESIGN",
      "office": "design",
      "website": "https://www.jadesign.ch"
    },
    "distance_to_station": 483.2411834903919
  },
  {
    "feature_type": "offices",
    "lat": 46.9536825,
    "lon": 7.461838,
    "tags": {
      "contact:addr": "Reiterstrasse 11, 3013 Bern",
      "contact:email": "info.bvd@be.ch",
      "contact:fax": "+41 31 6333110",
      "contact:phone": "+41 31 6333111",
      "contact:website": "https://www.bve.be.ch/bve/de/index/direktion/organisation/gs/kontakt.html",
      "government": "public_service",
      "name": "Bau- und Verkehrsdirektion des Kantons Bern",
      "office": "government",
      "short_name": "BVD",
      "website": "https://www.bve.be.ch"
    },
    "distance_to_station": 441.7640583981753
  },
  {
    "feature_type": "offices",
    "lat": 46.9539853,
    "lon": 7.4724961,
    "tags": {
      "alt_name": "Sch\u00e4r Buri Architekten BSA SIA",
      "contact:addr": "Ostermundigenstrasse 73, 3006 Bern",
      "contact:email": "info@schaerburi.ch",
      "contact:fax": "+41 31 3575399",
      "contact:phone": "+41 31 3575388",
      "name": "Sch\u00e4r Buri",
      "office": "architect",
      "operator": "Sch\u00e4r Buri Architekten AG",
      "source": "website and survey",
      "website": "https://www.schaerburi.ch"
    },
    "distance_to_station": 420.21858730448525
  },
  {
    "feature_type": "offices",
    "lat": 46.9543955,
    "lon": 7.4733034,
    "tags": {
      "alt_name": "Mersen Schweiz AG",
      "contact:addr": "Galgenfeldweg 18, 3006 Bern",
      "contact:email": "info.schweiz@mersen.com",
      "contact:phone": "+41 31 3374341",
      "name": "Mersen",
      "office": "company",
      "website": "https://www.mersen.com"
    },
    "distance_to_station": 494.7663396671628
  },
  {
    "feature_type": "offices",
    "lat": 46.9535052,
    "lon": 7.4613871,
    "tags": {
      "email": "info.agi@be.ch",
      "government": "cadaster",
      "name": "Direktion f\u00fcr Inneres und Justiz des Kantons Bern - Amt f\u00fcr Geoinformation",
      "office": "government",
      "phone": "+41 31 633 33 11",
      "website": "https://www.agi.dij.be.ch/",
      "wheelchair": "yes"
    },
    "distance_to_station": 469.53846355647573
  }
]