[
  {
    "feature_type": "shops",
    "lat": 46.9354162,
    "lon": 7.4661446,
    "tags": {
      "addr:city": "Bern",
      "addr:housenumber": "71",
      "addr:postcode": "3006",
      "addr:street": "Brunnadernstrasse",
      "alt_name": "Brunnadere-Lade",
      "delivery": "yes",
      "email": "info@elfenauladen.ch",
      "name": "Elfenau-Laden",
      "opening_hours": "Mo-Fr 08:00-18:30; Sa 08:00-16:00; Su off",
      "organic": "yes",
      "phone": "+41 31 352 03 20",
      "shop": "convenience",
      "website": "https://www.elfenauladen.ch"
    },
    "distance_to_station": 221.87627627566027
  },
  {
    "feature_type": "shops",
    "lat": 46.9364088,
    "lon": 7.4684696,
    "tags": {
      "addr:city": "Bern",
      "addr:housenumber": "47",
      "addr:postcode": "3006",
      "addr:street": "Manuelstrasse",
      "email": "shop@sport64.ch",
      "name": "Sport64",
      "opening_hours": "Mo 09.00-12.00; Tu-We 09.00-12.00,14.00-18.00; Th 09.00-12.00,14.00-19.00; Fr 09.00-12.00,14.00-18.00, Sa 09.00-14.00",
      "operator": "Sport 64 Swissbillard AG",
      "phone": "+4131 352 24 84",
      "shop": "sports",
      "sport": "billards",
      "website": "www.sport64.ch"
    },
    "distance_to_station": 364.1571469376742
  }
]