[
  {
    "feature_type": "hotels",
    "lat": 46.958952,
    "lon": 7.4578076,
    "tags": {
      "addr:city": "Bern",
      "addr:housenumber": "38",
      "addr:postcode": "3014",
      "addr:street": "Milit\u00e4rstrasse",
      "alt_name": "Hotel Jardin",
      "description": "Family owned Hotel in fourth generation. Located in a quiet residential area, close to the old part of town and the city centre. 5 minutes by foot from the BernExpo exhibition grounds and the sports stadia Stade de Suisse Wankdorf and PostFinance Arena.",
      "email": "info@hotel-jardin.ch",
      "fax": "+41 31 333 09 43",
      "internet_access": "wlan",
      "internet_access:fee": "no",
      "internet_access:ssid": "Hotel Jardin",
      "name": "Hotel Jardin Bern",
      "opening_hours": "Mo-Su 07:00-23:00",
      "operator": "Gebr\u00fcder Andreas und Daniel Balz",
      "payment:american_express": "yes",
      "payment:cash": "yes",
      "payment:contactless": "yes",
      "payment:credit_cards": "yes",
      "payment:debit_cards": "yes",
      "payment:diners_club": "yes",
      "payment:discover_card": "yes",
      "payment:maestro": "yes",
      "payment:mastercard": "yes",
      "payment:visa": "yes",
      "payment:visa_debit": "yes",
      "phone": "+41 31 333 01 17",
      "rooms": "24",
      "smoking": "outside",
      "source": "local knowledge",
      "stars": "3",
      "start_date": "1929",
      "tourism": "hotel",
      "website": "https://www.hotel-jardin.ch/"
    },
    "distance_to_station": 504.68941766023954
  },
  {
    "feature_type": "hotels",
    "lat": 46.9586496,
    "lon": 7.4643305,
    "tags": {
      "addr:city": "Bern",
      "addr:country": "CH",
      "addr:housenumber": "4",
      "addr:postcode": "3014",
      "addr:street": "Guisanplatz",
      "alt_name": "H5049",
      "brand": "Ibis Budget",
      "brand:wikidata": "Q1458135",
      "check_date:internet_access": "2023-01-23",
      "contact:email": "h5049@accor.com",
      "contact:phone": "+41 31 3351212",
      "internet_access": "wlan",
      "internet_access:fee": "no",
      "name": "ibis budget Bern Expo",
      "name:es": "Ibis Budget Bern Expo",
      "old_name": "Etap Hotel",
      "operator": "Accor",
      "smoking": "no",
      "tourism": "hotel",
      "website": "http://www.ibis.com/de/hotel-5049-ibis-budget-bern-expo-ex-etap-hotel/index.shtml",
      "wheelchair": "yes"
    },
    "distance_to_station": 917.9588425753111
  },
  {
    "feature_type": "hotels",
    "lat": 46.9500345,
    "lon": 7.4589913,
    "tags": {
      "addr:city": "Bern",
      "addr:housenumber": "4",
      "addr:postcode": "3013",
      "addr:street": "Altenbergstrasse",
      "alt_name": "Albert & Frida",
      "contact:addr": "Altenbergstrasse 4, 3013 Bern",
      "contact:email": "hotel@albertfrida.ch",
      "contact:phone": "+41 31 3480305",
      "contact:website": "http://www.albertfrida.ch/index.php/kontakt.html",
      "internet_access": "wlan",
      "name": "Landhaus",
      "operator": "Albert & Frida GmbH",
      "source": "website",
      "tourism": "hotel",
      "website": "https://albertfrida.ch"
    },
    "distance_to_station": 789.3530803029291
  },
  {
    "feature_type": "hotels",
    "lat": 46.9492876,
    "lon": 7.4446885,
    "tags": {
      "addr:city": "Bern",
      "addr:housenumber": "28",
      "addr:postcode": "3011",
      "addr:street": "Zeughausgasse",
      "alt_name": "Stay KooooK Bern City",
      "contact:whatsapp": "https://wa.me/41317770076",
      "internet_access": "wlan",
      "internet_access:fee": "yes",
      "name": "Stay KooooK Bern City",
      "phone": "+41 800 566 665",
      "tourism": "hotel",
      "website": "https://www.staykooook.com/bern-city/"
    },
    "distance_to_station": 963.6674745179292
  },
  {
    "feature_type": "hotels",
    "lat": 46.9486987,
    "lon": 7.4463572,
    "tags": {
      "addr:city": "Bern",
      "addr:housenumber": "9",
      "addr:postcode": "3011",
      "addr:street": "Zeughausgasse",
      "alt_name": "Hotel Bern;BEST WESTERN HOTELBERN",
      "beds": "150",
      "brand": "Best Western",
      "contact:addr": "Zeughausgasse 9, 3011 Bern",
      "contact:email": "reception@hotelbern.ch",
      "contact:fax": "+41 31 3292299",
      "contact:phone": "+41 31 3292222",
      "contact:website": "https://www.hotelbern.ch/",
      "internet_access": "wlan",
      "internet_access:fee": "no",
      "name": "Hotel Bern",
      "rooms": "99",
      "source": "survey and website",
      "tourism": "hotel",
      "website": "https://www.hotelbern.ch/",
      "wheelchair": "yes",
      "wikidata": "Q2531969"
    },
    "distance_to_station": 940.0064657148498
  },
  {
    "feature_type": "hotels",
    "lat": 46.9485384,
    "lon": 7.4556746,
    "tags": {
      "addr:city": "Bern",
      "addr:housenumber": "1",
      "addr:postcode": "3011",
      "addr:street": "Gerechtigkeitsgasse",
      "alt_name": "Hotel Nydeck",
      "contact:addr": "Gerechtigkeitsgasse 1, 3011 Bern",
      "contact:email": "info@hotelnydeck.ch",
      "contact:fax": "+41 31 3122040",
      "contact:phone": "+41 31 3118686",
      "contact:website": "http://www.hotelnydeck.ch",
      "internet_access": "wlan",
      "internet_access:fee": "no",
      "name": "Nydeck",
      "smoking": "separated",
      "source": "website",
      "tourism": "hotel",
      "wheelchair": "no"
    },
    "distance_to_station": 835.6448755550387
  },
  {
    "feature_type": "hotels",
    "lat": 46.9585241,
    "lon": 7.4641555,
    "tags": {
      "addr:city": "Bern",
      "addr:country": "CH",
      "addr:housenumber": "4",
      "addr:postcode": "3014",
      "addr:street": "Guisanplatz",
      "alt_name": "H5007",
      "brand": "Accor",
      "brand:wikidata": "Q212599",
      "check_date:internet_access": "2023-01-23",
      "contact:email": "h5007@accor.com",
      "contact:fax": "+41 31 335 12 00",
      "contact:phone": "+41 31 335 12 10",
      "contact:website": "http://www.ibis.com/de/hotel-5007-ibis-bern-expo/index.shtml",
      "internet_access": "wlan",
      "internet_access:fee": "yes",
      "name": "ibis Bern Expo",
      "operator": "Accor",
      "smoking": "no",
      "tourism": "hotel",
      "wheelchair": "yes"
    },
    "distance_to_station": 900.7144730350052
  },
  {
    "feature_type": "hotels",
    "lat": 46.9587487,
    "lon": 7.4639379,
    "tags": {
      "addr:city": "Bern",
      "addr:country": "CH",
      "addr:housenumber": "2",
      "addr:postcode": "3014",
      "addr:street": "Guisanplatz",
      "alt_name": "H5009",
      "beds": "224",
      "brand": "Novotel",
      "brand:wikidata": "Q420545",
      "check_date:internet_access": "2023-01-23",
      "contact:email": "h5009@accor.com",
      "contact:fax": "+41 31 339 09 10",
      "contact:phone": "+41 31 339 09 09",
      "contact:website": "http://www.novotel.com/de/hotel-5009-novotel-bern-expo/index.shtml",
      "internet_access": "wlan",
      "internet_access:fee": "no",
      "name": "Novotel Bern Expo",
      "operator": "Accor",
      "rooms": "112",
      "smoking": "no",
      "stars": "4",
      "tourism": "hotel",
      "wheelchair": "yes"
    },
    "distance_to_station": 893.8745153408026
  },
  {
    "feature_type": "hotels",
    "lat": 46.9531293,
    "lon": 7.4491287,
    "tags": {
      "addr:city": "Bern",
      "addr:country": "CH",
      "addr:housenumber": "3",
      "addr:postcode": "3013",
      "addr:street": "Kornhausstrasse",
      "alt_name": "Swissotel",
      "beds": "292",
      "brand": "Swiss\u00f4tel",
      "brand:wikidata": "Q1635974",
      "email": "reservation@kursaal-bern.ch",
      "internet_access": "wlan",
      "internet_access:fee": "no",
      "name": "Swiss\u00f4tel Kursaal Bern",
      "operator": "Accor S.A.",
      "phone": "+41 31 339 50 50",
      "rooms": "171",
      "stars": "4S",
      "toilets:wheelchair": "yes",
      "tourism": "hotel",
      "website": "https://kursaal-hotel.ch/",
      "wheelchair": "yes"
    },
    "distance_to_station": 420.35451125210466
  },
  {
    "feature_type": "hotels",
    "lat": 46.9562563,
    "lon": 7.4531371,
    "tags": {
      "addr:city": "Bern",
      "addr:housenumber": "2",
      "addr:postcode": "3013",
      "addr:street": "Waldh\u00f6heweg",
      "alt_name": "Hotel Waldhorn",
      "contact:addr": "Waldh\u00f6heweg 2, 3013 Bern",
      "contact:email": "hotel@waldhorn.ch",
      "contact:fax": "+41 31 3321869",
      "contact:phone": "+41 31 3322343",
      "contact:website": "http://www.waldhorn.ch",
      "internet_access": "wlan",
      "internet_access:fee": "no",
      "name": "Waldhorn",
      "source": "survey and website",
      "tourism": "hotel",
      "website": "http://www.waldhorn.ch"
    },
    "distance_to_station": 48.791211698616145
  },
  {
    "feature_type": "hotels",
    "lat": 46.9551329,
    "lon": 7.4481076,
    "tags": {
      "addr:city": "Bern",
      "addr:country": "CH",
      "addr:housenumber": "22a",
      "addr:postcode": "3013",
      "addr:street": "Wyttenbachstrasse",
      "alt_name": "Hotel-Pension Marthahaus",
      "contact:email": "info@marthahaus.ch",
      "contact:fax": "+41 31 333 33 86",
      "contact:phone": "+41 31 332 41 35",
      "contact:website": "http://www.marthahaus.ch",
      "internet_access": "yes",
      "internet_access:fee": "no",
      "name": "Marthahaus",
      "smoking": "no",
      "source": "website",
      "tourism": "hotel"
    },
    "distance_to_station": 380.07946374671184
  },
  {
    "feature_type": "hotels",
    "lat": 46.9488337,
    "lon": 7.4553275,
    "tags": {
      "addr:city": "Bern",
      "addr:housenumber": "18",
      "addr:postcode": "3011",
      "addr:street": "Gerechtigkeitsgasse",
      "alt_name": "Hotel Belle Epoque",
      "beds": "35",
      "contact:addr": "Gerechtigkeitsgasse 18, 3011 Bern",
      "contact:email": "info@belle-epoque.ch",
      "contact:fax": "+41 31 3113936",
      "contact:phone": "+41 31 3114336",
      "contact:website": "http://www.belle-epoque.ch/hotel-bern/en/kontakt.html",
      "internet_access": "wlan",
      "internet_access:fee": "no",
      "name": "Belle Epoque",
      "operator": "BE Hotel Management AG",
      "rooms": "17",
      "source": "website",
      "stars": "4",
      "tourism": "hotel",
      "website": "https://www.belle-epoque.ch/hotel-bern/en/hotel.html"
    },
    "distance_to_station": 797.5566443378622
  },
  {
    "feature_type": "hotels",
    "lat": 46.9486884,
    "lon": 7.4487047,
    "tags": {
      "addr:city": "Bern",
      "addr:housenumber": "72",
      "addr:postcode": "3011",
      "addr:street": "Rathausgasse",
      "alt_name": "Hotel Restaurant Goldener Schl\u00fcssel",
      "check_date": "2025-07-16",
      "contact:addr": "Rathausgasse 72, 3011 Bern",
      "contact:email": "info@goldener-schluessel.ch",
      "contact:fax": "+41 31 3115688",
      "contact:phone": "+41 31 3110216",
      "contact:website": "http://www.goldener-schluessel.ch/contact-us/",
      "internet_access": "wlan",
      "internet_access:fee": "no",
      "name": "Goldener Schl\u00fcssel",
      "operator": "Marianne & Jost Troxler",
      "source": "website",
      "tourism": "hotel",
      "website": "https://hotel-goldener-schluessel.ch",
      "wheelchair": "limited"
    },
    "distance_to_station": 858.3292522984163
  },
  {
    "feature_type": "hotels",
    "lat": 46.9483156,
    "lon": 7.4593357,
    "tags": {
      "addr:city": "Bern",
      "addr:housenumber": "2",
      "addr:postcode": "3006",
      "addr:street": "Grosser Muristalden",
      "alt_name": "Zollhaus Pop-up Hotel Bern",
      "contact:addr": "Grosser Muristalden 2, 3006 Bern",
      "contact:email": "info@zollhausbern.ch",
      "contact:facebook": "https://www.facebook.com/Zollhausbern",
      "contact:instagram": "https://www.instagram.com/zollhausbern",
      "contact:phone": "+41 31 3681415",
      "description": "One Suite Hotel",
      "name": "Zollhaus",
      "operator": "Altes Tramdepot Brauerei Restaurant AG",
      "tourism": "hotel",
      "website": "https://zollhausbern.ch"
    },
    "distance_to_station": 964.5558083895792
  },
  {
    "feature_type": "hotels",
    "lat": 46.953323,
    "lon": 7.4576207,
    "tags": {
      "addr:city": "Bern",
      "addr:housenumber": "21",
      "addr:postcode": "3013",
      "addr:street": "Viktoriastrasse",
      "brand": "prizeotel",
      "contact:addr": "Viktoriastrasse 21, 3013 Bern",
      "contact:email": "hello@prizeotel.com",
      "contact:phone": "+41 31 5612960",
      "internet_access": "wlan",
      "name": "prizeotel Bern-City",
      "payment:cash": "no",
      "tourism": "hotel",
      "website": "https://www.prizeotel.com/de/hotel-bern/",
      "wheelchair": "yes"
    },
    "distance_to_station": 448.84181372763777
  },
  {
    "feature_type": "hotels",
    "lat": 46.9569107,
    "lon": 7.4570699,
    "tags": {
      "addr:city": "Bern",
      "addr:housenumber": "29",
      "addr:postcode": "3013",
      "addr:street": "Kasernenstrasse",
      "email": "office@alpenblickbern.ch",
      "name": "Alpenblick",
      "phone": "+41 31 335 66 66",
      "stars": "3",
      "tourism": "hotel",
      "website": "https://www.alpenblickbern.ch/"
    },
    "distance_to_station": 332.597502939502
  }
]