[
  {
    "feature_type": "restaurants",
    "lat": 46.9415232,
    "lon": 7.4670748,
    "tags": {
      "alt_name": "Restaurant Kurkuma Sivakumaran",
      "amenity": "restaurant",
      "contact:addr": "Muristrasse 51, 3006 Bern",
      "contact:email": "restaurant.hirschen@gmx.ch",
      "contact:facebook": "https://www.facebook.com/pg/restaurantkurkuma",
      "contact:phone": "+41 31 3515592",
      "cuisine": "sri_lankan;swiss",
      "name": "Kurkuma",
      "old_name": "Hirschen",
      "outdoor_seating": "yes",
      "takeaway": "yes"
    },
    "distance_to_station": 294.9215942480711
  },
  {
    "feature_type": "restaurants",
    "lat": 46.9418075,
    "lon": 7.46564,
    "tags": {
      "addr:city": "Bern",
      "addr:country": "CH",
      "addr:housenumber": "115",
      "addr:postcode": "3006",
      "addr:street": "Thunstrasse",
      "alt_name": "Restaurant Burgernziel",
      "amenity": "restaurant",
      "cuisine": "chinese",
      "name": "Pflaumen Garden",
      "name:zh": "\u6885\u82b1\u5712",
      "note": "name = sic!",
      "old_name": "Asia Halong",
      "outdoor_seating": "yes",
      "phone": "+41 313524670",
      "takeaway": "yes"
    },
    "distance_to_station": 186.88383570876013
  },
  {
    "feature_type": "restaurants",
    "lat": 46.9412968,
    "lon": 7.4627853,
    "tags": {
      "addr:city": "Bern",
      "addr:housenumber": "93",
      "addr:postcode": "3006",
      "addr:street": "Thunstrasse",
      "alt_name": "Pokhara Nepali Kitchen",
      "amenity": "restaurant",
      "contact:facebook": "https://www.facebook.com/pokharanepalikitchen",
      "contact:instagram": "https://www.instagram.com/pokharanepalikitchen/",
      "cuisine": "nepali",
      "email": "info@pokharakitchen.ch",
      "name": "Pokhara Nepali Kitchen",
      "opening_hours": "Tu-Fr 11:30-14:00,18:00-22:00; Sa 18:00-22:00",
      "phone": "+41 31 312 93 93",
      "website": "https://www.pokharakitchen.ch/",
      "wheelchair": "no"
    },
    "distance_to_station": 47.83879710218248
  },
  {
    "feature_type": "restaurants",
    "lat": 46.9412365,
    "lon": 7.4650872,
    "tags": {
      "addr:city": "Bern",
      "addr:housenumber": "108",
      "addr:postcode": "3006",
      "addr:street": "Thunstrasse",
      "amenity": "restaurant",
      "cuisine": "italian",
      "name": "RISTORANTE MUNA",
      "opening_hours": "Mo-Fr 10:00-22:00, Sa 17:00-23:00",
      "phone": "+41 31 368 08 08",
      "website": "https://ristorante-muna.ch"
    },
    "distance_to_station": 150.1561465481761
  },
  {
    "feature_type": "restaurants",
    "lat": 46.9380034,
    "lon": 7.4622902,
    "tags": {
      "addr:city": "Bern",
      "addr:country": "CH",
      "addr:housenumber": "33",
      "addr:postcode": "3006",
      "addr:street": "Kalcheggweg",
      "amenity": "restaurant",
      "building": "yes",
      "name": "Siva's Kitchen",
      "source": "Orthofotos Bern"
    },
    "distance_to_station": 408.48253074459666
  },
  {
    "feature_type": "restaurants",
    "lat": 46.939313,
    "lon": 7.4597266,
    "tags": {
      "addr:city": "Bern",
      "addr:housenumber": "15",
      "addr:postcode": "3005",
      "addr:street": "Thunplatz",
      "amenity": "restaurant",
      "building": "yes",
      "name": "TC Rotweiss",
      "outdoor_seating": "yes"
    },
    "distance_to_station": 367.883565580302
  }
]