[
  {
    "feature_type": "restaurants",
    "lat": 46.9513255,
    "lon": 7.4346467,
    "tags": {
      "alt_name": "Restaurant Beaulieu - Deheime ir L\u00e4nggass",
      "amenity": "restaurant",
      "changing_table": "yes",
      "changing_table:location": "unisex_toilet",
      "contact:addr": "Erlachstrasse 3, 3012 Bern",
      "contact:email": "info@restaurantbeaulieu.ch",
      "contact:phone": "+41 31 3312525",
      "cuisine": "regional",
      "name": "Beaulieu",
      "opening_hours": "Mo-Sa 10:00-23:00",
      "operator": "Restaurant Beaulieu AG",
      "outdoor_seating": "yes",
      "source": "survey and website",
      "toilets:wheelchair": "no",
      "website": "https://www.restaurantbeaulieu.ch/",
      "wheelchair": "yes"
    },
    "distance_to_station": 301.11699920894995
  },
  {
    "feature_type": "restaurants",
    "lat": 46.9501111,
    "lon": 7.4356639,
    "tags": {
      "addr:city": "Bern",
      "addr:country": "CH",
      "addr:housenumber": "1",
      "addr:postcode": "3012",
      "addr:street": "Schanzeneckstrasse",
      "alt_name": "UNIess - BISTRO BAR LOUNGE",
      "amenity": "restaurant",
      "contact:email": "info@uniess.ch",
      "contact:fax": "+41 31 6315507",
      "contact:phone": "+41 31 6315505",
      "name": "UNIess",
      "old_name": "Kantine",
      "opening_hours": "Mo-Fr 08:00-15:00; Sa,Su off",
      "operator": "Genossenschaft ZFV-Unternehmungen",
      "source": "website",
      "takeaway": "yes",
      "website": "https://www.uniess.ch/",
      "wheelchair": "yes"
    },
    "distance_to_station": 248.5151827711082
  },
  {
    "feature_type": "restaurants",
    "lat": 46.949584,
    "lon": 7.4384939,
    "tags": {
      "addr:city": "Bern",
      "addr:country": "CH",
      "addr:housenumber": "10",
      "addr:postcode": "3012",
      "addr:street": "Parkterrasse",
      "amenity": "restaurant",
      "contact:email": "info@grosseschanze.ch",
      "contact:phone": "+41 31 318 72 00",
      "diet:vegan": "no",
      "diet:vegetarian": "yes",
      "internet_access": "wlan",
      "internet_access:fee": "no",
      "layer": "5",
      "name": "Grosse Schanze",
      "opening_hours": "May-Sep Mo-We 07:00-20:00, Th-Fr 07:00-22:00, Sa-Su \"on reservation\"; Oct-Apr Mo-Fr 07:00-20:00, Sa-Su \"on reservation\"",
      "operator": "ZFV AG",
      "outdoor_seating": "yes",
      "smoking": "no",
      "website": "https://www.grosseschanze.ch/",
      "wheelchair": "yes"
    },
    "distance_to_station": 168.76377908218598
  },
  {
    "feature_type": "restaurants",
    "lat": 46.9484276,
    "lon": 7.4433385,
    "tags": {
      "addr:floor": "1",
      "alt_name": "Ristorante Pizzeria Pasteria da Vinci",
      "amenity": "restaurant",
      "contact:addr": "Spitalgasse 2, 3011 Bern",
      "contact:email": "info@ristorantedavinci.ch",
      "contact:fax": "+41 31 3112726",
      "contact:phone": "+41 31 3113737",
      "cuisine": "italian",
      "name": "Da Vinci",
      "old_name": "Celina Bern",
      "opening_hours": "Mo-Sa 10:00-23:00; Su 11:00-22:00",
      "operator": "Urim Bajraktari",
      "source": "survey and website",
      "website": "https://www.ristorantedavinci.ch/",
      "wheelchair": "limited"
    },
    "distance_to_station": 466.5540705641736
  },
  {
    "feature_type": "restaurants",
    "lat": 46.9486,
    "lon": 7.44401,
    "tags": {
      "addr:floor": "1",
      "alt_name": "Molino Thurm",
      "amenity": "restaurant",
      "branch": "Bern",
      "brand": "Molino",
      "contact:addr": "Waisenhausplatz 13, 3011 Bern",
      "contact:fax": "+41 31 3116343",
      "contact:phone": "+41 31 3112171",
      "cuisine": "italian",
      "name": "Molino",
      "old_name": "Thurm",
      "opening_hours": "Mo-Th 08:00-23:00; Fr-Sa 08:00-24:00; Su 10:00-23:00",
      "operator": "Ospena Group",
      "source": "survey",
      "website": "https://molino.ch/de/pizzeria-ristorante-molino-thurm",
      "wheelchair": "limited"
    },
    "distance_to_station": 495.89430862991685
  },
  {
    "feature_type": "restaurants",
    "lat": 46.9492827,
    "lon": 7.4444986,
    "tags": {
      "alt_name": "Ristorante Luce",
      "amenity": "restaurant",
      "capacity": "100",
      "contact:addr": "Zeughausgasse 28, 3011 Bern",
      "contact:email": "info@ristoranteluce.ch",
      "contact:facebook": "https://www.facebook.com/ristoranteluce",
      "contact:phone": "+41 31 3109999",
      "cuisine": "italian",
      "diet:vegetarian": "yes",
      "name": "Luce",
      "opening_hours": "Mo-Su 09:00-24:00",
      "operator": "Nilovic + Nilovic",
      "outdoor_seating": "yes",
      "reservation": "recommended",
      "smoking": "outside",
      "source": "survey and website",
      "toilets:wheelchair": "yes",
      "website": "https://www.ristoranteluce.ch",
      "wheelchair": "yes"
    },
    "distance_to_station": 491.22440080298077
  },
  {
    "feature_type": "restaurants",
    "lat": 46.94969,
    "lon": 7.4440069,
    "tags": {
      "amenity": "restaurant",
      "name": "Oliv",
      "old_name": "Ristorante Il Grissino",
      "website": "https://www.dallmaier.ch/oliv-bern"
    },
    "distance_to_station": 439.33935768568995
  },
  {
    "feature_type": "restaurants",
    "lat": 46.9528647,
    "lon": 7.4405862,
    "tags": {
      "addr:city": "Bern",
      "addr:country": "CH",
      "addr:housenumber": "8",
      "addr:postcode": "3012",
      "addr:street": "Neubr\u00fcckstrasse",
      "alt_name": "Restaurant Sous le Pont",
      "amenity": "restaurant",
      "contact:email": "slp@reitschule.ch",
      "contact:phone": "+41 31 3066955",
      "diet:vegan": "yes",
      "diet:vegetarian": "yes",
      "name": "Sous le Pont",
      "opening_hours": "Tu-Th 11:30-24:00, Fr 11:30-02:00, Sa 18:00-02:00",
      "opening_hours:url": "http://souslepont.ch/index.php?page=oeffnungszeiten",
      "source": "survey and website",
      "toilets:wheelchair": "yes",
      "website": "http://www.souslepont.ch",
      "wheelchair": "yes"
    },
    "distance_to_station": 247.45219390126047
  },
  {
    "feature_type": "restaurants",
    "lat": 46.9469538,
    "lon": 7.4391205,
    "tags": {
      "alt_name": "Caf\u00e9 Restaurant Domino",
      "amenity": "restaurant",
      "check_date": "2025-05-26",
      "check_date:opening_hours": "2025-05-26",
      "contact:addr": "Schwanengasse 3, 3011 Bern",
      "contact:email": "husseini.k@bluewin.ch",
      "contact:phone": "+41 31 3114191",
      "cuisine": "lebanese",
      "diet:vegan": "yes",
      "diet:vegetarian": "yes",
      "indoor_seating": "yes",
      "name": "Domino",
      "opening_hours": "Mo-Sa 10:00-23:00; Su,PH off",
      "opening_hours:kitchen": "Mo-Sa 11:00-14:00,18:00-22:00",
      "operator": "Caf\u00e9 Restaurant Domino GmbH",
      "outdoor_seating": "yes",
      "payment:cash": "yes",
      "payment:mastercard": "yes",
      "payment:twint": "yes",
      "payment:visa": "yes",
      "website": "https://www.domino-bern.ch/"
    },
    "distance_to_station": 462.7262448948397
  },
  {
    "feature_type": "restaurants",
    "lat": 46.9467151,
    "lon": 7.4387885,
    "tags": {
      "amenity": "restaurant",
      "check_date": "2025-06-25",
      "contact:email": "info@hellys.ch",
      "name": "Hellys",
      "opening_hours": "Tu-Fr 16:00-18:30",
      "phone": "+41 31 311 90 00",
      "website": "https://hellys.ch"
    },
    "distance_to_station": 487.78853800046073
  },
  {
    "feature_type": "restaurants",
    "lat": 46.9503977,
    "lon": 7.4327778,
    "tags": {
      "addr:city": "Bern",
      "addr:housenumber": "25",
      "addr:postcode": "3012",
      "addr:street": "Schanzeneckstrasse",
      "amenity": "restaurant",
      "capacity": "96, davon 18 Aussen",
      "email": "info@veranda-bern.ch",
      "name": "Veranda",
      "opening_hours": "Mo-Fr 11:00-23:00; Sa-Su \"for groups by appointment\"",
      "operator": "Michael Matthys",
      "organic": "only",
      "outdoor_seating": "yes",
      "phone": "+41 31 305 21 80",
      "smoking": "outside",
      "website": "https://www.veranda-bern.ch",
      "wheelchair": "yes",
      "wheelchair:description": "Elevator with direct access from outside."
    },
    "distance_to_station": 448.7786200448044
  },
  {
    "feature_type": "restaurants",
    "lat": 46.9497673,
    "lon": 7.4431884,
    "tags": {
      "alt_name": "Gourmanderie Mol\u00e9son",
      "amenity": "restaurant",
      "check_date": "2023-12-19",
      "contact:addr": "Aarbergergasse 24, 3011 Bern",
      "contact:email": "info@moleson-bern.ch",
      "contact:phone": "+41 31 3114463",
      "delivery": "yes",
      "description:covid19": "reduced seating",
      "name": "Mol\u00e9son",
      "opening_hours": "Mo-Fr 11:30-14:30,18:00-23:30; Sa 18:00-23:30; Su off",
      "reservation": "yes",
      "source": "survey and website",
      "website": "https://www.moleson-bern.ch/",
      "wheelchair": "limited"
    },
    "distance_to_station": 378.4984577680653
  },
  {
    "feature_type": "restaurants",
    "lat": 46.9495071,
    "lon": 7.4437168,
    "tags": {
      "alt_name": "Ristorante Rialto",
      "amenity": "restaurant",
      "brewery": "Moretti",
      "contact:addr": "Aarbergergasse 6, 3011 Bern",
      "contact:email": "elmazi@rialtobern.ch",
      "contact:fax": "+41 31 3117054",
      "contact:phone": "+41 31 3117051",
      "cuisine": "pizza",
      "level": "0",
      "name": "Rialto",
      "operator": "Elmazi GmbH",
      "outdoor_seating": "yes",
      "reservation": "yes",
      "source": "survey and website",
      "website": "https://www.rialtobern.ch/",
      "wheelchair": "limited"
    },
    "distance_to_station": 426.8732122983776
  },
  {
    "feature_type": "restaurants",
    "lat": 46.9493437,
    "lon": 7.443094,
    "tags": {
      "addr:city": "Bern",
      "addr:housenumber": "19",
      "addr:postcode": "3011",
      "addr:street": "Aarbergergasse",
      "amenity": "restaurant",
      "contact:addr": "Aarbergergasse 19, 3011 Bern",
      "contact:email": "casa.marcello@gmx.ch",
      "contact:phone": "+41 31 3113026",
      "cuisine": "regional",
      "description": "Allowed to bring your own food",
      "name": "Casa Marcello",
      "opening_hours": "Fr, Sa 10:00-01:00; Su-Th 10:00-23:00",
      "operator": "Lanfranchi Gastro GmbH",
      "source": "survey and website",
      "website": "http://casa-marcello.wix.com/casa-marcello",
      "wheelchair": "limited"
    },
    "distance_to_station": 393.06596640760586
  },
  {
    "feature_type": "restaurants",
    "lat": 46.9492518,
    "lon": 7.4433387,
    "tags": {
      "addr:city": "Bern",
      "addr:floor": "2",
      "addr:housenumber": "3",
      "addr:postcode": "3011",
      "addr:street": "Neuengass-Passage",
      "amenity": "restaurant",
      "contact:addr": "Neuengass-Passage 3, 3011 Bern",
      "cuisine": "indian",
      "layer": "2",
      "name": "Namaste India City Restaurant",
      "source": "survey and website",
      "website": "https://www.namastebern.ch/",
      "wheelchair": "limited"
    },
    "distance_to_station": 414.2628465938394
  },
  {
    "feature_type": "restaurants",
    "lat": 46.9499881,
    "lon": 7.442554,
    "tags": {
      "alt_name": "Araber",
      "amenity": "restaurant",
      "contact:addr": "Aarbergergasse 40, 3011 Bern",
      "contact:email": "aarbergerhof@bluewin.ch",
      "contact:phone": "+41 31 3110870",
      "cuisine": "international",
      "name": "Aarbergerhof",
      "opening_hours": "Mo-Th 08:00-23:30; Fr-Sa 08:00-00:30; Su 10:00-23:30",
      "operator": "Caf\u00e9 Aarbergerhof, Bernoulli & Schaad (Kollektivgesellschaft)",
      "smoking": "outside",
      "source": "survey and website",
      "takeaway": "yes",
      "website": "https://www.aarbergerhof.ch",
      "wheelchair": "yes"
    },
    "distance_to_station": 324.59686615318077
  },
  {
    "feature_type": "restaurants",
    "lat": 46.9498468,
    "lon": 7.4420458,
    "tags": {
      "addr:postcode": "3011",
      "amenity": "restaurant",
      "branch": "Bern",
      "contact:addr": "Aarbergergasse 52, 3011 Bern",
      "contact:email": "aarbergergasse@nooch.ch",
      "contact:fax": "+41 31 3119460",
      "contact:phone": "+41 31 3119494",
      "cuisine": "asian",
      "internet_access": "wlan",
      "name": "Nooch Asian Kitchen",
      "opening_hours": "Mo-We 11:00-23:00; Th-Sa 11:00-24:00; Su 16:00-23:00",
      "operator": "Fredy Wiesner Gastronomie",
      "takeaway": "yes",
      "website": "https://www.nooch.ch/nooch-bern-aarbergergasse",
      "wheelchair": "limited"
    },
    "distance_to_station": 296.35878544369393
  },
  {
    "feature_type": "restaurants",
    "lat": 46.9505105,
    "lon": 7.4357448,
    "tags": {
      "amenity": "restaurant",
      "check_date": "2022-11-07",
      "check_date:opening_hours": "2024-04-25",
      "contact:addr": "Falkenplatz 1, 3012 Bern",
      "contact:email": "info@pittaria.ch",
      "contact:phone": "+41 31 301 65 55",
      "contact:website": "https://www.pittaria.ch/",
      "cuisine": "oriental;palestinian",
      "diet:vegan": "yes",
      "diet:vegetarian": "yes",
      "name": "Pittaria BERN",
      "opening_hours": "Mo-Sa 11:00-22:30",
      "opening_hours:kitchen": "Mo-Fr 11:30-14:30,17:30-22:00; Sa 12:00-14:30,17:30-22:00",
      "operator": "Sami Daher",
      "outdoor_seating": "yes",
      "smoking": "outside",
      "takeaway": "yes",
      "wheelchair": "yes"
    },
    "distance_to_station": 226.41874156327896
  },
  {
    "feature_type": "restaurants",
    "lat": 46.9475754,
    "lon": 7.4382717,
    "tags": {
      "addr:housenumber": "8",
      "addr:street": "Bubenbergplatz",
      "amenity": "restaurant",
      "check_date": "2024-12-24",
      "contact:addr": "Bubenbergplatz 8, 3011 Bern",
      "contact:email": "info@cavallostar.ch",
      "contact:phone": "+41 31 3117679",
      "cuisine": "italian;pizza",
      "diet:vegan": "yes",
      "diet:vegetarian": "yes",
      "level": "1",
      "name": "Cavallo Star",
      "opening_hours": "Mo-Sa 08:30-23:00; Su 10:00-22:00",
      "opening_hours:kitchen": "Mo-Sa 11:00-22:30; Su 11:00-21:30",
      "operator": "Cavallo-Star GmbH",
      "outdoor_seating": "yes",
      "takeaway": "yes",
      "toilets:wheelchair": "yes",
      "website": "https://www.cavallostar.ch/",
      "wheelchair": "yes"
    },
    "distance_to_station": 392.7091151564649
  },
  {
    "feature_type": "restaurants",
    "lat": 46.9515314,
    "lon": 7.4351244,
    "tags": {
      "addr:city": "Bern",
      "addr:housenumber": "1",
      "addr:postcode": "3012",
      "addr:street": "Hallerstrasse",
      "alt_name": "Cr\u00eaperie Le Carrousel",
      "amenity": "restaurant",
      "cuisine": "creperie",
      "email": "mail@le-carrousel.ch",
      "name": "Le Carrousel",
      "opening_hours": "Tu-Sa 11:30-22:30",
      "operator": "triplette GmbH",
      "phone": "+41 31 301 12 80",
      "website": "https://www.le-carrousel.ch/",
      "wheelchair": "no"
    },
    "distance_to_station": 268.13709538952304
  },
  {
    "feature_type": "restaurants",
    "lat": 46.9484601,
    "lon": 7.4417636,
    "tags": {
      "alt_name": "Cha Cha Thai von Werdt-Passage",
      "amenity": "restaurant",
      "branch": "Bern von Werdt-Passage",
      "brand": "cha cha",
      "contact:addr": "Von Werdt-Passage 8, 3011 Bern",
      "contact:email": "vonwerdt@chachathai.ch",
      "contact:phone": "+41 58 5683830",
      "cuisine": "thai",
      "internet_access": "wlan",
      "internet_access:fee": "no",
      "name": "Cha Cha Thai",
      "opening_hours": "Mo-Su 11:00-23:00",
      "opening_hours:covid19": "closed",
      "operator": "Genossenschaft Migros Aare",
      "source": "survey and website",
      "takeaway": "yes",
      "toilets:wheelchair": "yes",
      "website": "https://www.chachathai.ch/de-CH/Restaurants/Bern-vonWerdt",
      "wheelchair": "yes"
    },
    "distance_to_station": 379.253472000183
  },
  {
    "feature_type": "restaurants",
    "lat": 46.9474877,
    "lon": 7.4423183,
    "tags": {
      "alt_name": "Delli",
      "amenity": "restaurant",
      "contact:addr": "Schauplatzgasse 16, 3011 Bern",
      "contact:email": "della.casa@bluewin.ch",
      "contact:fax": "+41 31 3117873",
      "contact:phone": "+41 31 3112142",
      "cuisine": "regional",
      "levels": "1",
      "name": "Della Casa",
      "opening_hours": "Mo-Sa 10:30-23:30; Su off; PH off",
      "source": "Survey and website",
      "toilets:wheelchair": "no",
      "website": "https://www.della-casa.ch",
      "wheelchair": "limited"
    },
    "distance_to_station": 490.91744541206975
  },
  {
    "feature_type": "restaurants",
    "lat": 46.9514658,
    "lon": 7.441414,
    "tags": {
      "amenity": "restaurant",
      "check_date": "2023-04-28",
      "contact:addr": "Bollwerk 35, 3011 Bern",
      "contact:email": "obolles@bluewin.ch",
      "contact:fax": "+41 31 3183546",
      "contact:phone": "+41 31 3183545",
      "contact:website": "http://www.obolles.ch/index.php?id=5",
      "name": "O bolles",
      "opening_hours": "Mo-We 10:00-23:30; Th-Fr 10:00-00:30; Sa 17:00-00:30",
      "source": "Survey and website",
      "website": "http://www.obolles.ch",
      "wheelchair": "limited"
    },
    "distance_to_station": 217.43194656932783
  },
  {
    "feature_type": "restaurants",
    "lat": 46.9484343,
    "lon": 7.4423484,
    "tags": {
      "addr:city": "Bern",
      "addr:floor": "1",
      "addr:housenumber": "26",
      "addr:postcode": "3011",
      "addr:street": "Spitalgasse",
      "alt_name": "Mexican Restaurant & Bar El Mexicano",
      "amenity": "restaurant",
      "cuisine": "mexican",
      "email": "bern@elmexicano.ch",
      "internet_access": "wlan",
      "name": "El Mexicano",
      "opening_hours": "Mo-Sa 11:00-14:00,17:00-00:30; Su 17:00-00:30",
      "phone": "+41 31 311 32 20",
      "smoking": "separated",
      "website": "https://bern.elmexicano.ch/",
      "wheelchair": "limited"
    },
    "distance_to_station": 410.87150165511304
  },
  {
    "feature_type": "restaurants",
    "lat": 46.9486631,
    "lon": 7.4410308,
    "tags": {
      "amenity": "restaurant",
      "contact:addr": "Hotel Schweizerhof, Bahnhofplatz 11, 3011 Bern",
      "contact:email": "info@schweizerhof-bern.ch",
      "contact:fax": "+41 31 3268083",
      "contact:phone": "+41 31 3268080",
      "name": "Jack's Brasserie",
      "opening_hours": "Mo-Su 06:30-14:30, 17:30-23:30",
      "source": "survey and website",
      "website": "http://en.schweizerhof-bern.ch/restaurants-bar/jack's-brasserie",
      "wheelchair": "yes"
    },
    "distance_to_station": 327.8260309398186
  },
  {
    "feature_type": "restaurants",
    "lat": 46.9494099,
    "lon": 7.4419279,
    "tags": {
      "addr:floor": "4",
      "alt_name": "Coop Restaurant Bern Ryfflihof",
      "amenity": "restaurant",
      "brand": "Coop Restaurant",
      "brand:wikidata": "Q432564",
      "changing_table": "yes",
      "changing_table:fee": "no",
      "changing_table:location": "female_toilet;male_toilet",
      "contact:addr": "Aarbergergasse 53, 3011 Bern",
      "contact:phone": "+41 31 3297040",
      "cuisine": "german",
      "name": "Coop Restaurant",
      "opening_hours": "Mo 09:00-19:00; Tu,We 08:00-19:00; Th,Fr 08:00-20:00; Sa 08:00-18:00; PH off",
      "operator": "Coop-Gruppe Genossenschaft",
      "smoking": "isolated",
      "source": "survey and website",
      "toilets:wheelchair": "designated",
      "website": "https://www.coop.ch/restaurant",
      "wheelchair": "yes"
    },
    "distance_to_station": 314.84497697365737
  },
  {
    "feature_type": "restaurants",
    "lat": 46.9485045,
    "lon": 7.4413629,
    "tags": {
      "alt_name": "Restaurant Mille Sense",
      "amenity": "restaurant",
      "contact:addr": "Schweizerhof-Passage, Spitalgasse 38, 3011 Bern",
      "contact:email": "info@millesens.ch",
      "contact:fax": "+41 31 3292922",
      "contact:phone": "+41 31 3292929",
      "name": "mille sens",
      "opening_hours": "Mo-Fr 11:00-14:00, 17:00-23:00; Sa 17:00-23:00",
      "operator": "mille sens gmbh",
      "source": "survey and website",
      "website": "https://www.millesens.ch/"
    },
    "distance_to_station": 356.7581987461547
  },
  {
    "feature_type": "restaurants",
    "lat": 46.9489429,
    "lon": 7.4419648,
    "tags": {
      "alt_name": "Ristorante-Pizzeria Pomodoro",
      "amenity": "restaurant",
      "contact:addr": "Neuengasse 25, 3011 Bern",
      "contact:phone": "+41 31 3117541",
      "cuisine": "italian",
      "level": "1",
      "name": "Pomodoro",
      "opening_hours": "Mo-Sa 10:00-23:00; PH closed",
      "outdoor_seating": "yes",
      "wheelchair": "no"
    },
    "distance_to_station": 350.3784648330614
  },
  {
    "feature_type": "restaurants",
    "lat": 46.9516157,
    "lon": 7.4416351,
    "tags": {
      "alt_name": "Cr\u00eaperie la Chouette",
      "amenity": "restaurant",
      "check_date": "2025-01-21",
      "contact:addr": "Bollwerk 39, 3011 Bern",
      "contact:email": "info@la-chouette-bern.ch",
      "contact:facebook": "https://www.facebook.com/LaChouetteCrepe",
      "contact:instagram": "http://instagram.com/lachouettebern",
      "contact:phone": "+41 31 3110335",
      "cuisine": "crepe",
      "diet:vegan": "yes",
      "name": "La Chouette",
      "opening_hours": "Tu-We 11:30-22:00; Th 11:30-23:00; Fr 11:30-24:00; Sa 17:00-24:00",
      "source": "survey and website",
      "website": "https://la-chouette-bern.ch/",
      "wheelchair": "no"
    },
    "distance_to_station": 237.40499568974963
  },
  {
    "feature_type": "restaurants",
    "lat": 46.9477382,
    "lon": 7.4419395,
    "tags": {
      "addr:postcode": "3011",
      "amenity": "restaurant",
      "contact:addr": "Spitalgasse 33, 3011 Bern",
      "contact:email": "yokoso@japigo.ch",
      "contact:fax": "+41 31 3111127",
      "contact:phone": "+4131 302 01 00",
      "cuisine": "japanese",
      "delivery": "yes",
      "name": "Japigo",
      "opening_hours": "Tu-Sa 11:30-13:45, 17:30-20:30",
      "source": "website and survey",
      "website": "https://www.japigo.ch/",
      "wheelchair": "limited"
    },
    "distance_to_station": 451.65786055866096
  },
  {
    "feature_type": "restaurants",
    "lat": 46.9482701,
    "lon": 7.4395181,
    "tags": {
      "alt_name": "Restaurant toi et moi",
      "amenity": "restaurant",
      "contact:addr:full": "Bahnhofplatz 2, 3011 Bern",
      "contact:email": "toietmoi@remimag.ch",
      "contact:facebook": "https://www.facebook.com/toietmoi.bern",
      "contact:fax": "+41 31 3124032",
      "contact:phone": "+41 31 3124000",
      "contact:website": "https://www.toietmoi.ch",
      "diet:gluten_free": "yes",
      "diet:lactose_free": "yes",
      "diet:vegan": "yes",
      "diet:vegetarian": "yes",
      "indoor_seating": "yes",
      "name": "toi et moi",
      "opening_hours": "Mo-Fr 07:00-24:00; Sa 08:00-24:00; Su, PH 08:00-23:00",
      "operator": "Remimag Gastronomie AG",
      "outdoor_seating": "yes",
      "reservation": "recommended",
      "toilets:wheelchair": "yes",
      "wheelchair": "yes"
    },
    "distance_to_station": 322.29513588562025
  },
  {
    "feature_type": "restaurants",
    "lat": 46.9496731,
    "lon": 7.441656,
    "tags": {
      "amenity": "restaurant",
      "check_date": "2023-09-22",
      "cuisine": "indian",
      "diet:vegan": "yes",
      "diet:vegetarian": "yes",
      "email": "maharaja@bluewin.ch",
      "name": "Maharaja Palace",
      "old_name": "Cava\u00f1a;Bellevue",
      "opening_hours": "Mo-Sa 11:00-14:00,17:30-23:00",
      "phone": "+41 313116000",
      "takeaway": "yes",
      "website": "https://www.maharajapalace.ch/"
    },
    "distance_to_station": 281.03836832825954
  },
  {
    "feature_type": "restaurants",
    "lat": 46.9502636,
    "lon": 7.4422891,
    "tags": {
      "alt_name": "COWBOYS-BAR",
      "amenity": "restaurant",
      "check_date": "2023-02-02",
      "contact:addr": "Speichergasse 37, 3011 Bern",
      "contact:email": "info@cowboysbar.ch",
      "contact:fax": "+41 31 3119269",
      "contact:phone": "+41 31 3119270",
      "name": "Cowboys",
      "opening_hours": "Tu-Th 22:00-03:30; Fr-Sa 21:00-05:30",
      "operator": "Mehmet Anik",
      "source": "survey and website",
      "website": "https://www.cowboysbar.ch/",
      "wheelchair": "limited"
    },
    "distance_to_station": 295.06086891174317
  },
  {
    "feature_type": "restaurants",
    "lat": 46.947952,
    "lon": 7.4374072,
    "tags": {
      "amenity": "restaurant",
      "check_date": "2023-03-09",
      "contact:addr": "Schanzenstrasse 4, 3008 Bern",
      "contact:email": "mail@namamen.ch",
      "cuisine": "japanese",
      "name": "Namamen",
      "opening_hours": "Mo-Sa 11:00-21:30; Su 12:00-21:00",
      "outdoor_seating": "no",
      "phone": "+41 31 311 83 03",
      "reservation": "no",
      "takeaway": "yes",
      "website": "https://www.namamen.ch",
      "wheelchair": "yes"
    },
    "distance_to_station": 361.56166255289696
  },
  {
    "feature_type": "restaurants",
    "lat": 46.9515469,
    "lon": 7.4429,
    "tags": {
      "alt_name": "Bay Modern Brasserie",
      "amenity": "restaurant",
      "capacity:bar": "20",
      "capacity:seating": "60",
      "contact:addr": "Hodlerstrasse 16b, 3011 Bern",
      "contact:email": "mail@restaurantbay.ch",
      "contact:facebook": "https://www.facebook.com/RestaurantBay",
      "contact:instagram": "https://www.instagram.com/restaurantbaybern/",
      "contact:phone": "+41 31 3111666",
      "name": "Bay",
      "opening_hours": "Mo-Th 11:30-14:00,17:00-23:00; Fr 11:30-14:00,17:00-00:00; Sa 17:00-00:00; PH off",
      "operator": "Bayleaf AG",
      "outdoor_seating": "yes",
      "source": "survey and website",
      "website": "https://www.restaurantbay.ch"
    },
    "distance_to_station": 330.14768323196193
  },
  {
    "feature_type": "restaurants",
    "lat": 46.9471914,
    "lon": 7.4410267,
    "tags": {
      "access": "private",
      "amenity": "restaurant",
      "contact:addr": "Schauplatzgasse 37, 3011 Bern",
      "contact:email": "info@cledeberne.ch",
      "contact:phone": "+41 31 3115111",
      "name": "Cl\u00e9 de Berne",
      "opening_hours": "Mo-Fr 11:00-14:00; Sa-Su off; PH off",
      "operator": "Cl\u00e9 de Berne GmbH",
      "source": "Survey and website",
      "website": "http://www.cledeberne.ch"
    },
    "distance_to_station": 472.04061987268545
  },
  {
    "feature_type": "restaurants",
    "lat": 46.9478449,
    "lon": 7.4365755,
    "tags": {
      "amenity": "restaurant",
      "email": "info@theflow-restaurant.ch",
      "level": "3",
      "name": "the flow",
      "opening_hours": "Mo-Fr 10:00-18:00; Mo-Sa 18:00-23:30; Su off",
      "phone": "+41 31 310 06 60",
      "source": "https://www.welle7.ch/en/shopping-enjoyment/restaurant-the-flow",
      "website": "https://www.theflow-restaurant.ch"
    },
    "distance_to_station": 393.22195762120197
  },
  {
    "feature_type": "restaurants",
    "lat": 46.9485358,
    "lon": 7.4427668,
    "tags": {
      "amenity": "restaurant",
      "cuisine": "pizza",
      "email": "bern@artigiano-pizzeria.com",
      "name": "Artigiano",
      "opening_hours": "Mo-Su,PH 11:00-24:00",
      "phone": "+41 31 525 38 39",
      "website": "https://www.artigiano-pizzeria.com/"
    },
    "distance_to_station": 425.8321397064258
  },
  {
    "feature_type": "restaurants",
    "lat": 46.9495652,
    "lon": 7.4435612,
    "tags": {
      "alt_name": "Ristorante San Gottardo",
      "amenity": "restaurant",
      "contact:addr": "Aarbergergasse 10, 3011 Bern",
      "contact:email": "info@sangottardobern.ch",
      "contact:phone": "+41 31 312 79 00",
      "contact:website": "https://www.sangottardobern.ch",
      "cuisine": "italian;pizza",
      "diet:vegetarian": "yes",
      "level": "0",
      "name": "San Gottardo",
      "opening_hours": "Mo-Su 09:00-00:30",
      "outdoor_seating": "yes",
      "payment:cards": "yes",
      "payment:cash": "yes",
      "payment:twint": "yes",
      "reservation": "yes",
      "smoking": "outside",
      "takeaway": "yes",
      "toilets:wheelchair": "no"
    },
    "distance_to_station": 413.4474075677661
  },
  {
    "feature_type": "restaurants",
    "lat": 46.9517845,
    "lon": 7.4383331,
    "tags": {
      "amenity": "restaurant",
      "cuisine": "local",
      "diet:vegan": "no",
      "diet:vegetarian": "yes",
      "level": "1",
      "name": "Mensa Gesellschaftsstrasse",
      "outdoor_seating": "no",
      "website": "http://www.mensa.unibe.ch/standorte/gesellschaftsstrasse/",
      "wheelchair": "no"
    },
    "distance_to_station": 78.76288462653979
  },
  {
    "feature_type": "restaurants",
    "lat": 46.9479308,
    "lon": 7.4380555,
    "tags": {
      "amenity": "restaurant",
      "brewery": "simmentaler",
      "check_date": "2024-12-12",
      "contact:phone": "+41 31 3118180",
      "contact:website": "https://malso.ch/",
      "diet:vegan": "yes",
      "diet:vegetarian": "yes",
      "indoor_seating": "yes",
      "name": "Malso Lokal",
      "opening_hours": "Mo-Tu 10:30-21:00; We-Th,Sa 10:30-23:00; Fr 10:30-24:00; Su off",
      "outdoor_seating": "yes",
      "reservation": "yes",
      "takeaway": "yes"
    },
    "distance_to_station": 354.81443287452976
  },
  {
    "feature_type": "restaurants",
    "lat": 46.9486696,
    "lon": 7.4403364,
    "tags": {
      "addr:city": "Bern",
      "addr:housenumber": "10",
      "addr:postcode": "3011",
      "addr:street": "Bahnhofplatz",
      "alt_name": "Tibits Bern Bahnhof",
      "amenity": "restaurant",
      "branch": "Bern Bahnhof",
      "brand": "tibits",
      "cuisine": "international",
      "diet:halal": "yes",
      "diet:vegan": "yes",
      "diet:vegetarian": "only",
      "indoor_seating": "yes",
      "level": "0;1",
      "name": "Tibits",
      "opening_hours": "Mo-We 06:30-23:30; Th-Sa 06:30-24:00; Su 08:00-23:00",
      "operator": "Tibits",
      "outdoor_seating": "yes",
      "phone": "+41 31 312 91 11",
      "website": "https://www.tibits.ch/de/restaurants#tibits-bern",
      "wheelchair": "yes"
    },
    "distance_to_station": 300.6760316547977
  },
  {
    "feature_type": "restaurants",
    "lat": 46.9497146,
    "lon": 7.4415279,
    "tags": {
      "amenity": "restaurant",
      "check_date": "2023-02-07",
      "cuisine": "sushi",
      "email": "info@oishii-bern.ch",
      "name": "Oishii",
      "opening_hours": "Mo-Sa 11:30-15:00,17:00-23:00; Su 17:00-22:30",
      "phone": "+41 313181518",
      "website": "https://oishii-bern.ch"
    },
    "distance_to_station": 270.4126574836962
  },
  {
    "feature_type": "restaurants",
    "lat": 46.9537271,
    "lon": 7.4366361,
    "tags": {
      "addr:city": "Bern",
      "addr:housenumber": "33",
      "addr:postcode": "3012",
      "addr:street": "Hallerstrasse",
      "alt_name": "Hallers brasserie tout le monde",
      "amenity": "restaurant",
      "contact:email": "genuss@hallersbrasserie.ch",
      "contact:facebook": "https://www.facebook.com/brasserietoutlemonde",
      "contact:instagram": "https://www.instagram.com/hallersbrasserie",
      "contact:phone": "+41 31 9782121",
      "contact:website": "https://hallersbrasserie.ch/kontakt-2",
      "name": "Hallers Brasserie",
      "opening_hours": "Tu-Fr 11:30-14:00,17:30-23:30; Sa 17:30-23:30"
    },
    "distance_to_station": 327.9549115624803
  },
  {
    "feature_type": "restaurants",
    "lat": 46.9500934,
    "lon": 7.4428061,
    "tags": {
      "addr:city": "Bern",
      "addr:housenumber": "29",
      "addr:postcode": "3011",
      "addr:street": "Speichergasse",
      "amenity": "restaurant",
      "cuisine": "chinese",
      "diet:vegetarian": "yes",
      "email": "info@qin-restaurant.ch",
      "name": "Qin",
      "name:zh": "\u79e6",
      "opening_hours": "Mo-We 11:30-13:30, 18:00-20:30; Th-Fr 11:30-14:00, 18:00-22:00; Sa 17:00-22:00; Su off",
      "phone": "+41 31 312 2180",
      "website": "https://www.qin-restaurant.ch"
    },
    "distance_to_station": 338.31519507971257
  },
  {
    "feature_type": "restaurants",
    "lat": 46.9482023,
    "lon": 7.4414674,
    "tags": {
      "addr:housenumber": "38",
      "addr:street": "Spitalgasse",
      "amenity": "restaurant",
      "levels": "1",
      "name": "Aminos Cr\u00eaperie & Gelateria",
      "opening_hours": "Mo-Su 11:00-22:00",
      "takeaway": "yes",
      "website": "https://aminos.ch"
    },
    "distance_to_station": 388.83414811947733
  },
  {
    "feature_type": "restaurants",
    "lat": 46.9498673,
    "lon": 7.4417788,
    "tags": {
      "amenity": "restaurant",
      "cuisine": "indian",
      "diet:vegan": "yes",
      "name": "Mahataja"
    },
    "distance_to_station": 277.5022947350511
  },
  {
    "feature_type": "restaurants",
    "lat": 46.9529079,
    "lon": 7.4331356,
    "tags": {
      "amenity": "restaurant",
      "name": "WOW Momo",
      "opening_hours": "Mo-Fr 11:30-14:00"
    },
    "distance_to_station": 460.913864499277
  },
  {
    "feature_type": "restaurants",
    "lat": 46.9474798,
    "lon": 7.4402868,
    "tags": {
      "addr:city": "Bern",
      "addr:country": "CH",
      "addr:housenumber": "2",
      "addr:postcode": "3011",
      "addr:street": "Christoffel-Unterf\u00fchrung",
      "amenity": "restaurant",
      "brand": "Hans im Gl\u00fcck",
      "brand:wikidata": "Q22569868",
      "check_date": "2023-02-05",
      "cuisine": "burger",
      "email": "bahnhof-bern@hansimglueck-burgergrill.ch",
      "level": "-1",
      "name": "Hans im Gl\u00fcck",
      "opening_hours": "Mo-Th 09:00-23:00; Fr 09:00-01:00; Sa 10:00-01:00; Su 10:00-23:00",
      "opening_hours:kitchen": "Su-Th 11:00-22:30; Fr, Sa 11:00-00:30",
      "outdoor_seating": "no",
      "phone": "+41 313110477",
      "toilets:wheelchair": "yes",
      "wheelchair": "yes"
    },
    "distance_to_station": 422.4202709383614
  },
  {
    "feature_type": "restaurants",
    "lat": 46.949227,
    "lon": 7.4403981,
    "tags": {
      "alt_name": "Coffee Bar Restaurant Le Sous Sol",
      "amenity": "restaurant",
      "check_date:opening_hours": "2024-09-03",
      "indoor": "yes",
      "level": "-1",
      "name": "Sous Sol",
      "opening_hours": "Mo-Fr 06:30-20:30; Sa,Su,PH 07:30-20:30",
      "opening_hours:kitchen": "11:00-19:00",
      "phone": "+41 31 311 04 78",
      "website": "https://www.lesoussol.ch/",
      "wheelchair": "yes"
    },
    "distance_to_station": 249.00587086338348
  }
]