[
  {
    "feature_type": "atms",
    "lat": 46.94227,
    "lon": 7.4307584,
    "tags": {
      "amenity": "atm",
      "brand": "Postomat",
      "brand:wikidata": "Q449233",
      "cash_in": "no",
      "check_date": "2024-09-26",
      "covered": "yes",
      "currency:CHF": "yes",
      "currency:EUR": "yes",
      "operator": "PostFinance",
      "operator:wikidata": "Q449233",
      "outdoor": "yes",
      "wheelchair": "yes"
    },
    "distance_to_station": 289.8026863078591
  },
  {
    "feature_type": "atms",
    "lat": 46.9408995,
    "lon": 7.4315143,
    "tags": {
      "amenity": "atm",
      "brand": "Berner Kantonalbank",
      "brand:de": "Berner Kantonalbank",
      "brand:fr": "Banque Cantonale Bernoise",
      "brand:wikidata": "Q824579",
      "cash_in": "no",
      "check_date": "2025-05-25",
      "covered": "yes",
      "indoor": "no",
      "name:de": "Berner Kantonalbank",
      "name:fr": "Banque Cantonale Bernoise",
      "opening_hours": "24/7",
      "operator": "Berner Kantonalbank",
      "operator:wikidata": "Q824579",
      "short_name": "BEKB",
      "short_name:de": "BEKB",
      "short_name:fr": "BCBE"
    },
    "distance_to_station": 452.15335210606077
  },
  {
    "feature_type": "atms",
    "lat": 46.942274,
    "lon": 7.4307321,
    "tags": {
      "amenity": "atm",
      "brand": "Postomat",
      "brand:wikidata": "Q449233",
      "cash_in": "no",
      "check_date": "2024-09-26",
      "covered": "yes",
      "currency:CHF": "yes",
      "currency:EUR": "yes",
      "operator": "PostFinance",
      "operator:wikidata": "Q449233",
      "outdoor": "yes",
      "wheelchair": "no"
    },
    "distance_to_station": 288.5269520757528
  },
  {
    "feature_type": "atms",
    "lat": 46.9471792,
    "lon": 7.4242714,
    "tags": {
      "amenity": "atm",
      "level": "1",
      "level:ref": "A",
      "operator": "PostFinance"
    },
    "distance_to_station": 463.24740284782075
  }
]