[
  {
    "feature_type": "schools",
    "lat": 46.9567601,
    "lon": 7.4454367,
    "tags": {
      "addr:city": "Bern",
      "addr:country": "CH",
      "addr:housenumber": "12",
      "addr:postcode": "3013",
      "addr:street": "Lagerweg",
      "alt_name": "autonome schule denk-mal",
      "amenity": "school",
      "contact:email": "denk-mal@denk-mal.info",
      "name": "denk:mal",
      "source": "survey and website",
      "website": "https://www.denk-mal.info/"
    },
    "distance_to_station": 514.223541934735
  },
  {
    "feature_type": "schools",
    "lat": 46.9593356,
    "lon": 7.453641,
    "tags": {
      "amenity": "school",
      "contact:addr": "Stockerenweg 8, 3014 Bern",
      "isced:field": "7",
      "isced:subcategory": "2",
      "level": "-1",
      "name": "Berner Sozialjahr JUVESO",
      "operator": "Sozialjahr JUVESO GmbH",
      "operator:type": "private",
      "short_name": "JUVESO Bern",
      "website": "https://www.sozialjahr.ch/schulen/bern"
    },
    "distance_to_station": 574.2589351879229
  },
  {
    "feature_type": "schools",
    "lat": 46.9560366,
    "lon": 7.4438668,
    "tags": {
      "amenity": "school",
      "building": "yes",
      "building:colour": "aqua",
      "building:levels": "4",
      "check_date": "2025-03-18",
      "name": "GIBB Campus IET",
      "roof:colour": "aqua",
      "roof:shape": "flat",
      "wheelchair": "yes"
    },
    "distance_to_station": 623.6214826269008
  },
  {
    "feature_type": "schools",
    "lat": 46.9547028,
    "lon": 7.4448101,
    "tags": {
      "alt_name": "gibb Gewerblich-Industrielle Berufsschule Bern Hauptgeb\u00e4ude",
      "amenity": "school",
      "building": "yes",
      "contact:addr": "Lorrainestrasse 1, 3013 Bern",
      "contact:fax": "+41 31 3359102",
      "contact:phone": "+41 31 3359145",
      "heritage": "2",
      "heritage:operator": "babs",
      "historic": "yes",
      "image": "https://upload.wikimedia.org/wikipedia/commons/thumb/1/16/Gewerbeschule_S\u00fcd-Ost.jpg/800px-Gewerbeschule_S\u00fcd-Ost.jpg",
      "name": "Gewerbeschule",
      "operator": "Stadt Bern",
      "ref:kgs": "623",
      "start_date": "1939",
      "website": "https://www.gibb.ch",
      "wheelchair": "yes",
      "wikidata": "Q1520485",
      "wikimedia_commons": "Category:Gewerbeschule Bern",
      "wikipedia": "de:Gewerblich Industrielle Berufsschule Bern"
    },
    "distance_to_station": 747.8138576864441
  },
  {
    "feature_type": "schools",
    "lat": 46.9545593,
    "lon": 7.444585,
    "tags": {
      "amenity": "school",
      "building": "yes",
      "name": "Technische Fachschule Bern Shedhalle"
    },
    "distance_to_station": 766.8431788686399
  },
  {
    "feature_type": "schools",
    "lat": 46.9551654,
    "lon": 7.4437692,
    "tags": {
      "amenity": "school",
      "building": "yes",
      "check_date": "2025-03-19",
      "name": "Technische Fachschule Bern",
      "wikidata": "Q33121148"
    },
    "distance_to_station": 717.652996802237
  },
  {
    "feature_type": "schools",
    "lat": 46.9558795,
    "lon": 7.4446386,
    "tags": {
      "addr:city": "Bern",
      "addr:country": "CH",
      "addr:housenumber": "5",
      "addr:postcode": "3013",
      "addr:street": "Lorrainestrasse",
      "alt_name": "gibb - Gewerblich-Industrielle Berufsschule Bern Campus BMS",
      "amenity": "school",
      "building": "yes",
      "building:colour": "aqua",
      "building:levels": "2",
      "building:part": "yes",
      "name": "gibb - Campus BMS - Aula",
      "roof:colour": "aqua",
      "roof:shape": "flat"
    },
    "distance_to_station": 622.9611580233217
  },
  {
    "feature_type": "schools",
    "lat": 46.9539178,
    "lon": 7.4517339,
    "tags": {
      "amenity": "school",
      "building": "school",
      "name": "gibb - Geb\u00e4ude Viktoria",
      "source": "Orthofotos Bern",
      "website": "https://www.gibb.ch/"
    },
    "distance_to_station": 907.580431824817
  },
  {
    "feature_type": "schools",
    "lat": 46.9552021,
    "lon": 7.4533735,
    "tags": {
      "amenity": "school",
      "building": "school",
      "name": "Schulhaus Spitalacker",
      "source": "Orthofotos Bern"
    },
    "distance_to_station": 849.2917798027139
  },
  {
    "feature_type": "schools",
    "lat": 46.9624679,
    "lon": 7.4531541,
    "tags": {
      "addr:city": "Bern",
      "addr:country": "CH",
      "addr:housenumber": "61",
      "addr:postcode": "3014",
      "addr:street": "Standstrasse",
      "amenity": "school",
      "contact:fax": "+41 31 321 25 11",
      "contact:phone": "+41 31 321 25 10",
      "name": "Schule Breitfeld",
      "website": "https://breitenrain-lorraine.ch/schulkreis-breitenrain-lorraine/standort-breitfeld-wankdorf/schulhaus-breitfeld/"
    },
    "distance_to_station": 510.2221233925135
  },
  {
    "feature_type": "schools",
    "lat": 46.961662,
    "lon": 7.4494688,
    "tags": {
      "amenity": "school",
      "name": "Basisstufe Otter"
    },
    "distance_to_station": 216.77634296782878
  },
  {
    "feature_type": "schools",
    "lat": 46.9588898,
    "lon": 7.4441473,
    "tags": {
      "amenity": "school",
      "check_date": "2024-07-06",
      "name": "Volksschule Lorraine"
    },
    "distance_to_station": 330.28548612746715
  },
  {
    "feature_type": "schools",
    "lat": 46.9649761,
    "lon": 7.4493003,
    "tags": {
      "amenity": "school",
      "name": "Schulstandort Wylergut"
    },
    "distance_to_station": 454.32152289265764
  },
  {
    "feature_type": "schools",
    "lat": 46.9536418,
    "lon": 7.4461636,
    "tags": {
      "amenity": "school",
      "contact:addr": "Sch\u00e4nzlihalde 31, 3013 Bern",
      "contact:email": "office.bern@sfgb-b.ch",
      "contact:fax": "+41 31 3370338",
      "contact:phone": "+41 31 3370337",
      "name": "Schule f\u00fcr Gestaltung Bern und Biel",
      "source": "survey and website",
      "website": "https://www.sfgb-b.ch/"
    },
    "distance_to_station": 853.137761049588
  },
  {
    "feature_type": "schools",
    "lat": 46.9544406,
    "lon": 7.4432246,
    "tags": {
      "addr:city": "Bern",
      "addr:country": "CH",
      "addr:housenumber": "3e",
      "addr:postcode": "3013",
      "addr:street": "Lorrainestrasse",
      "alt_name": "gibb Gewerblich-Industrielle Berufsschule Bern Lehrhalle",
      "amenity": "school",
      "building": "yes",
      "contact:fax": "+41 31 3359484",
      "contact:phone": "+41 31 3359494",
      "grades": "Berufsmaturit\u00e4tsschule (BMS)",
      "name": "Lehrhalle",
      "website": "https://www.gibb.ch/"
    },
    "distance_to_station": 807.2045335835204
  },
  {
    "feature_type": "schools",
    "lat": 46.9624116,
    "lon": 7.4568074,
    "tags": {
      "alt_name": "Schulhaus Markus",
      "amenity": "school",
      "contact:addr": "Weingartstrasse, 18, 3014 Bern",
      "contact:phone": "+41 31 3212500",
      "operator": "Stadt Bern",
      "operator:type": "public",
      "website": "https://breitenrain-lorraine.ch/schulkreis-breitenrain-lorraine/standort-breitfeld-wankdorf/schulhaus-markus/"
    },
    "distance_to_station": 781.4064288287788
  },
  {
    "feature_type": "schools",
    "lat": 46.9624465,
    "lon": 7.4564761,
    "tags": {
      "alt_name": "Markusschulhaus",
      "amenity": "school",
      "building": "public",
      "contact:addr": "Weingartstrasse 18, 3014 Bern",
      "contact:phone": "+41 31 3212500",
      "name": "Schulhaus Markus",
      "operator": "Stadt Bern",
      "operator:type": "public",
      "source": "Orthofotos Bern",
      "website": "https://breitenrain-lorraine.ch/schulkreis-breitenrain-lorraine/standort-breitfeld-wankdorf/schulhaus-markus/"
    },
    "distance_to_station": 757.1526677017241
  },
  {
    "feature_type": "schools",
    "lat": 46.9560156,
    "lon": 7.4444902,
    "tags": {
      "addr:city": "Bern",
      "addr:country": "CH",
      "addr:housenumber": "5",
      "addr:postcode": "3013",
      "addr:street": "Lorrainestrasse",
      "alt_name": "gibb - Gewerblich-Industrielle Berufsschule Bern Campus BMS",
      "amenity": "school",
      "building": "yes",
      "building:colour": "aqua",
      "building:levels": "4",
      "check_date": "2025-03-18",
      "name": "gibb - Campus BMS",
      "roof:colour": "aqua",
      "roof:shape": "flat",
      "website": "https://www.gibb.ch/",
      "wheelchair": "yes"
    },
    "distance_to_station": 611.2805919015776
  },
  {
    "feature_type": "schools",
    "lat": 46.9549301,
    "lon": 7.453536,
    "tags": {
      "addr:city": "Bern",
      "addr:country": "CH",
      "addr:postcode": "3013",
      "alt_name": "Schule Spitalacker",
      "amenity": "school",
      "name": "Schulstandort Spitalacker",
      "website": "https://www.breitenrain-lorraine.ch/spitalacker"
    },
    "distance_to_station": 880.9333358479353
  },
  {
    "feature_type": "schools",
    "lat": 46.9596757,
    "lon": 7.4344875,
    "tags": {
      "amenity": "school",
      "isced:level": "3",
      "name": "Freies Gymnasium Bern",
      "website": "http://www.fgb.ch/",
      "wikidata": "Q1454142"
    },
    "distance_to_station": 944.6719878065385
  },
  {
    "feature_type": "schools",
    "lat": 46.956962,
    "lon": 7.4476676,
    "tags": {
      "amenity": "school",
      "name": "Schule Breitenrain",
      "type": "multipolygon"
    },
    "distance_to_station": 489.12212072111265
  },
  {
    "feature_type": "schools",
    "lat": 46.9463661,
    "lon": 7.4391616,
    "tags": {
      "amenity": "school",
      "name": "Schule f\u00fcr Gestaltung Bern und Biel",
      "type": "site"
    },
    "distance_to_station": 1756.639294899375
  }
]