[
  {
    "feature_type": "hotels",
    "lat": 46.958952,
    "lon": 7.4578076,
    "tags": {
      "addr:city": "Bern",
      "addr:housenumber": "38",
      "addr:postcode": "3014",
      "addr:street": "Milit\u00e4rstrasse",
      "alt_name": "Hotel Jardin",
      "description": "Family owned Hotel in fourth generation. Located in a quiet residential area, close to the old part of town and the city centre. 5 minutes by foot from the BernExpo exhibition grounds and the sports stadia Stade de Suisse Wankdorf and PostFinance Arena.",
      "email": "info@hotel-jardin.ch",
      "fax": "+41 31 333 09 43",
      "internet_access": "wlan",
      "internet_access:fee": "no",
      "internet_access:ssid": "Hotel Jardin",
      "name": "Hotel Jardin Bern",
      "opening_hours": "Mo-Su 07:00-23:00",
      "operator": "Gebr\u00fcder Andreas und Daniel Balz",
      "payment:american_express": "yes",
      "payment:cash": "yes",
      "payment:contactless": "yes",
      "payment:credit_cards": "yes",
      "payment:debit_cards": "yes",
      "payment:diners_club": "yes",
      "payment:discover_card": "yes",
      "payment:maestro": "yes",
      "payment:mastercard": "yes",
      "payment:visa": "yes",
      "payment:visa_debit": "yes",
      "phone": "+41 31 333 01 17",
      "rooms": "24",
      "smoking": "outside",
      "source": "local knowledge",
      "stars": "3",
      "start_date": "1929",
      "tourism": "hotel",
      "website": "https://www.hotel-jardin.ch/"
    },
    "distance_to_station": 887.4104489225441
  },
  {
    "feature_type": "hotels",
    "lat": 46.9531293,
    "lon": 7.4491287,
    "tags": {
      "addr:city": "Bern",
      "addr:country": "CH",
      "addr:housenumber": "3",
      "addr:postcode": "3013",
      "addr:street": "Kornhausstrasse",
      "alt_name": "Swissotel",
      "beds": "292",
      "brand": "Swiss\u00f4tel",
      "brand:wikidata": "Q1635974",
      "email": "reservation@kursaal-bern.ch",
      "internet_access": "wlan",
      "internet_access:fee": "no",
      "name": "Swiss\u00f4tel Kursaal Bern",
      "operator": "Accor S.A.",
      "phone": "+41 31 339 50 50",
      "rooms": "171",
      "stars": "4S",
      "toilets:wheelchair": "yes",
      "tourism": "hotel",
      "website": "https://kursaal-hotel.ch/",
      "wheelchair": "yes"
    },
    "distance_to_station": 928.3409192235387
  },
  {
    "feature_type": "hotels",
    "lat": 46.9562563,
    "lon": 7.4531371,
    "tags": {
      "addr:city": "Bern",
      "addr:housenumber": "2",
      "addr:postcode": "3013",
      "addr:street": "Waldh\u00f6heweg",
      "alt_name": "Hotel Waldhorn",
      "contact:addr": "Waldh\u00f6heweg 2, 3013 Bern",
      "contact:email": "hotel@waldhorn.ch",
      "contact:fax": "+41 31 3321869",
      "contact:phone": "+41 31 3322343",
      "contact:website": "http://www.waldhorn.ch",
      "internet_access": "wlan",
      "internet_access:fee": "no",
      "name": "Waldhorn",
      "source": "survey and website",
      "tourism": "hotel",
      "website": "http://www.waldhorn.ch"
    },
    "distance_to_station": 746.9099057770272
  },
  {
    "feature_type": "hotels",
    "lat": 46.9551329,
    "lon": 7.4481076,
    "tags": {
      "addr:city": "Bern",
      "addr:country": "CH",
      "addr:housenumber": "22a",
      "addr:postcode": "3013",
      "addr:street": "Wyttenbachstrasse",
      "alt_name": "Hotel-Pension Marthahaus",
      "contact:email": "info@marthahaus.ch",
      "contact:fax": "+41 31 333 33 86",
      "contact:phone": "+41 31 332 41 35",
      "contact:website": "http://www.marthahaus.ch",
      "internet_access": "yes",
      "internet_access:fee": "no",
      "name": "Marthahaus",
      "smoking": "no",
      "source": "website",
      "tourism": "hotel"
    },
    "distance_to_station": 695.199297722668
  },
  {
    "feature_type": "hotels",
    "lat": 46.9611167,
    "lon": 7.4394202,
    "tags": {
      "addr:city": "Bern",
      "addr:country": "CH",
      "addr:housenumber": "54",
      "addr:postcode": "3012",
      "addr:street": "Engestrasse",
      "alt_name": "Hotel Innere Enge",
      "beds": "52",
      "check_date": "2024-11-04",
      "contact:email": "reservation-ieb@zghotels.ch",
      "contact:fax": "+41 31 3096112",
      "contact:phone": "+41 31 3096111",
      "internet_access": "wlan",
      "internet_access:fee": "no",
      "name": "Innere Enge",
      "operator": "ZG Hotels - H. Zurbr\u00fcgg & M. Gauer AG",
      "rooms": "26",
      "source": "survey and website",
      "stars": "4",
      "tourism": "hotel",
      "website": "https://innere-enge.ch/",
      "wheelchair": "yes"
    },
    "distance_to_station": 552.0405057552521
  },
  {
    "feature_type": "hotels",
    "lat": 46.9569107,
    "lon": 7.4570699,
    "tags": {
      "addr:city": "Bern",
      "addr:housenumber": "29",
      "addr:postcode": "3013",
      "addr:street": "Kasernenstrasse",
      "email": "office@alpenblickbern.ch",
      "name": "Alpenblick",
      "phone": "+41 31 335 66 66",
      "stars": "3",
      "tourism": "hotel",
      "website": "https://www.alpenblickbern.ch/"
    },
    "distance_to_station": 930.5068483403039
  },
  {
    "feature_type": "hotels",
    "lat": 46.9656997,
    "lon": 7.4553234,
    "tags": {
      "name": "Evi\u2019s Home",
      "phone": "+41 31 588 00 88",
      "tourism": "hotel",
      "website": "https://www.evis-home.ch"
    },
    "distance_to_station": 819.9362313072967
  }
]