[
  {
    "feature_type": "theatres",
    "lat": 46.9408886,
    "lon": 7.4443037,
    "tags": {
      "addr:city": "Bern",
      "addr:country": "CH",
      "addr:housename": "Dampfzentrale",
      "addr:housenumber": "47",
      "addr:postcode": "3005",
      "addr:street": "Marzilistrasse",
      "amenity": "theatre",
      "name": "Dampfzentrale",
      "website": "https://www.dampfzentrale.ch/",
      "wheelchair": "yes"
    },
    "distance_to_station": 488.06842722783944
  },
  {
    "feature_type": "theatres",
    "lat": 46.9437615,
    "lon": 7.4477992,
    "tags": {
      "addr:city": "Bern",
      "addr:housenumber": "6",
      "addr:postcode": "3005",
      "addr:street": "Helvetiaplatz",
      "alt_name": "Yehudi Menuhin Forum Bern",
      "amenity": "theatre",
      "contact:addr": "Helvetiaplatz 6, 3005 Bern",
      "contact:phone": "+41 31 9222757",
      "name": "Yehudi Menuhin Forum",
      "note": "Kontaktadresse: EducARTES GmbH, Helvetiastrasse 7, 3005 Bern",
      "theatre": "concert_hall",
      "website": "https://www.menuhinforum.ch"
    },
    "distance_to_station": 355.5212511574408
  },
  {
    "feature_type": "theatres",
    "lat": 46.9400141,
    "lon": 7.4455257,
    "tags": {
      "addr:city": "Bern",
      "addr:housenumber": "69",
      "addr:postcode": "3005",
      "addr:street": "Dalmaziquai",
      "amenity": "theatre",
      "level": "3",
      "name": "Junge B\u00fchne Bern",
      "website": "https://www.junge-buehne-bern.ch/"
    },
    "distance_to_station": 417.1316325198081
  }
]