[
  {
    "feature_type": "offices",
    "lat": 46.9323432,
    "lon": 7.4193122,
    "tags": {
      "addr:city": "Liebefeld",
      "addr:housenumber": "47",
      "addr:postcode": "3097",
      "addr:street": "Waldeggstrasse",
      "alt_name": "Embajada de la Rep\u00fablica Bolivariana de Venezuela",
      "contact:email": "embajada.suiza@mppre.gob.ve",
      "contact:fax": "+41 31 371 64 69",
      "contact:phone": "+41 31 350 57 57",
      "country": "VE",
      "diplomatic": "embassy",
      "embassy": "yes",
      "name": "Botschaft Venezuela",
      "name:de": "Botschaft Venezuela",
      "name:es": "Embajada de Venezuela",
      "office": "diplomatic",
      "opening_hours": "Mo-Fr 09:00-13:00",
      "source": "https://www.eda.admin.ch/eda/de/home/vertretungen-und-reisehinweise/venezuela/venezuela-vertretunginderschweiz.html",
      "target": "CH",
      "website": "https://suiza.embajada.gob.ve/"
    },
    "distance_to_station": 220.52822124347998
  },
  {
    "feature_type": "offices",
    "lat": 46.9343287,
    "lon": 7.4180909,
    "tags": {
      "addr:city": "Bern",
      "addr:country": "CH",
      "addr:housenumber": "42b",
      "addr:postcode": "3097",
      "addr:street": "Waldeggstrasse",
      "brand": "Unic",
      "check_date": "2023-06-22",
      "email": "bern@unic.com",
      "name": "Unic AG",
      "office": "it",
      "phone": "+41 31 5601212",
      "source": "website;local knowledge",
      "website": "https://www.unic.com/",
      "wheelchair": "yes"
    },
    "distance_to_station": 450.5939565123172
  },
  {
    "feature_type": "offices",
    "lat": 46.931136,
    "lon": 7.4201689,
    "tags": {
      "name": "Berimag",
      "office": "estate_agent"
    },
    "distance_to_station": 109.08431110131566
  },
  {
    "feature_type": "offices",
    "lat": 46.9307576,
    "lon": 7.4198442,
    "tags": {
      "name": "atiy AG",
      "office": "it"
    },
    "distance_to_station": 61.0371558503343
  },
  {
    "feature_type": "offices",
    "lat": 46.9322506,
    "lon": 7.4193223,
    "tags": {
      "contact:addr": "Waldeggstrasse 47, 3097 K\u00f6niz",
      "contact:email": "info@oxon.ch",
      "contact:phone": "+41 79 300 20 09",
      "contact:website": "https://oxon.ch",
      "name": "OXON",
      "office": "it"
    },
    "distance_to_station": 210.23943462596952
  },
  {
    "feature_type": "offices",
    "lat": 46.9299392,
    "lon": 7.4212219,
    "tags": {
      "contact:addr": "Schwarzenburgstrasse 157, 3097 K\u00f6niz",
      "contact:email": "info@bag.admin.ch",
      "contact:phone": "+41 58 4622111",
      "contact:post_addr": "Schwarzenburgstrasse 157 3003 Bern",
      "government": "healthcare",
      "name": "Bundesamt f\u00fcr Gesundheit BAG",
      "note": "Postadresse: Schwarzenburgstrasse 157, 3003 Bern",
      "office": "government",
      "short_name": "BAG",
      "source": "survey and website",
      "website": "https://www.bag.admin.ch",
      "wikidata": "Q1005448",
      "wikipedia": "fr:Office f\u00e9d\u00e9ral de la sant\u00e9 publique"
    },
    "distance_to_station": 153.9781526063919
  },
  {
    "feature_type": "offices",
    "lat": 46.930034,
    "lon": 7.4228835,
    "tags": {
      "check_date": "2025-07-19",
      "check_date:opening_hours": "2025-07-19",
      "contact:addr": "Schwarzenburgstrasse 161, 3097 K\u00f6niz",
      "contact:email": "info@agroscope.admin.ch",
      "contact:fax": "+41 58 4638227",
      "contact:phone": "+41 58 4638418",
      "contact:post_addr": "Schwarzenburgstrasse 161, 3003 Bern",
      "government": "yes",
      "name": "Agroscope",
      "note": "Postadresse: Schwarzenburgstrasse 161, 3003 Bern",
      "office": "government",
      "opening_hours": "Mo-Th 08:00-12:00; 13:30-16:30; Fr 08:00-12:00; Sa-Su off; PH off",
      "opening_hours:signed": "no",
      "source": "survey and website",
      "source:addr": "Geb\u00e4udeadressen des Kantons Bern \u00a9 Amt f\u00fcr Geoinformation des Kantons Bern",
      "website": "https://www.agroscope.ch/liebefeld"
    },
    "distance_to_station": 275.26530595962885
  },
  {
    "feature_type": "offices",
    "lat": 46.9306888,
    "lon": 7.4210405,
    "tags": {
      "contact:addr": "Schwarzenburgstrasse 155, 3097 K\u00f6niz",
      "contact:post_addr": "Schwarzenburgstrasse 155, 3003 Bern",
      "contact:twitter": "https://twitter.com/BLV_OSAV_USAV",
      "email": "info@blv.admin.ch",
      "government": "yes",
      "name": "Bundesamt f\u00fcr Lebensmittelsicherheit und Veterin\u00e4rwesen BLV",
      "note": "Postadresse: Schwarzenburgstrasse 155, 3003 Bern",
      "office": "government",
      "old_name": "Bundesamt f\u00fcr Veterin\u00e4rwesen",
      "phone": "+41 58 4633033",
      "short_name": "BLV",
      "website": "https://www.blv.admin.ch",
      "wikidata": "Q1005501"
    },
    "distance_to_station": 137.85775614323157
  },
  {
    "feature_type": "offices",
    "lat": 46.9293624,
    "lon": 7.422936,
    "tags": {
      "check_date": "2025-07-19",
      "check_date:opening_hours": "2025-07-19",
      "contact:addr": "Schwarzenburgstrasse 165, 3097 K\u00f6niz",
      "contact:email": "info@blw.admin.ch",
      "contact:facebook": "https://www.facebook.com/pg/CHblw",
      "contact:fax": "+41 58 4622634",
      "contact:linkedin": "https://www.linkedin.com/company/federal-office-for-agriculture",
      "contact:phone": "+41 58 4622511",
      "contact:post_addr": "Schwarzenburgstrasse 165 3003 Bern",
      "contact:twitter": "https://twitter.com/CHblw",
      "contact:youtube": "https://www.youtube.com/channel/UCK0IXZ5UU8WmZTd122LN79A",
      "government": "agriculture",
      "name": "Bundesamt f\u00fcr Landwirtschaft BLW",
      "name:de": "Bundesamt f\u00fcr Landwirtschaft BLW",
      "name:en": "Federal Office for Agriculture FOAG",
      "name:fr": "Office f\u00e9d\u00e9ral de l'agriculture OFAG",
      "name:it": "Ufficio federale dell'agricoltura UFAG",
      "note": "Postadresse: Schwarzenburgstrasse 165, 3003 Bern - Lageplan: https://www.blw.admin.ch/dam/blw/de/dokumente/Das%20BLW/Kontakt/Orientierungsplan%20f%C3%BCr%20G%C3%A4ste.pdf.download.pdf/Orientierungsplan%20f%C3%BCr%20G%C3%A4ste.pdf",
      "office": "government",
      "opening_hours:signed": "no",
      "short_name": "BLW",
      "source": "survey and website",
      "website": "https://www.blw.admin.ch",
      "wikidata": "Q3349620",
      "wikipedia": "de:Bundesamt f\u00fcr Landwirtschaft"
    },
    "distance_to_station": 298.2523029835361
  },
  {
    "feature_type": "offices",
    "lat": 46.9334688,
    "lon": 7.4197492,
    "tags": {
      "check_date": "2023-08-07",
      "level": "3",
      "name": "Gr\u00fctt-Air AG",
      "office": "hvac",
      "phone": "+41313871616",
      "website": "https://www.gruett-air.ch/"
    },
    "distance_to_station": 347.43682078135106
  },
  {
    "feature_type": "offices",
    "lat": 46.93351,
    "lon": 7.4197197,
    "tags": {
      "level": "2",
      "name": "Speedgoat GmbH",
      "office": "it",
      "phone": "+41 26 670 7550",
      "website": "https://www.speedgoat.com/"
    },
    "distance_to_station": 351.7803985090249
  },
  {
    "feature_type": "offices",
    "lat": 46.9317167,
    "lon": 7.4196069,
    "tags": {
      "name": "Nau media AG",
      "office": "newspaper",
      "website": "https://nau.ch"
    },
    "distance_to_station": 152.76522252751843
  },
  {
    "feature_type": "offices",
    "lat": 46.9264514,
    "lon": 7.4179981,
    "tags": {
      "addr:city": "K\u00f6niz",
      "addr:housenumber": "223",
      "addr:postcode": "3098",
      "addr:street": "Schwarzenburgstrasse",
      "name": "Mobiliar",
      "office": "insurance",
      "opening_hours": "Mo-Th 07:45-12:00,13:15-17:15; Fr 07:45-12:00,13:15-17:00"
    },
    "distance_to_station": 445.5508061009452
  },
  {
    "feature_type": "offices",
    "lat": 46.9308139,
    "lon": 7.4188534,
    "tags": {
      "addr:postcode": "3097",
      "email": "info-htkb@helbling.ch",
      "name": "Helbling Technik",
      "name:de": "Helbling Technik Bern, AG",
      "office": "company",
      "phone": "+41 31 979 16 11",
      "website": "https://www.helbling.ch/"
    },
    "distance_to_station": 60.385797579448216
  },
  {
    "feature_type": "offices",
    "lat": 46.9339871,
    "lon": 7.418848,
    "tags": {
      "name": "Ernst Gerber Architekten + Planer AG",
      "office": "architect",
      "phone": "+41 31 382 80 82",
      "website": "https://www.ernstgerber.ch/"
    },
    "distance_to_station": 404.7091034314567
  },
  {
    "feature_type": "offices",
    "lat": 46.9339052,
    "lon": 7.4230391,
    "tags": {
      "name": "M\u00f6ssinger Immobilien",
      "office": "estate_agent",
      "website": "https://moessinger.ch"
    },
    "distance_to_station": 486.24981506918766
  },
  {
    "feature_type": "offices",
    "lat": 46.9339746,
    "lon": 7.4194934,
    "tags": {
      "addr:housenumber": "30",
      "addr:street": "Waldeggstrasse",
      "description": "Ingenieurb\u00fcro f\u00fcr Tief- und Bahnbau",
      "name": "BSB + Partner Ingenieure und Planer AG",
      "office": "architect",
      "phone": "0319780078",
      "website": "https://www.bsb-partner.ch/"
    },
    "distance_to_station": 402.22180462959824
  },
  {
    "feature_type": "offices",
    "lat": 46.934393,
    "lon": 7.4184644,
    "tags": {
      "charge": "3.9 CHF/h",
      "check_date": "2025-04-14",
      "email": "liebefeld@workspaceandmore.com",
      "fee": "yes",
      "fee:conditional": "no @ \"non-profit\"",
      "name": "Workspace & More",
      "office": "coworking",
      "opening_hours": "Mo-Fr 09:00-17:00",
      "phone": "+41315896751",
      "website": "https://workspaceandmore.com"
    },
    "distance_to_station": 452.80952144443376
  }
]