[
  {
    "feature_type": "schools",
    "lat": 46.9395542,
    "lon": 7.4470585,
    "tags": {
      "amenity": "school",
      "building": "school",
      "name": "Schulhaus Kirchenfeld",
      "source": "Orthofotos Bern"
    },
    "distance_to_station": 335.69121751411296
  },
  {
    "feature_type": "schools",
    "lat": 46.9406667,
    "lon": 7.4499173,
    "tags": {
      "addr:city": "Bern",
      "addr:country": "CH",
      "addr:housenumber": "25",
      "addr:postcode": "3005",
      "addr:street": "Kirchenfeldstrasse",
      "alt_name": "GymKirchenfeld",
      "amenity": "school",
      "contact:email": "info@gymkirchenfeld.ch",
      "contact:fax": "+41 31 3592515",
      "contact:phone": "+41 31 3592510",
      "image": "https://upload.wikimedia.org/wikipedia/commons/thumb/4/4c/St\u00e4dtisches_Gymnasium_Kirchenfeld_03.JPG/800px-St\u00e4dtisches_Gymnasium_Kirchenfeld_03.JPG",
      "isced:level": "3",
      "name": "Gymnasium Kirchenfeld",
      "opening_hours": "Mo-Fr 07:00-18:15; Sa-Su off",
      "type": "multipolygon",
      "website": "https://www.gymkirchenfeld.ch/",
      "wikidata": "Q1558147",
      "wikimedia_commons": "Category:St\u00e4dtisches Gymnasium Kirchenfeld (Bern)",
      "wikipedia": "de:Gymnasium Kirchenfeld"
    },
    "distance_to_station": 89.02958830550196
  },
  {
    "feature_type": "schools",
    "lat": 46.9395342,
    "lon": 7.4465975,
    "tags": {
      "addr:city": "Bern",
      "addr:country": "CH",
      "addr:housenumber": "46",
      "addr:postcode": "3005",
      "addr:street": "Aegertenstrasse",
      "alt_name": "Schule Kirchenfeld",
      "amenity": "school",
      "contact:fax": "+41 31 3525241",
      "contact:phone": "+41 31 3510123",
      "name": "Schulstandort Kirchenfeld",
      "type": "multipolygon",
      "website": "https://kirchenfeld-schosshalde.ch/index.php?page=445"
    },
    "distance_to_station": 366.2850066670434
  }
]