[
  {
    "feature_type": "universities",
    "lat": 46.9536691,
    "lon": 7.4405644,
    "tags": {
      "alt_name": "Uni Bern",
      "amenity": "university",
      "contact:addr": "Engehaldenstrasse 4, 3012 Bern",
      "contact:email": "iuc@iuc.unibe.ch",
      "contact:phone": "+41 31 6313761",
      "name": "Institut f\u00fcr Unternehmensrechnung und Controlling",
      "operator": "Universit\u00e4t Bern",
      "operator:wikidata": "Q659080",
      "short_name": "IUC",
      "website": "https://www.iuc.unibe.ch/"
    },
    "distance_to_station": 976.2967236462564
  },
  {
    "feature_type": "universities",
    "lat": 46.9540558,
    "lon": 7.4401582,
    "tags": {
      "alt_name": "Uni Bern",
      "amenity": "university",
      "contact:addr": "Engehaldenstrasse 4, 3012 Bern",
      "contact:phone": "+41 31 6313775",
      "name": "Abteilung Finanzmanagement",
      "name:en": "Institute for Financial Management",
      "operator": "Universit\u00e4t Bern",
      "operator:wikidata": "Q659080",
      "short_name": "IFM",
      "website": "https://www.ifm.unibe.ch/"
    },
    "distance_to_station": 996.9140285230528
  },
  {
    "feature_type": "universities",
    "lat": 46.9539591,
    "lon": 7.4402597,
    "tags": {
      "addr:city": "Bern",
      "addr:housenumber": "4",
      "addr:postcode": "3012",
      "addr:street": "Engehaldenstrasse",
      "alt_name": "Uni Bern",
      "amenity": "university",
      "contact:addr": "Engehaldenstrasse 4, 3012 Bern",
      "contact:phone": "+41 31 6318031",
      "name": "Institut f\u00fcr Marketing und Unternehmensf\u00fchrung",
      "operator": "Universit\u00e4t Bern",
      "operator:wikidata": "Q659080",
      "short_name": "IMU",
      "website": "https://www.imu.unibe.ch/"
    },
    "distance_to_station": 991.5391315207718
  },
  {
    "feature_type": "universities",
    "lat": 46.9537658,
    "lon": 7.4404628,
    "tags": {
      "addr:city": "Bern",
      "addr:housenumber": "4",
      "addr:postcode": "3012",
      "addr:street": "Engehaldenstrasse",
      "alt_name": "Uni Bern",
      "amenity": "university",
      "contact:addr": "Engehaldenstrasse 4, 3012 Bern",
      "contact:email": "iop@iop.unibe.ch",
      "contact:phone": "+41 31 6318069",
      "name": "Institut f\u00fcr Organisation und Personal",
      "operator": "Universit\u00e4t Bern",
      "operator:wikidata": "Q659080",
      "short_name": "IOP",
      "website": "https://www.iop.unibe.ch/"
    },
    "distance_to_station": 981.2268631946262
  },
  {
    "feature_type": "universities",
    "lat": 46.9535814,
    "lon": 7.4402725,
    "tags": {
      "alt_name": "Uni Bern",
      "amenity": "university",
      "contact:addr": "Sch\u00fctzenmattstrasse 14, 3012 Bern",
      "contact:email": "fdn@inf.unibe.ch",
      "contact:facebook": "https://www.facebook.com/digitalenachhaltigkeit/",
      "contact:phone": "+41 31 6314771",
      "contact:twitter": "https://twitter.com/researchdigisus",
      "name": "Forschungsstelle Digitale Nachhaltigkeit",
      "name:de": "Forschungsstelle Digitale Nachhaltigkeit",
      "name:en": "Research center for digital sustainability",
      "name:fr": "Centre de recherche sur la durabilit\u00e9 num\u00e9rique",
      "short_name": "FDN",
      "source": "survey and website",
      "website": "https://www.digitale-nachhaltigkeit.unibe.ch",
      "wikidata": "Q63558709"
    },
    "distance_to_station": 1000.2398715172183
  },
  {
    "feature_type": "universities",
    "lat": 46.9538625,
    "lon": 7.4403613,
    "tags": {
      "addr:city": "Bern",
      "addr:postcode": "3012",
      "addr:street": "Engehaldenstrasse 4",
      "amenity": "university",
      "name": "Departement Betriebswirtschaftslehre",
      "operator": "Universit\u00e4t Bern",
      "phone": "+41 31 684 80 50",
      "website": "https://www.bwl.unibe.ch/index_ger.html"
    },
    "distance_to_station": 986.3027324531255
  },
  {
    "feature_type": "universities",
    "lat": 46.953557,
    "lon": 7.4451529,
    "tags": {
      "amenity": "university",
      "name": "Institut f\u00fcr Pflanzenwissenschaften",
      "name:en": "Institute of Plant Sciences",
      "website": "https://www.ips.unibe.ch/"
    },
    "distance_to_station": 648.2454507958181
  },
  {
    "feature_type": "universities",
    "lat": 46.9537197,
    "lon": 7.4402815,
    "tags": {
      "amenity": "university"
    },
    "distance_to_station": 995.8448528692795
  },
  {
    "feature_type": "universities",
    "lat": 46.9472716,
    "lon": 7.4486804,
    "tags": {
      "amenity": "university",
      "operator": "Universit\u00e4t Bern",
      "type": "multipolygon"
    },
    "distance_to_station": 1006.3708812717256
  }
]