[
  {
    "feature_type": "parking",
    "lat": 46.9416164,
    "lon": 7.466903,
    "tags": {
      "access": "yes",
      "amenity": "parking",
      "capacity": "4",
      "capacity:disabled": "no",
      "fee": "no",
      "lit": "no",
      "maxstay": "60",
      "parking": "surface",
      "surface": "asphalt"
    },
    "distance_to_station": 281.6633957242052
  },
  {
    "feature_type": "parking",
    "lat": 46.9446957,
    "lon": 7.4619699,
    "tags": {
      "amenity": "parking",
      "bus": "no",
      "capacity": "6",
      "capacity:disabled": "no",
      "capacity:women": "no",
      "fee": "yes",
      "motor_vehicle": "yes",
      "motorcycle": "no",
      "operator": "Stadt Bern",
      "parking": "surface",
      "source": "Orthofoto Bern"
    },
    "distance_to_station": 353.8548423060466
  },
  {
    "feature_type": "parking",
    "lat": 46.9419278,
    "lon": 7.4656198,
    "tags": {
      "access": "customers",
      "amenity": "parking",
      "operator": "Pflaumen Garden",
      "parking": "surface",
      "surface": "asphalt"
    },
    "distance_to_station": 187.29708301957936
  },
  {
    "feature_type": "parking",
    "lat": 46.942029,
    "lon": 7.4655071,
    "tags": {
      "access": "private",
      "amenity": "parking",
      "parking": "surface",
      "surface": "asphalt"
    },
    "distance_to_station": 181.3429079004595
  },
  {
    "feature_type": "parking",
    "lat": 46.94346,
    "lon": 7.460164,
    "tags": {
      "access": "permissive",
      "amenity": "parking",
      "capacity": "43",
      "capacity:disabled": "1",
      "capacity:women": "no",
      "contact:addr": "Seminarstrasse, 3006 Bern",
      "name": "Campus Parking",
      "operator": "Campus Muristalden",
      "parking": "surface",
      "source": "Orthofoto Bern"
    },
    "distance_to_station": 307.4274657872028
  },
  {
    "feature_type": "parking",
    "lat": 46.9447026,
    "lon": 7.4671741,
    "tags": {
      "amenity": "parking",
      "name": "mobility",
      "parking": "street_side"
    },
    "distance_to_station": 456.57781284957775
  },
  {
    "feature_type": "parking",
    "lat": 46.942533,
    "lon": 7.4654671,
    "tags": {
      "addr:city": "Bern",
      "addr:country": "CH",
      "addr:housenumber": "37",
      "addr:postcode": "3006",
      "addr:street": "Muristrasse",
      "amenity": "parking",
      "capacity": "2",
      "mobility:station_id": "1998",
      "name": "mobility",
      "opening_hours": "24/7",
      "operator": "Mobility Genossenschaft",
      "source": "survey and website"
    },
    "distance_to_station": 200.01073633850504
  },
  {
    "feature_type": "parking",
    "lat": 46.9425709,
    "lon": 7.4655221,
    "tags": {
      "access": "private",
      "amenity": "parking"
    },
    "distance_to_station": 205.7482210063255
  },
  {
    "feature_type": "parking",
    "lat": 46.9439151,
    "lon": 7.4575075,
    "tags": {
      "access": "private",
      "amenity": "parking",
      "capacity": "8",
      "description": "Besucher",
      "surface": "asphalt"
    },
    "distance_to_station": 501.13909826841547
  },
  {
    "feature_type": "parking",
    "lat": 46.9437842,
    "lon": 7.4574749,
    "tags": {
      "access": "private",
      "amenity": "parking",
      "capacity": "8",
      "description": "Besucher",
      "surface": "asphalt"
    },
    "distance_to_station": 496.0664053302021
  },
  {
    "feature_type": "parking",
    "lat": 46.9455851,
    "lon": 7.4621329,
    "tags": {
      "addr:city": "Bern",
      "addr:country": "CH",
      "addr:housenumber": "17",
      "addr:postcode": "3006",
      "addr:street": "H\u00f6heweg",
      "amenity": "parking",
      "capacity": "2",
      "mobility:station_id": "4339",
      "name": "mobility",
      "opening_hours": "24/7",
      "operator": "Mobility Genossenschaft"
    },
    "distance_to_station": 447.64622285081043
  },
  {
    "feature_type": "parking",
    "lat": 46.9455507,
    "lon": 7.4620731,
    "tags": {
      "access": "private",
      "amenity": "parking"
    },
    "distance_to_station": 444.72935624410303
  },
  {
    "feature_type": "parking",
    "lat": 46.9444203,
    "lon": 7.4681147,
    "tags": {
      "access": "private",
      "amenity": "parking",
      "parking": "street_side",
      "surface": "asphalt"
    },
    "distance_to_station": 486.0306816418294
  },
  {
    "feature_type": "parking",
    "lat": 46.9427542,
    "lon": 7.457584,
    "tags": {
      "access": "private",
      "amenity": "parking",
      "operator": "OTIF",
      "parking": "surface"
    },
    "distance_to_station": 443.93945229409934
  }
]