[
  {
    "feature_type": "museums",
    "lat": 46.9440652,
    "lon": 7.4481787,
    "tags": {
      "addr:city": "Bern",
      "addr:housenumber": "4",
      "addr:postcode": "3005",
      "addr:street": "Helvetiaplatz",
      "building": "public",
      "building:levels": "3",
      "contact:addr": "Helvetiaplatz 4, 3005 Bern",
      "contact:email": "info@alpinesmuseum.ch",
      "contact:facebook": "alpinesmuseum",
      "contact:fax": "+41 31 3510751",
      "contact:phone": "+41 31 3500440",
      "contact:twitter": "AlpinesMuseum",
      "fee": "yes",
      "heritage": "2",
      "heritage:operator": "babs",
      "image": "https://upload.wikimedia.org/wikipedia/commons/thumb/8/8a/Alpines_Museum_Bern.JPG/800px-Alpines_Museum_Bern.JPG",
      "name": "Alpines Museum der Schweiz",
      "name:en": "Swiss Alpine Museum",
      "name:fr": "Mus\u00e9e Alpin Suisse",
      "name:it": "Museo Alpino Svizzera",
      "name:rm": "Museo di alps svizra",
      "name:zh": "\u745e\u58eb\u963f\u5c14\u5351\u65af\u535a\u7269\u9986",
      "note": "KGS-Nr: Nummer des Kulturgutes, zu finden in den KGS-Listen des Bundes und der Kantone. BABS: Bundesamt f\u00fcr Bev\u00f6lkerungsschutz",
      "opening_hours": "Tu-Su 10:00-17:00",
      "ref:kgs": "609",
      "roof:levels": "0",
      "tourism": "museum",
      "website": "https://www.alpinesmuseum.ch",
      "wheelchair": "limited",
      "wikidata": "Q452375",
      "wikimedia_commons": "Category:Swiss Alpine Museum",
      "wikipedia": "de:Alpines Museum der Schweiz"
    },
    "distance_to_station": 366.6656705542895
  },
  {
    "feature_type": "museums",
    "lat": 46.9442728,
    "lon": 7.4494082,
    "tags": {
      "addr:city": "Bern",
      "addr:housenumber": "1",
      "addr:postcode": "3005",
      "addr:street": "Helvetiaplatz",
      "alt_name": "Kunsthalle Bern",
      "building": "public",
      "contact:addr": "Helvetiaplatz 1, 3005 Bern",
      "contact:email": "info@kunsthalle-bern.ch",
      "contact:fax": "+41 31 3500041",
      "contact:phone": "+41 31 3500040",
      "heritage": "3",
      "heritage:operator": "babs",
      "image": "https://upload.wikimedia.org/wikipedia/commons/thumb/d/d5/Bern_Kunsthalle_DSC04962.jpg/800px-Bern_Kunsthalle_DSC04962.jpg",
      "museum": "art",
      "name": "Kunsthalle",
      "note": "KGS-Nr: Nummer des Kulturgutes, zu finden in den KGS-Listen des Bundes und der Kantone. BABS: Bundesamt f\u00fcr Bev\u00f6lkerungsschutz",
      "opening_hours": "Mo off; Tu-Fr 11:00-18:00; Sa-Su 10:00-18:00",
      "ref:kgs": "703",
      "source": "Orthofotos Bern and survey and website",
      "start_date": "1917",
      "tourism": "museum",
      "website": "http://www.kunsthalle-bern.ch",
      "wikidata": "Q612774",
      "wikimedia_commons": "Category:Kunsthalle Bern",
      "wikipedia": "de:Kunsthalle Bern"
    },
    "distance_to_station": 349.62021908670346
  },
  {
    "feature_type": "museums",
    "lat": 46.9429679,
    "lon": 7.4491998,
    "tags": {
      "addr:city": "Bern",
      "addr:housenumber": "5",
      "addr:postcode": "3005",
      "addr:street": "Helvetiaplatz",
      "alt_name": "Historisches Museum",
      "building": "public",
      "contact:addr": "Helvetiaplatz 5, 3005 Bern",
      "email": "info@bhm.ch",
      "fax": "+41 31 350 77 99",
      "fee": "yes",
      "heritage": "2",
      "heritage:operator": "babs",
      "historic": "building",
      "image": "https://upload.wikimedia.org/wikipedia/commons/thumb/2/23/Bern_Historisches_Museum_DSC04967.jpg/800px-Bern_Historisches_Museum_DSC04967.jpg",
      "name": "Bernisches Historisches Museum",
      "name:de": "Bernisches Historisches Museum",
      "name:en": "Historical Museum of Bern",
      "name:fr": "Mus\u00e9e d'Histoire de Berne",
      "note": "KGS-Nr: Nummer des Kulturgutes, zu finden in den KGS-Listen des Bundes und der Kantone. BABS: Bundesamt f\u00fcr Bev\u00f6lkerungsschutz",
      "opening_hours": "Tu-Su 10:00-17:00; Mo off",
      "phone": "+41 31 350 77 11",
      "ref:kgs": "627",
      "source": "survey and Orthofotos Bern and website",
      "toilets:wheelchair": "yes",
      "tourism": "museum",
      "website": "https://www.bhm.ch",
      "wheelchair": "limited",
      "wheelchair:source": "https://www.bhm.ch/de/informationen/menschen-mit-einer-behinderung/rollstuhlfahrende-gehbehinderte/",
      "wikidata": "Q670058",
      "wikimedia_commons": "Category:Historisches Museum Bern",
      "wikipedia": "de:Bernisches Historisches Museum"
    },
    "distance_to_station": 222.1346902486636
  },
  {
    "feature_type": "museums",
    "lat": 46.9418278,
    "lon": 7.4499752,
    "tags": {
      "addr:city": "Bern",
      "addr:housenumber": "16",
      "addr:postcode": "3005",
      "addr:street": "Helvetiastrasse",
      "building": "yes",
      "contact:addr": "Helvetiastrasse 16, 3005 Bern",
      "contact:email": "communication@mfk.ch",
      "contact:facebook": "https://www.facebook.com/mfkbern",
      "contact:fax": "+41 31 3575599",
      "contact:phone": "+41 31 3575555",
      "fee": "yes",
      "heritage": "3",
      "heritage:operator": "babs",
      "image": "https://upload.wikimedia.org/wikipedia/commons/thumb/e/ea/Museum_f\u00fcr_Kommunikation_DSC04993.jpg/800px-Museum_f\u00fcr_Kommunikation_DSC04993.jpg",
      "name": "Museum f\u00fcr Kommunikation",
      "name:en": "Museum of Communication",
      "name:fr": "Mus\u00e9e de la communication",
      "name:it": "Museo della comunicazione",
      "note": "KGS-Nr: Nummer des Kulturgutes, zu finden in den KGS-Listen des Bundes und der Kantone. BABS: Bundesamt f\u00fcr Bev\u00f6lkerungsschutz",
      "opening_hours": "Mo off; Tu-Su 10:00-17:00",
      "ref:kgs": "651",
      "source": "survey and website and Orthofotos Bern",
      "tourism": "museum",
      "website": "https://www.mfk.ch",
      "wheelchair": "destination",
      "wheelchair:description": "z. T. extrem steile Rampen zu Ausstellungsobjekten",
      "wikidata": "Q1954633",
      "wikimedia_commons": "Category:Museum f\u00fcr Kommunikation Bern",
      "wikipedia": "de:Museum f\u00fcr Kommunikation Bern"
    },
    "distance_to_station": 84.51222291705994
  },
  {
    "feature_type": "museums",
    "lat": 46.9428518,
    "lon": 7.4485393,
    "tags": {
      "addr:city": "Bern",
      "addr:housenumber": "5",
      "addr:postcode": "3005",
      "addr:street": "Bernastrasse",
      "building": "yes",
      "contact:addr": "Bernastrasse 5, 3005 Bern",
      "contact:email": "info@schuetzenmuseum.ch",
      "contact:fax": "+41 31 3510804",
      "contact:phone": "+41 31 3510127",
      "heritage": "3",
      "heritage:operator": "babs",
      "image": "https://upload.wikimedia.org/wikipedia/commons/thumb/6/61/BernSchuetzenmuseum.jpg/682px-BernSchuetzenmuseum.jpg",
      "name": "Schweizer Sch\u00fctzenmuseum",
      "name:de": "Schweizer Sch\u00fctzenmuseum",
      "name:en": "Swiss Rifle Museum",
      "name:fr": "Mus\u00e9e suisse du tir",
      "name:it": "Museo Svizzero del Tiro",
      "note": "KGS-Nr: Nummer des Kulturgutes, zu finden in den KGS-Listen des Bundes und der Kantone. BABS: Bundesamt f\u00fcr Bev\u00f6lkerungsschutz",
      "opening_hours": "Tu-Sa 14:00-17:00; Su 10:00-12:00; 14:00-17:00",
      "ref:kgs": "8536",
      "tourism": "museum",
      "website": "http://www.schuetzenmuseum.ch",
      "wikidata": "Q27479802",
      "wikimedia_commons": "Category:Swiss Rifle Museum"
    },
    "distance_to_station": 242.0936465895391
  },
  {
    "feature_type": "museums",
    "lat": 46.9419205,
    "lon": 7.449205,
    "tags": {
      "addr:city": "Bern",
      "addr:housenumber": "15",
      "addr:postcode": "3005",
      "addr:street": "Bernastrasse",
      "alt_name": "Naturhistorisches Museum der Burgergemeinde Bern",
      "building": "yes",
      "contact:addr:full": "Bernastrasse 15, 3005 Bern",
      "contact:email": "contact@nmbe.ch",
      "contact:fax": "+41 31 350 74 99",
      "contact:phone": "+41 31 350 71 11",
      "contact:website": "https://www.nmbe.ch/de/museum/museum/kontakt",
      "fee": "yes",
      "heritage": "3",
      "heritage:operator": "babs",
      "image": "https://upload.wikimedia.org/wikipedia/commons/thumb/b/b6/Bern_Naturhistorisches_Museum_DSC05543.jpg/800px-Bern_Naturhistorisches_Museum_DSC05543.jpg",
      "internet_access": "wlan",
      "internet_access:fee": "no",
      "name": "Naturhistorisches Museum",
      "name:en": "Natural History Museum of Bern",
      "name:fr": "Mus\u00e9e d'histoire naturelle de Berne",
      "name:it": "Museo di storia naturale di Berna",
      "note": "KGS-Nr: Nummer des Kulturgutes, zu finden in den KGS-Listen des Bundes und der Kantone. BABS: Bundesamt f\u00fcr Bev\u00f6lkerungsschutz",
      "opening_hours": "Mo 14:00-17:00; Tu, Th-Fr 09:00-17:00; We 09:00-18:00; Sa-Su 10:00-17:00",
      "ref:kgs": "637",
      "source": "Orthofotos Bern",
      "tourism": "museum",
      "website": "https://www.nmbe.ch",
      "wheelchair": "yes",
      "wikidata": "Q1286799",
      "wikimedia_commons": "Category:Naturhistorisches Museum der Burgergemeinde Bern",
      "wikipedia": "de:Naturhistorisches Museum der Burgergemeinde Bern"
    },
    "distance_to_station": 136.01159943661239
  }
]