[
  {
    "feature_type": "pharmacies",
    "lat": 46.9481155,
    "lon": 7.4480727,
    "tags": {
      "alt_name": "Central-Apotheke Volz",
      "amenity": "pharmacy",
      "contact:addr": "Zytgloggelaube 2, 3011 Bern",
      "contact:email": "info@central-apotheke-volz.ch",
      "contact:fax": "+41 31 3111024",
      "contact:phone": "+41 31 3111094",
      "dispensing": "yes",
      "healthcare": "pharmacy",
      "name": "Volz",
      "old_name": "Centralapotheke Volz",
      "opening_hours": "Mo-We 08:00-18:30; Th 08:00-20:00; Fr 08:00-19:00; Sa 08:00-17:00; Su off",
      "operator": "Centralapotheke Volz AG",
      "source": "survey and website",
      "website": "https://www.central-apotheke-volz.ch/",
      "wheelchair": "yes"
    },
    "distance_to_station": 935.7564920144462
  },
  {
    "feature_type": "pharmacies",
    "lat": 46.9605349,
    "lon": 7.4541359,
    "tags": {
      "alt_name": "Breitfeld Apotheke",
      "amenity": "pharmacy",
      "contact:addr": "Scheibenstrasse 18, 3014 Bern",
      "contact:email": "a9@achillea.ch",
      "contact:fax": "+41 31 3481213",
      "contact:phone": "+41 31 3481212",
      "dispensing": "yes",
      "healthcare": "pharmacy",
      "name": "Breitfeld",
      "opening_hours": "Mo-Fr 07:45-12:15, 13:30-18:30; Sa 08:00-16:00; Su off",
      "operator": "Dr. B\u00e4hler Dropa AG",
      "source": "website",
      "website": "https://achillea.ch/de-ch/geschaeftsstellen/region-bern/breitfeld-apotheke.aspx"
    },
    "distance_to_station": 530.393476086059
  },
  {
    "feature_type": "pharmacies",
    "lat": 46.9589286,
    "lon": 7.4545518,
    "tags": {
      "alt_name": "Jura Apotheke",
      "amenity": "pharmacy",
      "check_date": "2025-08-06",
      "check_date:opening_hours": "2023-07-21",
      "contact:addr:full": "Breitenrainplatz 36, 3014 Bern",
      "contact:email": "a38@achillea.ch",
      "contact:fax": "+41 31 3310878",
      "contact:phone": "+41 31 3315151",
      "dispensing": "yes",
      "healthcare": "pharmacy",
      "name": "Jura",
      "opening_hours": "Mo-Fr 07:45-18:30; Sa 07:45-17:00; Su off",
      "operator": "Dr. B\u00e4hler Dropa AG",
      "source": "survey and website",
      "website": "https://achillea.ch/standorte/jura-apotheke"
    },
    "distance_to_station": 364.44596381668043
  },
  {
    "feature_type": "pharmacies",
    "lat": 46.957984,
    "lon": 7.447145,
    "tags": {
      "alt_name": "Nordring-Apotheke",
      "amenity": "pharmacy",
      "brand": "TopPharm",
      "brand:wikidata": "Q110277794",
      "contact:addr:full": "Nordring 38, 3013 Bern",
      "contact:email": "pgermann@nordring.apotheke.ch",
      "contact:fax": "+41 31 3322719",
      "contact:phone": "+41 31 3321136",
      "healthcare": "pharmacy",
      "name": "TopPharm",
      "opening_hours": "Mo-Fr 07:45-12:30,13:30-18:30; Sa 07:45-16:00; Su off",
      "operator": "NORDRING APOTHEKE AG",
      "source": "survey and website",
      "website": "http://www.nordring.apotheke.ch",
      "wheelchair": "yes"
    },
    "distance_to_station": 505.7894711689509
  },
  {
    "feature_type": "pharmacies",
    "lat": 46.9481671,
    "lon": 7.4521896,
    "tags": {
      "addr:city": "Bern",
      "alt_name": "TopPharm Rathaus Apotheke",
      "amenity": "pharmacy",
      "branch": "Rathaus",
      "brand": "TopPharm",
      "brand:wikidata": "Q110277794",
      "check_date": "2025-03-07",
      "check_date:opening_hours": "2024-09-13",
      "contact:addr": "Kramgasse 2, 3011 Bern",
      "contact:email": "rathaus-apo.be@ovan.ch",
      "contact:fax": "+41 31 3122401",
      "contact:phone": "+41 31 3111481",
      "contact:website": "http://rathaus-bern.apotheke.ch/site/kontakt.html",
      "dispensing": "yes",
      "healthcare": "pharmacy",
      "name": "TopPharm",
      "opening_hours": "Mo 14:00-19:00; Tu-Fr 09:00-19:00; Sa 09:00-17:00",
      "source": "survey and website",
      "website": "http://www.rathaus-bern.apotheke.ch",
      "wheelchair": "no"
    },
    "distance_to_station": 853.8848069726162
  },
  {
    "feature_type": "pharmacies",
    "lat": 46.9478697,
    "lon": 7.4479358,
    "tags": {
      "alt_name": "B\u00e4ren Apotheke",
      "amenity": "pharmacy",
      "contact:addr": "Bim Zytglogge 1, 3011 Bern",
      "contact:email": "apobaeren@bluewin.ch",
      "contact:fax": "+41 31 3126330",
      "contact:phone": "+41 31 3110242",
      "dispensing": "yes",
      "healthcare": "pharmacy",
      "name": "B\u00e4ren",
      "opening_hours": "Mo 10:00-18:30; Tu,We 08:00-18:30; Th 08:00-18:30; Fr 08:00-18:30; Sa 08:00-17:00",
      "source": "survey and website",
      "website": "https://www.apotheke-baeren.ch/",
      "wheelchair": "yes"
    },
    "distance_to_station": 964.9698486741972
  },
  {
    "feature_type": "pharmacies",
    "lat": 46.9478815,
    "lon": 7.4476189,
    "tags": {
      "addr:city": "Bern",
      "addr:housenumber": "5",
      "addr:postcode": "3011",
      "addr:street": "Bim Zytglogge",
      "alt_name": "Zytglogge Apotheke",
      "amenity": "pharmacy",
      "check_date": "2025-05-14",
      "check_date:opening_hours": "2025-05-14",
      "contact:addr": "Bim Zytglogge 5, 3011 Bern",
      "contact:email": "zytglogge@drgurtner.ch",
      "contact:fax": "+41 31 311 39 93",
      "contact:phone": "+41 31 311 48 33",
      "dispensing": "yes",
      "healthcare": "pharmacy",
      "name": "Zytglogge Apotheke",
      "opening_hours": "Mo 10:00-18:30; Tu-Fr 08:00-18:30; Sa 08:00-17:00",
      "operator": "Dr. H. & K. Gurtner AG",
      "source": "survey and website",
      "website": "https://www.drgurtner.ch/de/apotheken-drogerien/zytglogg-apotheke/?oid=91"
    },
    "distance_to_station": 973.6612654701178
  },
  {
    "feature_type": "pharmacies",
    "lat": 46.9579601,
    "lon": 7.4536569,
    "tags": {
      "amenity": "pharmacy",
      "brand": "Amavita",
      "brand:wikidata": "Q93733901",
      "check_date": "2025-07-16",
      "healthcare": "pharmacy",
      "name": "Amavita",
      "website": "https://www.amavita.ch/de/amavita-apotheke-breitenrain",
      "wheelchair": "yes"
    },
    "distance_to_station": 242.28638719079106
  }
]