[
  {
    "feature_type": "hotels",
    "lat": 46.953739,
    "lon": 7.4326538,
    "tags": {
      "addr:city": "Bern",
      "addr:housenumber": "6",
      "addr:postcode": "3012",
      "addr:street": "Mittelstrasse",
      "contact:addr": "Mittelstrasse 6, 3012 Bern",
      "contact:email": "info@arabelle.ch",
      "contact:fax": "+41 31 302 42 62",
      "contact:phone": "+41 31 301 03 05",
      "contact:website": "http://www.arabelle.ch",
      "internet_access": "wlan",
      "internet_access:fee": "no",
      "name": "Arabelle",
      "opening_hours": "24/7",
      "operator": "Sorell Hotels Switzerland",
      "smoking": "no",
      "source": "survey and website",
      "tourism": "hotel",
      "website": "https://sorellhotels.com/de/arabelle/bern"
    },
    "distance_to_station": 657.8607465546211
  },
  {
    "feature_type": "hotels",
    "lat": 46.9492876,
    "lon": 7.4446885,
    "tags": {
      "addr:city": "Bern",
      "addr:housenumber": "28",
      "addr:postcode": "3011",
      "addr:street": "Zeughausgasse",
      "alt_name": "Stay KooooK Bern City",
      "contact:whatsapp": "https://wa.me/41317770076",
      "internet_access": "wlan",
      "internet_access:fee": "yes",
      "name": "Stay KooooK Bern City",
      "phone": "+41 800 566 665",
      "tourism": "hotel",
      "website": "https://www.staykooook.com/bern-city/"
    },
    "distance_to_station": 881.3322401515314
  },
  {
    "feature_type": "hotels",
    "lat": 46.9486987,
    "lon": 7.4463572,
    "tags": {
      "addr:city": "Bern",
      "addr:housenumber": "9",
      "addr:postcode": "3011",
      "addr:street": "Zeughausgasse",
      "alt_name": "Hotel Bern;BEST WESTERN HOTELBERN",
      "beds": "150",
      "brand": "Best Western",
      "contact:addr": "Zeughausgasse 9, 3011 Bern",
      "contact:email": "reception@hotelbern.ch",
      "contact:fax": "+41 31 3292299",
      "contact:phone": "+41 31 3292222",
      "contact:website": "https://www.hotelbern.ch/",
      "internet_access": "wlan",
      "internet_access:fee": "no",
      "name": "Hotel Bern",
      "rooms": "99",
      "source": "survey and website",
      "tourism": "hotel",
      "website": "https://www.hotelbern.ch/",
      "wheelchair": "yes",
      "wikidata": "Q2531969"
    },
    "distance_to_station": 995.0210793737936
  },
  {
    "feature_type": "hotels",
    "lat": 46.9531293,
    "lon": 7.4491287,
    "tags": {
      "addr:city": "Bern",
      "addr:country": "CH",
      "addr:housenumber": "3",
      "addr:postcode": "3013",
      "addr:street": "Kornhausstrasse",
      "alt_name": "Swissotel",
      "beds": "292",
      "brand": "Swiss\u00f4tel",
      "brand:wikidata": "Q1635974",
      "email": "reservation@kursaal-bern.ch",
      "internet_access": "wlan",
      "internet_access:fee": "no",
      "name": "Swiss\u00f4tel Kursaal Bern",
      "operator": "Accor S.A.",
      "phone": "+41 31 339 50 50",
      "rooms": "171",
      "stars": "4S",
      "toilets:wheelchair": "yes",
      "tourism": "hotel",
      "website": "https://kursaal-hotel.ch/",
      "wheelchair": "yes"
    },
    "distance_to_station": 780.3502253784543
  },
  {
    "feature_type": "hotels",
    "lat": 46.9562563,
    "lon": 7.4531371,
    "tags": {
      "addr:city": "Bern",
      "addr:housenumber": "2",
      "addr:postcode": "3013",
      "addr:street": "Waldh\u00f6heweg",
      "alt_name": "Hotel Waldhorn",
      "contact:addr": "Waldh\u00f6heweg 2, 3013 Bern",
      "contact:email": "hotel@waldhorn.ch",
      "contact:fax": "+41 31 3321869",
      "contact:phone": "+41 31 3322343",
      "contact:website": "http://www.waldhorn.ch",
      "internet_access": "wlan",
      "internet_access:fee": "no",
      "name": "Waldhorn",
      "source": "survey and website",
      "tourism": "hotel",
      "website": "http://www.waldhorn.ch"
    },
    "distance_to_station": 984.0805713292539
  },
  {
    "feature_type": "hotels",
    "lat": 46.9551329,
    "lon": 7.4481076,
    "tags": {
      "addr:city": "Bern",
      "addr:country": "CH",
      "addr:housenumber": "22a",
      "addr:postcode": "3013",
      "addr:street": "Wyttenbachstrasse",
      "alt_name": "Hotel-Pension Marthahaus",
      "contact:email": "info@marthahaus.ch",
      "contact:fax": "+41 31 333 33 86",
      "contact:phone": "+41 31 332 41 35",
      "contact:website": "http://www.marthahaus.ch",
      "internet_access": "yes",
      "internet_access:fee": "no",
      "name": "Marthahaus",
      "smoking": "no",
      "source": "website",
      "tourism": "hotel"
    },
    "distance_to_station": 622.2822148849095
  },
  {
    "feature_type": "hotels",
    "lat": 46.9488838,
    "lon": 7.4445342,
    "tags": {
      "addr:city": "Bern",
      "addr:housenumber": "41",
      "addr:postcode": "3011",
      "addr:street": "Zeughausgasse",
      "alt_name": "Hotel Kreuz",
      "contact:addr": "Zeughausgasse 41, 3011 Bern",
      "contact:email": "info@kreuzbern.ch",
      "contact:fax": "+41 31 3299596",
      "contact:phone": "+41 31 3299595",
      "contact:website": "http://www.kreuzbern.ch",
      "internet_access": "yes",
      "internet_access:fee": "no",
      "name": "Kreuz",
      "operator": "Hotel Kreuz Bern AG",
      "source": "survey and website",
      "tourism": "hotel",
      "wheelchair": "yes"
    },
    "distance_to_station": 918.6394826408144
  },
  {
    "feature_type": "hotels",
    "lat": 46.9488149,
    "lon": 7.4410493,
    "tags": {
      "addr:city": "Bern",
      "addr:housenumber": "11",
      "addr:postcode": "3011",
      "addr:street": "Bahnhofplatz",
      "alt_name": "Hotel Schweizerhof",
      "beds": "170",
      "contact:addr": "Bahnhofplatz 11, 3011 Bern",
      "contact:email": "info@schweizerhof-bern.ch",
      "contact:fax": "+41 31 3268083",
      "contact:phone": "+41 31 3268080",
      "contact:website": "http://www.schweizerhof-bern.ch",
      "internet_access": "wlan",
      "internet_access:fee": "no",
      "name": "Schweizerhof",
      "opening_hours": "24/7",
      "rooms": "99",
      "source": "survey and website",
      "stars": "5",
      "tourism": "hotel",
      "wheelchair": "yes"
    },
    "distance_to_station": 867.8541752578079
  },
  {
    "feature_type": "hotels",
    "lat": 46.9491447,
    "lon": 7.4420768,
    "tags": {
      "addr:city": "Bern",
      "addr:housenumber": "26",
      "addr:postcode": "3011",
      "addr:street": "Neuengasse",
      "alt_name": "Hotel Savoy",
      "beds": "97",
      "contact:addr": "Neuengasse 26, 3011 Bern",
      "contact:email": "reservation-sav@zghotels.ch",
      "contact:fax": "+41 31 3121978",
      "contact:phone": "+41 31 3114405",
      "contact:website": "http://www.hotel-savoy-bern.ch",
      "internet_access": "wlan",
      "name": "Savoy",
      "operator": "ZG Hotels - H. Zurbr\u00fcgg & M. Gauer AG",
      "rooms": "54",
      "source": "survey and website",
      "stars": "4",
      "tourism": "hotel",
      "wheelchair": "yes"
    },
    "distance_to_station": 840.8671723860741
  },
  {
    "feature_type": "hotels",
    "lat": 46.9611167,
    "lon": 7.4394202,
    "tags": {
      "addr:city": "Bern",
      "addr:country": "CH",
      "addr:housenumber": "54",
      "addr:postcode": "3012",
      "addr:street": "Engestrasse",
      "alt_name": "Hotel Innere Enge",
      "beds": "52",
      "check_date": "2024-11-04",
      "contact:email": "reservation-ieb@zghotels.ch",
      "contact:fax": "+41 31 3096112",
      "contact:phone": "+41 31 3096111",
      "internet_access": "wlan",
      "internet_access:fee": "no",
      "name": "Innere Enge",
      "operator": "ZG Hotels - H. Zurbr\u00fcgg & M. Gauer AG",
      "rooms": "26",
      "source": "survey and website",
      "stars": "4",
      "tourism": "hotel",
      "website": "https://innere-enge.ch/",
      "wheelchair": "yes"
    },
    "distance_to_station": 505.7075295755302
  },
  {
    "feature_type": "hotels",
    "lat": 46.9496681,
    "lon": 7.4415991,
    "tags": {
      "check_date": "2023-02-07",
      "name": "Akomo Bern",
      "tourism": "hotel",
      "website": "https://akomo-bern.ch/"
    },
    "distance_to_station": 777.8291598786868
  }
]