[
  {
    "feature_type": "hotels",
    "lat": 46.947538,
    "lon": 7.4425105,
    "tags": {
      "addr:city": "Bern",
      "addr:housenumber": "10",
      "addr:postcode": "3011",
      "addr:street": "Schauplatzgasse",
      "beds": "125",
      "brand": "NH",
      "brand:wikidata": "Q830334",
      "contact:facebook": "https://www.facebook.com/thebristol.ch",
      "contact:instagram": "https://www.instagram.com/the_bristol_bern",
      "email": "nhbernthebristol@nh-hotels.com",
      "internet_access": "wlan",
      "internet_access:fee": "no",
      "name": "NH Bern The Bristol",
      "operator": "NH",
      "phone": "+41 31 311 01 01",
      "rooms": "100",
      "smoking": "separated",
      "stars": "4",
      "tourism": "hotel",
      "website": "https://www.nh-hotels.com/en/hotel/nh-bern-the-bristol"
    },
    "distance_to_station": 494.9608965435165
  },
  {
    "feature_type": "hotels",
    "lat": 46.9488149,
    "lon": 7.4410493,
    "tags": {
      "addr:city": "Bern",
      "addr:housenumber": "11",
      "addr:postcode": "3011",
      "addr:street": "Bahnhofplatz",
      "alt_name": "Hotel Schweizerhof",
      "beds": "170",
      "contact:addr": "Bahnhofplatz 11, 3011 Bern",
      "contact:email": "info@schweizerhof-bern.ch",
      "contact:fax": "+41 31 3268083",
      "contact:phone": "+41 31 3268080",
      "contact:website": "http://www.schweizerhof-bern.ch",
      "internet_access": "wlan",
      "internet_access:fee": "no",
      "name": "Schweizerhof",
      "opening_hours": "24/7",
      "rooms": "99",
      "source": "survey and website",
      "stars": "5",
      "tourism": "hotel",
      "wheelchair": "yes"
    },
    "distance_to_station": 314.8448058947872
  },
  {
    "feature_type": "hotels",
    "lat": 46.9491447,
    "lon": 7.4420768,
    "tags": {
      "addr:city": "Bern",
      "addr:housenumber": "26",
      "addr:postcode": "3011",
      "addr:street": "Neuengasse",
      "alt_name": "Hotel Savoy",
      "beds": "97",
      "contact:addr": "Neuengasse 26, 3011 Bern",
      "contact:email": "reservation-sav@zghotels.ch",
      "contact:fax": "+41 31 3121978",
      "contact:phone": "+41 31 3114405",
      "contact:website": "http://www.hotel-savoy-bern.ch",
      "internet_access": "wlan",
      "name": "Savoy",
      "operator": "ZG Hotels - H. Zurbr\u00fcgg & M. Gauer AG",
      "rooms": "54",
      "source": "survey and website",
      "stars": "4",
      "tourism": "hotel",
      "wheelchair": "yes"
    },
    "distance_to_station": 341.9339337722829
  },
  {
    "feature_type": "hotels",
    "lat": 46.9472071,
    "lon": 7.4398352,
    "tags": {
      "addr:city": "Bern",
      "addr:housenumber": "7",
      "addr:postcode": "3011",
      "addr:street": "Bubenbergplatz",
      "alt_name": "Hotel City Am Bahnhof",
      "contact:addr": "Bubenbergplatz 7, 3011 Bern",
      "contact:email": "cityab@fhotels.ch",
      "contact:fax": "+41 31 3110636",
      "contact:phone": "+41 31 3115377",
      "contact:website": "https://fassbindhotels.ch/hotel/city-am-bahnhof-bern/",
      "internet_access": "wlan",
      "internet_access:fee": "no",
      "name": "City",
      "source": "website",
      "stars": "3",
      "tourism": "hotel",
      "website": "https://fassbindhotels.ch/hotel/city-am-bahnhof-bern/",
      "wheelchair": "yes"
    },
    "distance_to_station": 442.9086177753995
  },
  {
    "feature_type": "hotels",
    "lat": 46.9496681,
    "lon": 7.4415991,
    "tags": {
      "check_date": "2023-02-07",
      "name": "Akomo Bern",
      "tourism": "hotel",
      "website": "https://akomo-bern.ch/"
    },
    "distance_to_station": 277.80250856106204
  }
]