[
  {
    "feature_type": "shops",
    "lat": 46.9483633,
    "lon": 7.4449955,
    "tags": {
      "alt_name": "Migros Marktgasse (MMM)",
      "branch": "Bern Marktgasse",
      "brand": "Migros",
      "brand:wikidata": "Q680727",
      "brand:wikipedia": "de:Migros",
      "cash_withdrawal": "migros_bank;postfinance_card",
      "cash_withdrawal:fee": "no",
      "cash_withdrawal:purchase_required": "no",
      "cash_withdrawal:type": "checkout",
      "check_date": "2024-05-29",
      "contact:addr:full": "Marktgasse 46, 3011 Bern",
      "contact:phone": "+41 58 5676300",
      "internet_access": "wlan",
      "internet_access:fee": "no",
      "internet_access:ssid": "MIGROS WiFi",
      "level": "-1;0",
      "name": "Migros",
      "opening_hours": "Mo 09:00-19:00; Tu-We 08:00-19:00; Th 08:00-21:00; Fr 08:00-20:00; Sa 07:30-17:00; PH off",
      "operator": "Genossenschaft Migros Aare",
      "shop": "supermarket",
      "website": "https://filialen.migros.ch/de/migros-supermarkt-bern-marktgasse",
      "wheelchair": "yes"
    },
    "distance_to_station": 336.74847462939704
  },
  {
    "feature_type": "shops",
    "lat": 46.9427616,
    "lon": 7.4518662,
    "tags": {
      "alt_name": "Optikergesch\u00e4ft Ulrich Sarbach",
      "contact:addr": "Thunstrasse 12, 3005 Bern / Postfach, 3000 Bern 6",
      "contact:phone": "+41 31 351 06 00",
      "name": "Sarbach",
      "note": "Thunstrasse 12 existiert offiziell in Bern nicht",
      "shop": "optician"
    },
    "distance_to_station": 477.4098926431104
  },
  {
    "feature_type": "shops",
    "lat": 46.9426995,
    "lon": 7.4517677,
    "tags": {
      "contact:addr": "Mottastrasse 1, 3005 Bern",
      "contact:email": "info@locken.salon",
      "contact:mobile": "+41 77 512 80 26",
      "contact:phone": "+41 31 351 07 77",
      "contact:website": "https://locken.salon/",
      "name": "Coiffure Flowerhair",
      "opening_hours": "Mo 17:00-20:00; Tu off; We 09:30-18:00; Th 12:00-19:00; Fr 11:00-20:00; Sa 08:00-15:00, Su,PH off",
      "shop": "hairdresser"
    },
    "distance_to_station": 478.56906908197624
  },
  {
    "feature_type": "shops",
    "lat": 46.9431808,
    "lon": 7.4505797,
    "tags": {
      "alt_name": "Coiffeur Headline",
      "contact:addr": "Thunstrasse 2, 3005 Bern",
      "contact:email": "info@headline-bern.ch",
      "contact:phone": "+41 31 3520888",
      "name": "headline",
      "opening_hours": "Mo 09:00-16:00; Tu-We 08:00-18:30; Th 08:00-20:00; Fr 08:00-18:30; Sa 08:00-14:00; Su off",
      "operator": "Debora Kaufmann",
      "shop": "hairdresser",
      "source": "survey and website",
      "website": "https://www.headline-bern.ch/"
    },
    "distance_to_station": 384.8932223433282
  },
  {
    "feature_type": "shops",
    "lat": 46.9431015,
    "lon": 7.4508524,
    "tags": {
      "email": "info@mariaboog.ch",
      "name": "Maria Boog",
      "phone": "+41 31 352 65 43",
      "shop": "tailor",
      "website": "https://www.mariaboog.ch/"
    },
    "distance_to_station": 402.9436095998883
  },
  {
    "feature_type": "shops",
    "lat": 46.9504836,
    "lon": 7.4491011,
    "tags": {
      "alt_name": "Schreinerei Ulrich Wyttenbach",
      "contact:addr": "Altenbergstrasse 57, 3013 Bern",
      "contact:email": "mail@schreinerei-wyttenbach.ch",
      "contact:phone": "+41 31 3323041",
      "description": "Showroom Schreinerei Wyttenbach",
      "name": "Schreinerei Wyttenbach",
      "opening_hours": "Mo-Fr off; Sa 11:00-16:00; Su off",
      "shop": "furniture",
      "source": "survey and website",
      "website": "http://www.schreinerei-wyttenbach.ch/sites/port_showroom.html"
    },
    "distance_to_station": 482.33836846494955
  },
  {
    "feature_type": "shops",
    "lat": 46.9492814,
    "lon": 7.4436419,
    "tags": {
      "check_date:opening_hours": "2024-02-06",
      "contact:addr": "Aarbergergasse 3, 3011 Bern",
      "contact:email": "info@aengelibeck.ch",
      "contact:phone": "+41 31 311 02 11",
      "contact:website": "https://www.aengelibeck.ch/",
      "level": "0",
      "name": "\u00c4ngelibeck",
      "opening_hours": "Mo-Fr 07:00-18:00; Sa 07:00-16:00; Su,PH closed",
      "organic": "only",
      "shop": "bakery",
      "wheelchair": "yes"
    },
    "distance_to_station": 481.5811759267595
  },
  {
    "feature_type": "shops",
    "lat": 46.9428059,
    "lon": 7.4517438,
    "tags": {
      "contact:addr": "Mottastrasse 1, 3005 Bern",
      "contact:email": "mail@coiffeur-merz.ch",
      "contact:phone": "+41 31 381 41 01",
      "contact:website": "https://www.coiffeur-merz.ch",
      "name": "Coiffeur Merz",
      "opening_hours": "Mo 10:00-19:00; Tu,We,Fr 08:00-19:00; Th 08:00-21:00; Sa 08:00-13:00; Su,PH off",
      "shop": "hairdresser"
    },
    "distance_to_station": 467.9218855370645
  },
  {
    "feature_type": "shops",
    "lat": 46.948601,
    "lon": 7.4503878,
    "tags": {
      "name": "Chez Max",
      "old_name": "Grunder",
      "opening_hours": "Tu-Fr 10:00-18:30; Sa 08:00-16:00; Mo,Su,PH closed",
      "phone": "+41 31 311 29 92",
      "shop": "butcher",
      "website": "https://www.chezmaxbern.ch/"
    },
    "distance_to_station": 318.4925391862855
  },
  {
    "feature_type": "shops",
    "lat": 46.9472133,
    "lon": 7.446753,
    "tags": {
      "alt_name": "Spielkiste Chl\u00e4tterb\u00e4r",
      "branch": "Bern Chl\u00e4tterb\u00e4r",
      "contact:addr": "Amthausgasse 3, 3011 Bern",
      "contact:email": "chlaetterbaer@gewa.ch",
      "contact:fax": "+41 31 3111186",
      "contact:phone": "+41 31 3111196",
      "name": "Chl\u00e4tterb\u00e4r",
      "old_name": "Chl\u00e4tterb\u00e4r",
      "opening_hours": "Mo-Fr 09:00-18:30; Th 09:00-20:00; Sa 09:00-17:00; PH off",
      "operator": "Spielkiste Schweiz",
      "shop": "toys",
      "source": "website and survey",
      "website": "https://www.spielkiste.ch/"
    },
    "distance_to_station": 152.15357545225106
  },
  {
    "feature_type": "shops",
    "lat": 46.9478568,
    "lon": 7.4487552,
    "tags": {
      "alt_name": "Confiserie Tschirren",
      "contact:addr": "Kramgasse 73, 3011 Bern",
      "contact:email": "order@swiss-chocolate.ch",
      "contact:phone": "+41 31 3111717",
      "level": "0",
      "name": "Tschirren",
      "opening_hours": "Mo-Fr 08:00-18:30; Sa 08:00-17:00; Su 09:00-17:00",
      "shop": "pastry",
      "website": "https://www.swiss-chocolate.ch"
    },
    "distance_to_station": 190.82335405839984
  },
  {
    "feature_type": "shops",
    "lat": 46.9476822,
    "lon": 7.4457857,
    "tags": {
      "alt_name": "Coiffure Walter Lottenbach",
      "contact:addr": "Marktgasse 29, 3011 Bern",
      "contact:phone": "+41 31 3117689",
      "name": "Walter",
      "shop": "hairdresser",
      "source": "survey"
    },
    "distance_to_station": 240.88655508255852
  },
  {
    "feature_type": "shops",
    "lat": 46.9487589,
    "lon": 7.4457696,
    "tags": {
      "check_date": "2023-04-20",
      "contact:addr": "Zeughausgasse 19, 3011 Bern",
      "contact:email": "contact@titolo.ch",
      "contact:phone": "+41 31 3129501",
      "name": "Titolo",
      "opening_hours": "Mo-We,Fr 09:30-18:30; Th 11:00-19:00; Sa 10:00-17:00",
      "shop": "shoes",
      "source": "website and survey",
      "website": "https://www.titolo.ch/",
      "wheelchair": "no"
    },
    "distance_to_station": 335.04384205926897
  },
  {
    "feature_type": "shops",
    "lat": 46.9490494,
    "lon": 7.4457924,
    "tags": {
      "addr:city": "Bern",
      "addr:housenumber": "12",
      "addr:postcode": "3011",
      "addr:street": "Zeughausgasse",
      "alt_name": "Coiffeur Kopfstand",
      "check_date": "2025-07-19",
      "email": "info@kopfstand.ch",
      "name": "Kopfstand",
      "opening_hours": "Mo,We,Fr 09:00-18:30; Tu,Th 09:00-21:00; Sa 09:00-16:00; Su off",
      "operator": "David von Graffenried",
      "payment:cash": "yes",
      "payment:coins": "yes",
      "payment:credit_cards": "yes",
      "payment:maestro": "yes",
      "payment:mastercard": "yes",
      "payment:visa": "yes",
      "phone": "+41 31 3116617",
      "shop": "hairdresser",
      "unisex": "yes",
      "website": "https://kopfstand.ch/"
    },
    "distance_to_station": 362.036716117949
  },
  {
    "feature_type": "shops",
    "lat": 46.948061,
    "lon": 7.4538243,
    "tags": {
      "alt_name": "Berger Rahmen",
      "contact:addr": "Gerechtigkeitsgasse 47, 3011 Bern",
      "contact:email": "info@atelierfelber.ch",
      "contact:phone": "+41 31 311 41 76",
      "contact:website": "https://atelierfelber.ch/",
      "craft": "gilder",
      "name": "Atelier Felber & Co",
      "opening_hours": "Tu-Fr 10:00-12:00,13:30-18:30; Sa 10:00-16:00",
      "operator": "Simone Felber & Rahel Felber",
      "shop": "interior_decoration"
    },
    "distance_to_station": 481.2879983453754
  },
  {
    "feature_type": "shops",
    "lat": 46.9481457,
    "lon": 7.4459907,
    "tags": {
      "branch": "Bern Marktgasse",
      "brand": "Coop",
      "brand:wikidata": "Q432564",
      "check_date:opening_hours": "2024-09-04",
      "name": "Coop",
      "opening_hours": "Mo-We 07:00-19:00; Fr 07:00-20:00; Sa 07:00-18:00; Su,PH off; Th 07:00-20:00",
      "phone": "+41 31 307 49 65",
      "shop": "supermarket",
      "website": "https://www.coop.ch/de/standorte/coop-supermarkt-bern-marktgasse/5744_POS"
    },
    "distance_to_station": 269.15686391053146
  },
  {
    "feature_type": "shops",
    "lat": 46.9485945,
    "lon": 7.4482262,
    "tags": {
      "alt_name": "Ch\u00e4sh\u00fctte Bern",
      "contact:addr": "Rathausgasse 82, 3011 Bern",
      "contact:email": "info@chaeshuette-bern.ch",
      "contact:phone": "+41 31 3113716",
      "contact:website": "http://www.chaeshuette-bern.ch/kontakt.html",
      "name": "Zur K\u00e4sh\u00fctte",
      "opening_hours": "Mo-Fr 08:00-18:30; Sa 08:00-17:00; Su off; PH off",
      "operator": "zur Ch\u00e4sh\u00fctte GmbH",
      "shop": "dairy",
      "source": "survey and website",
      "website": "https://chaeshuette-bern.ch/",
      "wheelchair": "no"
    },
    "distance_to_station": 266.42853364656077
  },
  {
    "feature_type": "shops",
    "lat": 46.9486296,
    "lon": 7.4480682,
    "tags": {
      "alt_name": "Messerschmiede Kl\u00f6tzli",
      "check_date:opening_hours": "2023-01-09",
      "contact:addr": "Rathausgasse 84, 3011 Bern",
      "contact:email": "bernag@klotzli.com",
      "contact:fax": "+41 31 3123910",
      "contact:phone": "+41 31 3110080",
      "name": "Kl\u00f6tzli",
      "opening_hours": "Mo 09:00-18:30; Tu-Fr 08:30-18:30; Sa 08:30-17:00; Su off",
      "operator": "Messer Kl\u00f6tzli Bern AG",
      "shop": "doityourself",
      "source": "survey and website",
      "website": "https://www.klotzli.com/",
      "wheelchair": "yes"
    },
    "distance_to_station": 270.1699779402177
  },
  {
    "feature_type": "shops",
    "lat": 46.9477342,
    "lon": 7.4467271,
    "tags": {
      "alt_name": "C&A Bern 7",
      "brand": "C&A",
      "brand:wikidata": "Q701338",
      "contact:addr": "Marktgasse 11, 3011 Bern",
      "contact:fax": "+41 31 3133011",
      "contact:phone": "+41 31 3133010",
      "internet_access": "wlan",
      "name": "C&A",
      "opening_hours": "Mo-We 09:00-19:00; Th 09:00-21:00; Fr 09:00-19:00; Sa 09:00-17:00; Su off",
      "operator": "C&A Mode AG",
      "shop": "clothes",
      "source": "survey and website",
      "website": "https://www.c-and-a.com/"
    },
    "distance_to_station": 199.90970540782405
  },
  {
    "feature_type": "shops",
    "lat": 46.9483145,
    "lon": 7.4445691,
    "tags": {
      "brand": "M\u00fcller",
      "brand:wikidata": "Q1958759",
      "name": "M\u00fcller",
      "opening_hours": "Mo-Fr 09:30-18:30; Sa 09:00-17:00; Su,PH closed",
      "shop": "chemist",
      "website": "https://www.mueller.ch/"
    },
    "distance_to_station": 356.5414839842448
  },
  {
    "feature_type": "shops",
    "lat": 46.9481854,
    "lon": 7.4423636,
    "tags": {
      "alt_name": "Drogeriemarkt M\u00fcller",
      "brand": "M\u00fcller",
      "brand:wikidata": "Q1958759",
      "check_date": "2023-12-18",
      "contact:addr": "Spitalgasse 26, 3011 Bern",
      "contact:phone": "+41 31 3187820",
      "level": "0",
      "name": "M\u00fcller",
      "opening_hours": "Mo-We,Fr 09:00-19:00; Th 09:00-20:00; Sa 09:00-18:00",
      "operator": "M\u00fcller Handels AG Schweiz",
      "ref:branch": "5101",
      "shop": "chemist",
      "website": "https://www.mueller.ch",
      "wheelchair": "yes"
    },
    "distance_to_station": 488.2140982715053
  },
  {
    "feature_type": "shops",
    "lat": 46.9437706,
    "lon": 7.4499172,
    "tags": {
      "addr:city": "Bern",
      "addr:country": "CH",
      "addr:housenumber": "1",
      "addr:postcode": "3005",
      "addr:street": "Thunstrasse",
      "name": "Kiosk",
      "shop": "kiosk"
    },
    "distance_to_station": 303.3213364744685
  },
  {
    "feature_type": "shops",
    "lat": 46.9485971,
    "lon": 7.4492781,
    "tags": {
      "alt_name": "Drachennest",
      "contact:email": "dn@fatamorgana.ch",
      "name": "DracheN\u00e4scht",
      "opening_hours": "Mo-Fr 09:30-18:30; Sa 09:00-17:00",
      "phone": "+41 31 311 26 57",
      "shop": "toys",
      "website": "https://fatamorgana.ch/drachenaescht"
    },
    "distance_to_station": 281.1475536415656
  },
  {
    "feature_type": "shops",
    "lat": 46.9481096,
    "lon": 7.4479397,
    "tags": {
      "contact:email": "info@baertschi.ch",
      "contact:phone": "+41 31 329 60 60",
      "name": "B\u00e4rtschi",
      "opening_hours": "Mo 10:00-18:30; Tu-Fr 09:00-18:30; Sa 09:00-17:00; Su,PH closed",
      "operator": "B\u00e4rtschi Brillen AG",
      "shop": "optician",
      "website": "https://www.baertschi.ch/",
      "wheelchair": "no"
    },
    "distance_to_station": 212.68620810428897
  },
  {
    "feature_type": "shops",
    "lat": 46.9472266,
    "lon": 7.4473466,
    "tags": {
      "check_date:opening_hours": "2023-01-09",
      "name": "Elite",
      "opening_hours": "Mo-Fr 09:30-18:30; Sa 09:00-17:00",
      "shop": "interior_decoration"
    },
    "distance_to_station": 127.67786191272509
  },
  {
    "feature_type": "shops",
    "lat": 46.9462757,
    "lon": 7.4534349,
    "tags": {
      "alt_name": "Coiffure Schifflaube",
      "contact:addr": "Schifflaube 26, 3011 Bern",
      "contact:email": "mail@coiffureschifflaube.be",
      "contact:phone": "+41 31 3117880",
      "name": "Schifflaube",
      "opening_hours": "Mo-Fr 10:00-18:30; Sa 08:00-16:00; Su off; PH off",
      "shop": "hairdresser",
      "source": "survey and website",
      "website": "http://www.coiffureschifflaube.be"
    },
    "distance_to_station": 405.06523121161484
  },
  {
    "feature_type": "shops",
    "lat": 46.9489288,
    "lon": 7.4431757,
    "tags": {
      "brand": "Snipes",
      "brand:wikidata": "Q42306166",
      "check_date:opening_hours": "2023-10-15",
      "name": "Snipes",
      "opening_hours": "Mo-We,Fr 10:00-19:00; Th 10:00-20:00; Sa 09:00-17:00; Su,PH closed",
      "opening_hours:url": "https://www.snipes.ch/de/storedetails?sid=SCH25",
      "shop": "shoes",
      "website": "https://www.snipes.ch/",
      "wheelchair": "yes"
    },
    "distance_to_station": 481.4509307056172
  },
  {
    "feature_type": "shops",
    "lat": 46.9481361,
    "lon": 7.4464199,
    "tags": {
      "alt_name": "Bijou les Boutiques",
      "brand": "Bijou les Boutiques",
      "check_date": "2023-09-01",
      "contact:addr": "Marktgasse 16, 3011 Bern",
      "contact:email": "bern@bijoulesboutiques.ch",
      "contact:fax": "+41 31 3123560",
      "contact:phone": "+41 31 3123609",
      "name": "Bijou",
      "opening_hours": "Mo-We 09:00-18:30; Th 09:00-20:00; Fr 09:00-18:30; Sa 09:00-17:00; Su off",
      "operator": "Gygax Retail AG",
      "shop": "clothes",
      "source": "survey and website",
      "website": "https://bijoulesboutiques.ch/"
    },
    "distance_to_station": 250.22554355330888
  },
  {
    "feature_type": "shops",
    "lat": 46.9480448,
    "lon": 7.4468968,
    "tags": {
      "brand": "H&M",
      "brand:wikidata": "Q188326",
      "check_date": "2024-05-15",
      "clothes": "women;men;children",
      "contact:addr": "Marktgasse 6, 3011 Bern",
      "contact:phone": "+41 58 5150630",
      "name": "H&M",
      "opening_hours": "Mo-We 09:00-19:00; Th 09:00-21:00; Fr 09:00-20:00; Sa 09:00-17:00",
      "operator": "H & M Hennes & Mauritz SA",
      "shop": "clothes",
      "website": "https://www.hm.com"
    },
    "distance_to_station": 224.54691933118883
  },
  {
    "feature_type": "shops",
    "lat": 46.9480942,
    "lon": 7.4461991,
    "tags": {
      "brand": "Mango",
      "brand:wikidata": "Q136503",
      "brand:wikipedia": "en:Mango (retailer)",
      "clothes": "women",
      "contact:addr": "Marktgasse 22, 3011 Bern",
      "contact:phone": "+41 313184650",
      "name": "Mango",
      "opening_hours": "Mo-We 10:00-18:30; Th,Fr 10:00-19:00; Sa 10:00-17:00; Su,PH off",
      "shop": "clothes",
      "website": "https://shop.mango.com"
    },
    "distance_to_station": 255.31284064170725
  },
  {
    "feature_type": "shops",
    "lat": 46.9480919,
    "lon": 7.4462816,
    "tags": {
      "brand": "Etam",
      "brand:wikidata": "Q3059202",
      "brand:wikipedia": "en:Etam D\u00e9veloppement",
      "clothes": "lingerie",
      "gender": "women",
      "name": "Etam",
      "opening_hours": "Mo-Fr 10:00-18:00; Sa 10:00-17:00; Su,PH off",
      "phone": "+41 313115478",
      "shop": "clothes",
      "website": "https://www.etam.ch"
    },
    "distance_to_station": 251.61252931994167
  },
  {
    "feature_type": "shops",
    "lat": 46.9480785,
    "lon": 7.4464969,
    "tags": {
      "check_date": "2023-09-01",
      "contact:addr": "Marktgasse 14, 3011 Bern",
      "contact:email": "info@zumstein.ch",
      "contact:fax": "+41 31 3187771",
      "contact:phone": "+41 31 3187770",
      "name": "Zumstein",
      "old_name": "Kollbrunner;Waser",
      "opening_hours": "Mo 10:00-18:30; Tu-We 09:00-18:30; Th 09:00-21:00; Fr 09:00-18:30; Sa 09:00-17:00; Su off",
      "operator": "Papeterie Zumstein AG",
      "shop": "stationery",
      "website": "https://www.zumstein.ch/"
    },
    "distance_to_station": 241.74242026986042
  },
  {
    "feature_type": "shops",
    "lat": 46.9479001,
    "lon": 7.4450711,
    "tags": {
      "check_date": "2023-09-01",
      "clothes": "women",
      "contact:addr": "Marktgasse 48, 3011 Bern",
      "contact:phone": "+41 31 3202050",
      "name": "Bayard Co. Ltd.",
      "opening_hours": "Mo-We,Fr 09:00-19:00; Th 09:00-21:00; Sa 09:00-17:00",
      "shop": "clothes",
      "website": "https://www.modebayard.ch/"
    },
    "distance_to_station": 297.6606301214993
  },
  {
    "feature_type": "shops",
    "lat": 46.9472357,
    "lon": 7.4471027,
    "tags": {
      "alt_name": "B\u00fcrki Les Collections",
      "contact:addr": "M\u00fcnzgraben 2, 3011 Bern",
      "contact:email": "info@buerki.ch",
      "contact:fax": "+41 31 3102025",
      "contact:phone": "+41 31 3102020",
      "name": "B\u00fcrki",
      "opening_hours": "Mo-We 08:30-18:30; Th 08:30-20:00; Fr 08:30-18:30; Sa 08:30-16:00; Su off",
      "operator": "B\u00fcrki Les Collections SA",
      "shop": "clothes",
      "source": "survey and website",
      "website": "https://www.buerki.ch/"
    },
    "distance_to_station": 137.81940458074303
  },
  {
    "feature_type": "shops",
    "lat": 46.947802,
    "lon": 7.4460809,
    "tags": {
      "addr:housenumber": "1",
      "addr:postcode": "3011",
      "addr:street": "Marktgass-Passage",
      "alt_name": "WE Fashion",
      "brand": "WE",
      "brand:wikidata": "Q1987861",
      "contact:addr": "Marktgass-Passage 1, 3011 Bern",
      "contact:email": "info@wefashion.ch",
      "contact:phone": "+41 31 3116211",
      "description": "Men and boys fashion",
      "description:de": "Herren- und Jungenmode",
      "name": "WE",
      "opening_hours": "Mo-We, Fr 09:00-18:30; Th 09:00-20:00; Sa 09:00-17:00",
      "operator": "WE Switzerland Fashion AG",
      "shop": "clothes",
      "source": "survey and website",
      "website": "https://www.wefashion.ch/"
    },
    "distance_to_station": 234.9966895446787
  },
  {
    "feature_type": "shops",
    "lat": 46.9428419,
    "lon": 7.4524574,
    "tags": {
      "contact:addr": "Luisenstrasse 14, 3005 Bern",
      "contact:email": "royal@vatter.ch",
      "contact:fax": "+41 31 3515715",
      "contact:phone": "+41 31 3021000",
      "name": "Vatter Royal",
      "opening_hours": "Mo-Fr 07:15-18:30; Sa 07:15-14:00; Su 09:00-13:00",
      "shop": "convenience",
      "source": "survey and website",
      "website": "https://www.vatter.ch/royal"
    },
    "distance_to_station": 498.84792302528547
  },
  {
    "feature_type": "shops",
    "lat": 46.9478484,
    "lon": 7.4422833,
    "tags": {
      "alt_name": "Drogeriemarkt M\u00fcller",
      "brand": "M\u00fcller",
      "brand:wikidata": "Q1958759",
      "brand:wikipedia": "en:M\u00fcller (German trade company)",
      "contact:addr": "Spitalgasse 23, 3011 Bern",
      "contact:phone": "+41 31 5320301",
      "levels": "4",
      "name": "M\u00fcller",
      "note": "Filialnummer: 5188",
      "opening_hours": "Mo-We 08:30-19:00; Th 08:30-21:00; Fr 08:30-19:00; Sa 08:00-17:00; Su off; PH off",
      "operator": "M\u00fcller Handels AG Schweiz",
      "shop": "chemist",
      "website": "https://www.mueller.ch/meine-filiale/",
      "wheelchair": "yes"
    },
    "distance_to_station": 478.07819436464155
  },
  {
    "feature_type": "shops",
    "lat": 46.9477515,
    "lon": 7.4427568,
    "tags": {
      "alt_name": "Globus Bern City",
      "branch": "Bern City",
      "brand": "Globus",
      "brand:wikidata": "Q683505",
      "brand:wikipedia": "de:Magazine zum Globus",
      "contact:addr": "Spitalgasse 17-21, 3011 Bern",
      "contact:fax": "+41 58 5784088",
      "contact:phone": "+41 58 5784040",
      "levels": "5",
      "name": "Globus",
      "opening_hours": "Mo-We 09:00-19:00; Th 09:00-21:00; Fr 09:00-19:00; Sa 08:00-17:00; Su off",
      "operator": "Magazine zum Globus",
      "shop": "department_store",
      "source": "survey and website",
      "website": "https://www.globus.ch/filialsuche/store/106",
      "wheelchair": "yes"
    },
    "distance_to_station": 440.7674577416487
  },
  {
    "feature_type": "shops",
    "lat": 46.9483541,
    "lon": 7.4444632,
    "tags": {
      "alt_name": "Reinhard - B\u00e4ckerei Konditorei",
      "check_date": "2022-12-23",
      "contact:addr": "Marktgasse 54, 3011 Bern",
      "contact:email": "info@reinhard-baeckerei.ch",
      "contact:phone": "+41 31 3182040",
      "name": "Reinhard",
      "opening_hours": "Mo-We,Fr 07:00-18:30; Th 07:00-20:00; Sa 07:00-17:00; Su off",
      "shop": "bakery",
      "source": "website",
      "website": "http://www.reinhard.ch",
      "wheelchair": "yes"
    },
    "distance_to_station": 365.49376998835663
  },
  {
    "feature_type": "shops",
    "lat": 46.9479944,
    "lon": 7.4431125,
    "tags": {
      "alt_name": "Bayard Co Ltd Bern Herrenmode",
      "branch": "Bern Herrenmode",
      "check_date": "2022-10-21",
      "clothes": "men",
      "contact:addr:full": "Spitalgasse 3, 3011 Bern",
      "levels": "4",
      "name": "Bayard Co Ltd",
      "old_name": "Herren Globus",
      "opening_hours": "Mo-We,Fr 09:00-19:00; Th 09:00-21:00; Sa 09:00-17:00; Su off",
      "operator": "Mode Bayard",
      "shop": "clothes",
      "source": "survey and website",
      "website": "https://www.modebayard.ch/de/bayard-premiummen-bern-1/",
      "wheelchair": "yes"
    },
    "distance_to_station": 427.9598093460338
  },
  {
    "feature_type": "shops",
    "lat": 46.9489516,
    "lon": 7.4443832,
    "tags": {
      "addr:postcode": "3011",
      "alt_name": "Waisenhausplatz",
      "brand": "Glatz",
      "brand:wikidata": "Q111731089",
      "contact:addr": "Waisenhausplatz 21, 3011 Bern",
      "contact:email": "info@glatz-bern.ch",
      "contact:facebook": "beckglatzconfiseur",
      "contact:fax": "+41 31 3002005",
      "contact:phone": "+41 31 3002021",
      "internet_access": "wlan",
      "internet_access:fee": "no",
      "name": "Glatz",
      "opening_hours": "Mo-Fr 06:30-18:00; Sa 07:00-16:00",
      "shop": "bakery",
      "source": "survey and website",
      "website": "https://www.glatz-bern.ch/kontakt/karte/"
    },
    "distance_to_station": 416.192743399786
  },
  {
    "feature_type": "shops",
    "lat": 46.9472423,
    "lon": 7.4419448,
    "tags": {
      "branch": "Bern",
      "brand": "Pfister",
      "brand:wikidata": "Q104215428",
      "contact:addr": "Schauplatzgasse 33, 3011 Bern",
      "contact:email": "bern@pfister.ch",
      "contact:fax": "+41 31 3909000",
      "contact:phone": "+41 31 3909090",
      "name": "Pfister",
      "opening_hours": "Mo-We 09:00-19:00; Th 09:00-21:00; Fr 09:00-19:00; Sa 09:00-17:00; Su off",
      "operator": "M\u00f6bel Pfister",
      "shop": "furniture",
      "source": "survey and website",
      "website": "https://www.pfister.ch/de/filialen/bern"
    },
    "distance_to_station": 481.40296627480586
  },
  {
    "feature_type": "shops",
    "lat": 46.9488953,
    "lon": 7.4448803,
    "tags": {
      "addr:city": "Bern",
      "addr:housenumber": "35,37",
      "addr:postcode": "3011",
      "addr:street": "Zeughausgasse",
      "contact:email": "bern@fontis.ch",
      "contact:fax": "+41 31 3116450",
      "contact:phone": "+41 31 3110421",
      "name": "Fontis",
      "opening_hours": "Mo-Fr 09:00-18:30; Sa 09:00-17:00; Su off",
      "shop": "books",
      "source": "survey and website",
      "website": "https://www.fontis-shop.ch/pages/buchhandlung-bern"
    },
    "distance_to_station": 386.72469510461144
  },
  {
    "feature_type": "shops",
    "lat": 46.9482606,
    "lon": 7.4458014,
    "tags": {
      "brand": "Ochsner Sport",
      "brand:wikidata": "Q102030654",
      "level": "1",
      "name": "Ochsner Sport",
      "opening_hours": "Mo-We,Fr 09:00-19:00; Th 09:00-20:00; Sa,PH -1 day 09:00-18:00; Su,PH closed",
      "operator": "Ochsner Sport AG",
      "phone": "+41 31 552 00 49",
      "shop": "sports",
      "website": "https://www.ochsnersport.ch/"
    },
    "distance_to_station": 288.0018719920952
  },
  {
    "feature_type": "shops",
    "lat": 46.9484692,
    "lon": 7.445074,
    "tags": {
      "addr:floor": "1",
      "brand": "Denner",
      "brand:wikidata": "Q379911",
      "brand:wikipedia": "en:Denner (supermarket)",
      "cash_withdrawal": "migros_bank;postfinance_card",
      "cash_withdrawal:fee": "no",
      "cash_withdrawal:purchase_required": "no",
      "cash_withdrawal:type": "checkout",
      "contact:addr": "Marktgasse 44, 3011 Bern",
      "contact:phone": "+41 31 3181131",
      "level": "1",
      "name": "Denner",
      "opening_hours": "Mo 09:00-19:00; Tu-We 08:00-19:00; Th 08:00-21:00; Fr 08:00-20:00; Sa 07:30-17:00; Su off; PH off",
      "shop": "supermarket",
      "website": "https://www.denner.ch/"
    },
    "distance_to_station": 341.21870676617544
  },
  {
    "feature_type": "shops",
    "lat": 46.9476692,
    "lon": 7.4490413,
    "tags": {
      "alt_name": "SOON Galerie Bern Andrej Malogajski",
      "contact:addr": "M\u00fcnstergasse 62, 3011 Bern",
      "contact:email": "info@soon-art.ch",
      "contact:phone": "+41 31 3318473",
      "name": "SOON",
      "opening_hours": "We-Fr 13:30-18:00; Sa 10:30-17:00",
      "shop": "art",
      "source": "survey and website",
      "tourism": "gallery",
      "website": "https://www.galerie-soon.ch/"
    },
    "distance_to_station": 178.31057192051068
  },
  {
    "feature_type": "shops",
    "lat": 46.9478471,
    "lon": 7.4483788,
    "tags": {
      "addr:floor": "0",
      "contact:addr": "Kramgasse 83, 3011 Bern",
      "contact:email": "info@chaesbueb.ch",
      "contact:facebook": "https://www.facebook.com/chaesbueb",
      "contact:fax": "+41 31 3123739",
      "contact:phone": "+41 31 3112271",
      "name": "Ch\u00e4sbueb",
      "opening_hours": "Mo 11:00-18:30; Tu-Th 09:00-18:30; Fr 08:00-18:30; Sa 08:00-17:00; Su off",
      "operator": "Baumann K\u00e4se AG",
      "shop": "dairy",
      "source": "survey and website",
      "website": "https://www.chaesbueb.ch/"
    },
    "distance_to_station": 184.36788688979698
  },
  {
    "feature_type": "shops",
    "lat": 46.9463185,
    "lon": 7.4532688,
    "tags": {
      "contact:addr": "Schifflaube 50, 3011 Bern",
      "contact:email": "mail@einfachlesen.ch",
      "contact:mobile": "+41 79 4109133",
      "contact:phone": "+41 31 3110108",
      "name": "Einfach lesen",
      "note": "Bis Ende Februar 2019 Badgasse 4, 3011 Bern. Ab M\u00e4rz 2019 Schifflaube 50, 3011 Bern.",
      "opening_hours": "Mo off; Tu-Fr 12:00-18:00; Sa 10:00-16:00; Su off; PH off",
      "operator": "Rosmarie Bernasconi",
      "shop": "books",
      "source": "survey and website",
      "website": "https://www.einfachlesen.ch"
    },
    "distance_to_station": 392.58997022571026
  },
  {
    "feature_type": "shops",
    "lat": 46.9486647,
    "lon": 7.4499365,
    "tags": {
      "alt_name": "DVD Mediathek dr. Strangelove",
      "contact:addr": "Rathausgasse 38, 3011 Bern",
      "contact:email": "dvd@strangelove.be",
      "contact:facebook": "https://de-de.facebook.com/dvdstrangelove",
      "contact:phone": "+41 31 3110293",
      "name": "Dr. Strangelove",
      "opening_hours": "Mo-Fr 14:00-22:00; Sa 11:00-22:00; Su 14:00-22:00",
      "operator": "Stefan Theiler",
      "shop": "video",
      "source": "survey and website",
      "video:rental": "yes",
      "website": "http://www.strangelove.be"
    },
    "distance_to_station": 307.48090163175743
  },
  {
    "feature_type": "shops",
    "lat": 46.9477363,
    "lon": 7.4457931,
    "tags": {
      "alt_name": "Coiffure Gianni Scilipoti",
      "contact:addr": "Marktgasse 29, 3011 Bern",
      "contact:phone": "+41 31 3116457",
      "name": "Gianni",
      "shop": "hairdresser",
      "source": "survey"
    },
    "distance_to_station": 244.63922460906852
  },
  {
    "feature_type": "shops",
    "lat": 46.9486539,
    "lon": 7.4491773,
    "tags": {
      "contact:addr": "Rathausgasse 62, 3011 Bern",
      "contact:email": "info@ludocca.ch",
      "contact:phone": "+41 31 3113666",
      "name": "LudOcca",
      "opening_hours": "Mo-Tu off; We-Fr 14:00-18:30; Sa 11:00-16:00; Su off",
      "operator": "Karin Wymann & Dorothea K\u00e4nzig",
      "shop": "toys",
      "source": "survey and website",
      "website": "https://www.ludocca.ch/"
    },
    "distance_to_station": 284.85215700350096
  },
  {
    "feature_type": "shops",
    "lat": 46.9485991,
    "lon": 7.4495515,
    "tags": {
      "check_date": "2025-07-16",
      "check_date:opening_hours": "2023-01-09",
      "contact:addr": "Rathausgasse 48, 3011 Bern",
      "contact:phone": "+41 31 3114370",
      "name": "Tabakwaren",
      "opening_hours:signed": "no",
      "operator": "Murat Erol",
      "shop": "kiosk",
      "source": "survey"
    },
    "distance_to_station": 288.6264169746033
  },
  {
    "feature_type": "shops",
    "lat": 46.9486965,
    "lon": 7.4498325,
    "tags": {
      "addr:floor": "0",
      "alt_name": "VERO Stoffe",
      "check_date": "2025-07-16",
      "check_date:opening_hours": "2023-01-09",
      "contact:addr": "Rathausgasse 42, 3011 Bern",
      "contact:email": "vero.stoffe@bluewin.ch",
      "contact:phone": "+41 31 3112293",
      "contact:website": "https://www.verostoffe.com/contact",
      "name": "VERO",
      "opening_hours": "Mo off; Tu-Fr 10:00-18:30; Sa 10:00-16:00; Su off; PH off",
      "operator": "Rose Blaser & Verena Hasler",
      "shop": "fabric",
      "source": "Survey and website",
      "website": "https://www.verostoffe.com"
    },
    "distance_to_station": 307.1748101725837
  },
  {
    "feature_type": "shops",
    "lat": 46.9486953,
    "lon": 7.4485113,
    "tags": {
      "alt_name": "intraform Raumgestaltung",
      "check_date": "2024-05-15",
      "check_date:opening_hours": "2022-01-07",
      "contact:addr": "Rathausgasse 76, 3011 Bern",
      "contact:email": "info@intraform.ch",
      "contact:fax": "+41 31 3117382",
      "contact:phone": "+41 31 3120606",
      "name": "intraform",
      "opening_hours": "Mo off; Tu-Fr 09:30-18:30; Sa 09:30-17:00; Su off",
      "shop": "furniture",
      "source": "website",
      "website": "https://www.intraform.ch/"
    },
    "distance_to_station": 279.215762741836
  },
  {
    "feature_type": "shops",
    "lat": 46.9485868,
    "lon": 7.4485721,
    "tags": {
      "alt_name": "Voirol - Die Oekumenische Buchhandlung",
      "check_date": "2024-05-15",
      "check_date:opening_hours": "2022-01-07",
      "contact:addr": "Rathausgasse 74, 3011 Bern",
      "contact:email": "info@voirol-buch.ch",
      "contact:fax": "+41 31 3116231",
      "contact:phone": "+41 31 3112088",
      "name": "Voirol",
      "opening_hours": "Mo 14:00-18:30; Tu-Fr 09:00-18:30; Sa 09:00-16:00; Su off",
      "operator": "Buchhandlung Paul Voirol AG",
      "shop": "books",
      "source": "survey and website",
      "website": "https://www.voirol-buch.ch/"
    },
    "distance_to_station": 267.80863504831234
  },
  {
    "feature_type": "shops",
    "lat": 46.9477687,
    "lon": 7.4482748,
    "tags": {
      "addr:floor": "0",
      "alt_name": "Buchhandlung zum Zytglogge",
      "check_date": "2024-05-16",
      "contact:addr": "Hotelgasse 1, 3011 Bern",
      "contact:email": "info@zytglogge-buchhandlung.ch",
      "contact:phone": "+41 31 3113080",
      "name": "Zytglogge",
      "opening_hours": "Mo 12:00-18:30; Tu-Fr 09:00-18:30; Sa 09:00-16:00; Su off",
      "operator": "Gabriela Bader",
      "owner": "Gabriela Bader",
      "shop": "books",
      "website": "https://www.zytglogge-buchhandlung.ch"
    },
    "distance_to_station": 174.93544453055137
  },
  {
    "feature_type": "shops",
    "lat": 46.9478165,
    "lon": 7.4470469,
    "tags": {
      "alt_name": "L\u00e4derach Marktgasse",
      "branch": "Bern Marktgasse",
      "brand": "L\u00e4derach",
      "brand:wikidata": "Q1437143",
      "contact:addr": "Marktgasse 5, 3011 Bern",
      "contact:email": "info@laederach.ch",
      "contact:facebook": "https://www.facebook.com/LaederachChocolatier",
      "contact:phone": "+41 31 3120234",
      "craft": "confectionery",
      "name": "L\u00e4derach",
      "opening_hours": "Mo-Fr 09:00-18:30; Sa 09:00-17:00; Su off",
      "operator": "L\u00e4derach (Schweiz)",
      "shop": "confectionery",
      "source": "survey and website",
      "website": "https://www.laderach.com/de/locations/location-details/bern-marktgasse-bern-102"
    },
    "distance_to_station": 196.72154031656646
  },
  {
    "feature_type": "shops",
    "lat": 46.9483836,
    "lon": 7.4534268,
    "tags": {
      "alt_name": "Altstadtladen Cappelletti",
      "contact:addr": "Gerechtigkeitsgasse 62, 3011 Bern",
      "contact:email": "info@cappelletti.ch",
      "contact:phone": "+41 31 3114101",
      "name": "Vini Cappelletti",
      "opening_hours": "Mo-Fr 08:00-12:30, 14:00-18:30; Sa 08:00-16:00; Su off",
      "operator": "Vini Cappelletti AG",
      "shop": "alcohol",
      "source": "survey and website",
      "website": "https://www.cappelletti.ch/cappelletti/viniCappelletti.php?s=2"
    },
    "distance_to_station": 471.65377959849
  },
  {
    "feature_type": "shops",
    "lat": 46.9485938,
    "lon": 7.4493889,
    "tags": {
      "alt_name": "WELTLADEN Bern - Fair & Bio",
      "brand": "claro",
      "fair_trade": "yes",
      "name": "Weltladen",
      "opening_hours": "Mo-Fr 10:00-18:30; Sa 09:00-16:00",
      "organic": "yes",
      "phone": "+41 31 311 62 32",
      "shop": "grocery",
      "website": "https://www.weltladenbern.ch/"
    },
    "distance_to_station": 283.59044081076667
  },
  {
    "feature_type": "shops",
    "lat": 46.947631,
    "lon": 7.4497396,
    "tags": {
      "alt_name": "Sattlerei Fiona Losinger",
      "check_date:opening_hours": "2023-01-09",
      "contact:addr": "M\u00fcnstergasse 48, 3011 Bern",
      "contact:email": "fiona@fionalosinger.ch",
      "contact:phone": "+41 31 3111316",
      "contact:website": "http://www.fionalosinger.ch/kontakt/",
      "craft": "saddler",
      "name": "Fiona Losinger",
      "opening_hours": "Mo-We off; Th-Fr 11:00-18:30; Sa 10:00-17:00; Su off",
      "shop": "leather",
      "source": "website",
      "website": "https://www.fionalosinger.ch/"
    },
    "distance_to_station": 202.014807697731
  },
  {
    "feature_type": "shops",
    "lat": 46.9478602,
    "lon": 7.4433819,
    "tags": {
      "brand": "Kuoni",
      "brand:wikidata": "Q684355",
      "contact:addr": "B\u00e4renplatz 6-8, 3011 Bern",
      "contact:email": "brn-baerenplatz.k@kuoni.ch",
      "contact:fax": "+41 58 7026283",
      "contact:phone": "+41 58 7026272",
      "levels": "1",
      "name": "Kuoni",
      "opening_hours": "Mo-We 08:30-18:30; Th 08:30-20:00; Fr 08:30-18:30; Sa 09:00-16:00; Su off",
      "operator": "Kuoni Reisen AG",
      "shop": "travel_agency",
      "source": "survey and website",
      "website": "https://www.kuoni.ch/service/reisebueros/bern-und-solothurn/details/reisebuero-bern-baerenplatz/",
      "wheelchair": "yes"
    },
    "distance_to_station": 402.9281760420047
  },
  {
    "feature_type": "shops",
    "lat": 46.9476873,
    "lon": 7.4434049,
    "tags": {
      "brand": "Bernmobil",
      "contact:addr": "B\u00e4renplatz 8, 3011 Bern",
      "contact:email": "kundendienst@bernmobil.ch",
      "contact:facebook": "http://www.facebook.com/bernmobil",
      "contact:fax": "+41 31 3218618",
      "contact:phone": "+41 31 3218844",
      "description": "de:Kundendienst, Fundb\u00fcro und Besuchercenter",
      "name": "Bernmobil-Infocenter",
      "opening_hours": "Mo-Fr 08:30-18:00; Sa-Su off",
      "operator": "SVB",
      "shop": "travel_agency",
      "source": "survey and website",
      "website": "https://www.bernmobil.ch",
      "wheelchair": "yes"
    },
    "distance_to_station": 392.90618621047923
  },
  {
    "feature_type": "shops",
    "lat": 46.9470881,
    "lon": 7.4419352,
    "tags": {
      "alt_name": "Lienberger + Zuberb\u00fchler Optik",
      "contact:addr": "Gurtengasse 3, 3011 Bern",
      "contact:email": "info@l-z.ch",
      "contact:fax": "+41 31 3113318",
      "contact:phone": "+41 31 3115626",
      "name": "L+Z Optik",
      "opening_hours": "Mo 14:00-18:30; Tu-We, Fr 08:00-18:30; Th 08:00-20:00; Sa 08:00-16:00",
      "opening_hours:covid19": "Mo 14:00-18:00; Tu-Sa 09:00-15:00",
      "operator": "Lienberger & Zuberb\u00fchler AG",
      "shop": "optician",
      "source": "website and survey",
      "website": "https://www.l-z.ch/",
      "wheelchair": "yes"
    },
    "distance_to_station": 478.27870443211935
  },
  {
    "feature_type": "shops",
    "lat": 46.9481218,
    "lon": 7.4477005,
    "tags": {
      "alt_name": "Swisscom Shop Zytgloggelaube",
      "branch": "Bern Zytglogge",
      "brand": "Swisscom",
      "brand:wikidata": "Q644324",
      "check_date": "2024-05-15",
      "contact:addr": "Zytgloggelaube 6, 3011 Bern",
      "contact:fax": "+41 31 3129302",
      "contact:phone": "+41 31 3129301",
      "name": "Swisscom",
      "opening_hours": "Mo 10:00-18:30; Tu-We 09:00-18:30; Th 09:00-21:00; Fr 09:00-18:30; Sa 09:00-17:00; Su off",
      "operator": "Swisscom (Schweiz)",
      "shop": "telecommunication",
      "source": "survey and website",
      "website": "http://shoplocator.swisscom.ch",
      "wheelchair": "yes"
    },
    "distance_to_station": 215.83550022974387
  },
  {
    "feature_type": "shops",
    "lat": 46.9477969,
    "lon": 7.447325,
    "tags": {
      "addr:floor": "0",
      "contact:addr": "Theaterplatz 2, 3011 Bern",
      "contact:fax": "+41 31 3117020",
      "contact:phone": "+41 31 3117281",
      "name": "D\u00fcrr",
      "old_name": "K\u00e4gi Zigarren",
      "opening_hours": "Mo-We,Fr 09:00-18:30; Th 09:00-19:00; Sa 09:00-17:00; Su off",
      "operator": "A. D\u00fcrr & Co AG / Oettinger Davidoff AG",
      "shop": "tobacco",
      "source": "survey"
    },
    "distance_to_station": 187.05907317001706
  },
  {
    "feature_type": "shops",
    "lat": 46.9483466,
    "lon": 7.4433762,
    "tags": {
      "addr:floor": "0",
      "alt_name": "L\u00e4derach Spitalgasse",
      "branch": "Bern Spitalgasse",
      "brand": "L\u00e4derach",
      "brand:wikidata": "Q1437143",
      "contact:addr": "Spitalgasse 2, 3011 Bern",
      "contact:email": "info@laederach.ch",
      "contact:facebook": "https://www.facebook.com/LaederachChocolatier",
      "contact:phone": "+41 31 3110425",
      "craft": "confectionery",
      "name": "L\u00e4derach",
      "opening_hours": "Mo-We 09:00-19:00; Th 09:00-21:00; Fr 09:00-19:00; Sa 09:00-17:00; Su off",
      "operator": "L\u00e4derach (Schweiz)",
      "shop": "confectionery",
      "source": "survey and website",
      "toilets:wheelchair": "no",
      "website": "https://www.laderach.com/de/locations/location-details/bern-spitalgasse-bern-101",
      "wheelchair": "yes"
    },
    "distance_to_station": 430.75998823225314
  },
  {
    "feature_type": "shops",
    "lat": 46.9487045,
    "lon": 7.4428328,
    "tags": {
      "addr:city": "Bern",
      "addr:country": "CH",
      "addr:housenumber": "15",
      "addr:postcode": "3011",
      "addr:street": "Neuengasse / Spitalgass-Passage",
      "alt_name": "Villiger-K\u00fcttel Tobacco",
      "contact:email": "contact@kuettel-bern.ch",
      "contact:fax": "+41 31 3116814",
      "contact:phone": "+41 31 3116812",
      "name": "Villiger-K\u00fcttel",
      "opening_hours": "Mo-We 09:00-18:30; Th 09:00-20:00; Fr 09:00-18:30; Sa 10:00-17:00",
      "operator": "Villiger S\u00f6hne AG",
      "shop": "tobacco",
      "source": "survey and website",
      "website": "https://www.villiger-kuettel.ch/",
      "wheelchair": "yes"
    },
    "distance_to_station": 487.25664297550884
  },
  {
    "feature_type": "shops",
    "lat": 46.9480542,
    "lon": 7.4443905,
    "tags": {
      "brand": "Lush",
      "brand:wikidata": "Q1585448",
      "contact:addr": "Marktgasse 61, 3011 Bern",
      "contact:email": "bern@lush.ch",
      "contact:phone": "+41 31 3175822",
      "level": "-1",
      "name": "Lush",
      "opening_hours": "Mo-We 10:00-19:00; Th 10:00-20:00; Fr 10:00-19:00; Sa 10:00-17:00; Su off; PH off",
      "operator": "LUSH (Switzerland) AG",
      "shop": "cosmetics",
      "website": "https://www.lush.ch/",
      "wheelchair": "no"
    },
    "distance_to_station": 348.99945601571585
  },
  {
    "feature_type": "shops",
    "lat": 46.9479277,
    "lon": 7.4444922,
    "tags": {
      "alt_name": "Metro Boutique Bern",
      "check_date": "2023-09-01",
      "contact:addr": "Marktgasse 59, 3011 Bern",
      "contact:email": "bern@metroboutique.ch",
      "contact:phone": "+41 31 3100190",
      "name": "Metro",
      "opening_hours": "Mo-We 09:00-19:00; Th 09:00-21:00; Fr 09:00-20:00; Sa 09:00-17:00; Su off; PH off",
      "operator": "Metro Boutiques AG",
      "shop": "clothes",
      "source": "website and survey",
      "website": "https://www.metroboutique.ch/t/shops"
    },
    "distance_to_station": 334.52993524361045
  },
  {
    "feature_type": "shops",
    "lat": 46.9479633,
    "lon": 7.4445776,
    "tags": {
      "alt_name": "CHRIST Uhren & Schmuck",
      "brand": "Christ",
      "brand:wikidata": "Q1077957",
      "contact:addr": "Marktgasse 55, 3011 Bern",
      "contact:email": "info@christ-swiss.ch",
      "contact:phone": "+41 31 3125040",
      "name": "Christ",
      "opening_hours": "Mo-We 09:00-18:30; Th 09:00-21:00; Fr 09:00-18:30; Sa 09:00-17:00; Su off; PH off",
      "operator": "Coop-Gruppe Genossenschaft",
      "shop": "jewelry",
      "website": "https://www.christ-swiss.ch/"
    },
    "distance_to_station": 331.5691227138106
  },
  {
    "feature_type": "shops",
    "lat": 46.947807,
    "lon": 7.4468903,
    "tags": {
      "alt_name": "VISILAB Bern",
      "contact:addr": "Marktgasse 9, 3011 Bern",
      "contact:email": "bern@visilab.ch",
      "contact:fax": "+41 31 3261519",
      "contact:phone": "+41 31 3261510",
      "name": "Visilab",
      "opening_hours": "Mo-Fr 09:00-19:00; Sa 09:00-17:00; Su off",
      "operator": "VISILAB Bern AG",
      "shop": "optician",
      "source": "website and survey",
      "website": "https://www.visilab.ch/de/optiker/visilab-bern"
    },
    "distance_to_station": 200.90453954782052
  },
  {
    "feature_type": "shops",
    "lat": 46.947779,
    "lon": 7.4471296,
    "tags": {
      "alt_name": "Swarovski Boutique Bern",
      "brand": "Swarovski",
      "brand:wikidata": "Q611115",
      "check_date": "2024-05-16",
      "contact:addr": "Marktgasse 3, 3011 Bern",
      "contact:email": "bern.boutique@swarovski.com",
      "contact:fax": "+41 31 3117742",
      "contact:phone": "+41 31 3117722",
      "name": "Swarovski",
      "opening_hours": "Mo-We 09:00-18:30; Th 09:00-21:00; Fr 09:00-18:30; Sa 09:00-17:00; Su off",
      "shop": "jewelry",
      "source": "survey and website",
      "website": "http://www.swarovski.ch"
    },
    "distance_to_station": 190.40339015369292
  },
  {
    "feature_type": "shops",
    "lat": 46.9478462,
    "lon": 7.4492234,
    "tags": {
      "alt_name": "MAX&MOI",
      "branch": "& MOI",
      "brand": "Max",
      "brand:wikidata": "Q24939079",
      "contact:addr": "Kramgasse 63, 3011 Bern",
      "contact:phone": "+41 31 3114990",
      "name": "Max",
      "operator": "Tonja D. SA",
      "shop": "clothes",
      "source": "website and survey",
      "website": "https://www.maxemoi.com"
    },
    "distance_to_station": 201.93852991966816
  },
  {
    "feature_type": "shops",
    "lat": 46.947483,
    "lon": 7.4476572,
    "tags": {
      "addr:city": "Bern",
      "addr:housenumber": "7",
      "addr:place": "Theaterplatz",
      "addr:postcode": "3011",
      "contact:email": "bern@schlossberg.ch",
      "name": "Schlossberg Boutique Bern",
      "operator": "Schlossberg Switzerland AG",
      "shop": "fabric",
      "website": "https://www.schlossberg.ch/"
    },
    "distance_to_station": 146.5694135874183
  },
  {
    "feature_type": "shops",
    "lat": 46.9491652,
    "lon": 7.445223,
    "tags": {
      "alt_name": "OLMO Bern",
      "contact:addr": "Zeughausgasse 20, 3011 Bern",
      "contact:email": "info@olmo.ch",
      "contact:phone": "+41 31 3131031",
      "contact:website": "https://www.olmo.ch/kontaktformular.html",
      "name": "OLMO",
      "opening_hours": "Mo-We 09:30-18:30; Th 09:30-21:00; Fr 09:30-18:30; Sa 09:00-17:00; Su off",
      "operator": "OLMO AG",
      "shop": "clothes",
      "source": "website and survey",
      "website": "https://www.olmo.ch"
    },
    "distance_to_station": 395.4824464630479
  },
  {
    "feature_type": "shops",
    "lat": 46.9491661,
    "lon": 7.4456026,
    "tags": {
      "alt_name": "OLMO Shoes Bern",
      "check_date": "2024-05-15",
      "contact:addr": "Zeughausgasse 14, 3011 Bern",
      "contact:email": "shoes@olmo.ch",
      "contact:phone": "+41 31 3188458",
      "contact:website": "https://www.olmo.ch/kontaktformular.html",
      "name": "OLMO Shoes",
      "opening_hours": "Mo-We 09:30-18:30; Th 09:30-21:00; Fr 09:30-18:30; Sa 09:00-17:00; Su off; PH off",
      "operator": "OLMO Shoes AG",
      "shop": "shoes",
      "source": "website and survey",
      "website": "https://www.olmo.ch/2012-10-08-13-40-20/olmo-shoes.html"
    },
    "distance_to_station": 380.41665188290284
  },
  {
    "feature_type": "shops",
    "lat": 46.9476973,
    "lon": 7.4501221,
    "tags": {
      "contact:addr": "Kramgasse 45 / M\u00fcnstergasse 40, 3011 Bern",
      "contact:email": "laden@muensterkellerei.ch",
      "contact:fax": "+41 31 3118117",
      "contact:phone": "+41 31 3121717",
      "name": "M\u00fcnsterkellerei",
      "opening_hours": "Su,Mo off, Tu,Th,Fr 09:00-12:30, Tu,We,Fr 13:00-18:30, We 09:30-12:30,13:00-18:30, Sa 09:00-17:00",
      "shop": "alcohol",
      "source": "website and survey",
      "website": "http://muensterkellerei.ch/unternehmen/standorte/"
    },
    "distance_to_station": 226.45346493090523
  },
  {
    "feature_type": "shops",
    "lat": 46.9470144,
    "lon": 7.4470538,
    "tags": {
      "brand": "Fust",
      "brand:wikidata": "Q1227164",
      "contact:addr": "M\u00fcnzgraben 4-6, 3011 Bern",
      "contact:email": "185@fust.ch",
      "contact:fax": "+41 31 3109498",
      "contact:phone": "+41 31 3109494",
      "name": "Fust",
      "opening_hours": "Mo-We 09:00-18:30; Th 09:00-20:00; Fr 09:00-18:30; Sa 09:00-16:00; Su off",
      "operator": "Dipl. Ing. Fust AG",
      "shop": "electronics",
      "source": "website and survey",
      "website": "https://www.fust.ch/de/filialensuche.html",
      "wheelchair": "yes"
    },
    "distance_to_station": 120.44811349113421
  },
  {
    "feature_type": "shops",
    "lat": 46.9489106,
    "lon": 7.4440603,
    "tags": {
      "addr:floor": "0",
      "alt_name": "k kiosk Waisenhausplatz",
      "brand": "k kiosk",
      "brand:wikidata": "Q60381703",
      "cash_withdrawal": "yes",
      "cash_withdrawal:fee": "no",
      "cash_withdrawal:operator": "sonect",
      "cash_withdrawal:purchase_required": "no",
      "cash_withdrawal:type": "checkout",
      "check_date": "2025-06-05",
      "contact:addr": "Waisenhausplatz 19, 3011 Bern",
      "contact:phone": "+41 31 3113615",
      "name": "k kiosk",
      "opening_hours": "Mo-Sa",
      "owner": "Valora Schweiz AG",
      "shop": "newsagent",
      "source": "survey",
      "website": "https://www.kkiosk.ch/de/agenturen"
    },
    "distance_to_station": 429.9759628762625
  },
  {
    "feature_type": "shops",
    "lat": 46.9490728,
    "lon": 7.4436842,
    "tags": {
      "addr:floor": "0",
      "contact:addr": "Waisenhausplatz 14, 3011 Bern",
      "contact:fax": "+41 31 3105070",
      "contact:phone": "+41 31 3105060",
      "name": "Grieder",
      "opening_hours": "Mo-We 09:30-18:30; Th 09:30-20:00; Fr 09:30-18:30; Sa 09:30-17:00; Su off",
      "operator": "BRUNSCHWIG & CIE SA",
      "shop": "clothes",
      "source": "website and survey",
      "website": "https://stores.bongenie-grieder.ch/de/die-geschafte/bern/"
    },
    "distance_to_station": 463.03445044527535
  },
  {
    "feature_type": "shops",
    "lat": 46.9492693,
    "lon": 7.4449293,
    "tags": {
      "alt_name": "Briefmarken Zumstein",
      "contact:addr": "Zeughausgasse 24, 3011 Bern",
      "contact:email": "post_zumstein@briefmarken.ch",
      "contact:fax": "+41 31 3122326",
      "contact:phone": "+41 31 3120055",
      "name": "Zumstein",
      "opening_hours": "Mo 14:00-18:30; Tu-Fr 08:30-12:15,13:30-18:30; Sa 08:30-12:30; Su,PH off",
      "operator": "Zumstein & Cie. Inhaber Hertsch & Co.",
      "shop": "stamps collections",
      "website": "https://www.briefmarken.ch"
    },
    "distance_to_station": 417.6221201344023
  },
  {
    "feature_type": "shops",
    "lat": 46.9477948,
    "lon": 7.4476127,
    "tags": {
      "addr:city": "Bern",
      "addr:housenumber": "19",
      "addr:postcode": "3011",
      "addr:street": "Kramgasse",
      "name": "Zytglogge UhRSACHEN",
      "opening_hours": "Tu-Fr 10:00-18:30, Sa 10:00-17:00, PH off",
      "operator": "MAEGLI \u2013 tick different AG",
      "phone": "+41 31 318 01 18",
      "shop": "watches"
    },
    "distance_to_station": 181.15065108122081
  },
  {
    "feature_type": "shops",
    "lat": 46.9472681,
    "lon": 7.4422808,
    "tags": {
      "addr:city": "Bern",
      "addr:housenumber": "27",
      "addr:postcode": "3011",
      "addr:street": "Schauplatzgasse",
      "alt_name": "Vinoth\u00e8que La passion du vin",
      "currency:CHF": "yes",
      "email": "berne@passionduvin.ch",
      "name": "La passion du vin",
      "opening_hours": "Mo 10:00-20:00; Tu-Fr 10:00-22:00; Sa 09:00-18:00",
      "payment:account_cards": "yes",
      "payment:app": "yes",
      "payment:apple_pay": "yes",
      "payment:cards": "yes",
      "payment:cash": "yes",
      "payment:contactless": "yes",
      "payment:credit_cards": "yes",
      "payment:debit_cards": "yes",
      "payment:maestro": "yes",
      "payment:mastercard": "yes",
      "payment:mastercard_contactless": "yes",
      "payment:v_pay": "yes",
      "payment:visa": "yes",
      "payment:visa_debit": "yes",
      "phone": "+41 31 312 70 40",
      "ref:vatin": "CHE-104.662.838",
      "shop": "wine",
      "toilets": "yes",
      "website": "https://www.passionduvin.ch/",
      "wheelchair": "yes"
    },
    "distance_to_station": 457.42494988657836
  },
  {
    "feature_type": "shops",
    "lat": 46.9472694,
    "lon": 7.4422082,
    "tags": {
      "contact:addr": "Schauplatzgasse 29, 3011 Bern",
      "contact:email": "kontakt@storchenbaeckerei.ch",
      "contact:fax": "+41 31 8628889",
      "contact:phone": "+41 31 8628888",
      "name": "Storchenb\u00e4ckerei",
      "opening_hours": "Mo-We 05:30-19:00; Th 05:30-20:00; Fr 05:30-19:00; Sa 05:30-17:00; Su off",
      "shop": "bakery",
      "source": "survey and website",
      "website": "https://storchenbaeckerei.ch/"
    },
    "distance_to_station": 462.78636335160934
  },
  {
    "feature_type": "shops",
    "lat": 46.9483158,
    "lon": 7.4443493,
    "tags": {
      "check_date": "2022-12-23",
      "name": "Rework",
      "opening_hours": "Mo-Fr 10:00-19:00; Sa 09:00-18:00",
      "second_hand": "only",
      "shop": "clothes",
      "website": "https://www.rework.ch/pages/stores"
    },
    "distance_to_station": 369.3403641900114
  },
  {
    "feature_type": "shops",
    "lat": 46.9486937,
    "lon": 7.4431939,
    "tags": {
      "alt_name": "Schl\u00fcssel Bern",
      "contact:addr": "Neuengasse 5, 3011 Bern",
      "contact:email": "info@schluessel-bern.ch",
      "contact:fax": "+41 31 3121317",
      "contact:phone": "+41 31 3121315",
      "name": "Swiss-Knife Shop",
      "opening_hours": "Mo-Fr 08:00-18:30; Sa 08:00-16:00; Su off",
      "operator": "Schl\u00fcssel Bern Sicherheits - und Schliesstechnik AG",
      "shop": "doityourself",
      "source": "survey and website",
      "website": "http://www.swiss-knifeshop.ch"
    },
    "distance_to_station": 464.30986577275314
  },
  {
    "feature_type": "shops",
    "lat": 46.947036,
    "lon": 7.4475673,
    "tags": {
      "alt_name": "Foto Video Zumstein",
      "check_date:opening_hours": "2023-01-09",
      "contact:addr": "Casinoplatz 8, 3011 Bern",
      "contact:email": "info@foto-zumstein.ch",
      "contact:facebook": "https://www.facebook.com/fotozumstein",
      "contact:fax": "+41 31 3122714",
      "contact:phone": "+41 31 3109080",
      "name": "Photo Vision Zumstein",
      "opening_hours": "Mo-We 09:00-18:30; Th 09:00-20:00; Fr 09:00-18:30; Sa 09:00-17:00; Su off",
      "operator": "Photo Vision Zumstein AG",
      "payment:cards": "yes",
      "payment:coins": "yes",
      "payment:credit_cards": "yes",
      "payment:cryptocurrencies": "yes",
      "shop": "photo",
      "source": "survey and website",
      "website": "https://foto-zumstein.ch"
    },
    "distance_to_station": 101.37337406236804
  },
  {
    "feature_type": "shops",
    "lat": 46.9469456,
    "lon": 7.4476263,
    "tags": {
      "alt_name": "Le Couturier de la Fourrure Max D\u00f6ssegger",
      "branch": "D\u00f6ssegger",
      "brand": "Max",
      "brand:wikidata": "Q24939079",
      "check_date:opening_hours": "2023-01-09",
      "contact:addr": "Casinoplatz 8, 3011 Bern",
      "contact:email": "info@pelze-doessegger.ch",
      "contact:fax": "+41 31 3114658",
      "contact:phone": "+41 31 3110077",
      "name": "Max",
      "opening_hours": "Mo-Fr 08:00-12:00,14:00-18:00; Sa 09:00-15:00",
      "opening_hours:signed": "no",
      "shop": "clothes",
      "source": "survey and website",
      "website": "http://www.pelze-doessegger.ch"
    },
    "distance_to_station": 90.36923013676916
  },
  {
    "feature_type": "shops",
    "lat": 46.9469822,
    "lon": 7.4473924,
    "tags": {
      "contact:addr": "Casinoplatz 8, 3011 Bern",
      "contact:email": "schaad.bern@modebayard.ch",
      "contact:fax": "+41 31 5067921",
      "contact:phone": "+41 31 5067920",
      "name": "Schaad",
      "opening_hours": "Mo off; Tu-We 09:00-12:30, 13:45-18:30; Th 09:00-12:30, 13:45-20:00; Fr 09:00-12:30, 13:45-18:30; Sa 09:00-16:00; Su off",
      "shop": "clothes",
      "source": "survey and website",
      "website": "https://www.modebayard.ch/nc/filialen/standorte/detail/store/schaad-1.html"
    },
    "distance_to_station": 102.22605595013981
  },
  {
    "feature_type": "shops",
    "lat": 46.9479289,
    "lon": 7.4526287,
    "tags": {
      "contact:addr": "Gerechtigkeitsgasse 79, 3011 Bern",
      "contact:email": "shop.bern@studiorundholz.de",
      "contact:phone": "+41 31 3112640",
      "name": "Rundholz",
      "opening_hours": "Mo off; Tu-Fr 10:00-18:30; Sa 10:00-16:00; Su off",
      "shop": "clothes",
      "source": "survey",
      "website": "https://studiorundholz.de/shopbern.htm"
    },
    "distance_to_station": 393.87557260856784
  },
  {
    "feature_type": "shops",
    "lat": 46.9478362,
    "lon": 7.4485339,
    "tags": {
      "brand": "Vivobarefoot;Groundies;Koel",
      "contact:addr": "Kramgasse 79, 3011 Bern",
      "name": "Reyoli",
      "shop": "shoes",
      "website": "https://www.reyoli.ch/"
    },
    "distance_to_station": 184.89453576741786
  },
  {
    "feature_type": "shops",
    "lat": 46.9485055,
    "lon": 7.4439145,
    "tags": {
      "brand": "Mobilezone",
      "brand:wikidata": "Q1680518",
      "contact:addr": "Waaghaus-Passage 8, 3011 Bern",
      "contact:email": "be.waaghaus@mobilezone.ch",
      "contact:fax": "+41 31 3184455",
      "contact:phone": "+41 31 3188866",
      "name": "Mobilezone",
      "opening_hours": "Mo-We 09:00-19:00; Th 09:00-21:00; Fr 09:00-19:00; Sa 09:00-17:00; Su off",
      "operator": "mobilezone ag",
      "shop": "mobile_phone",
      "source": "survey and website",
      "website": "https://www.mobilezone.ch/uber-uns/wer-wir-sind/standorte"
    },
    "distance_to_station": 408.2471876347466
  },
  {
    "feature_type": "shops",
    "lat": 46.9484911,
    "lon": 7.4440533,
    "tags": {
      "beauty": "nails",
      "name": "Nails Bar",
      "opening_hours": "Mo-Su,PH 10:30-20:00",
      "shop": "beauty"
    },
    "distance_to_station": 399.0780312218194
  },
  {
    "feature_type": "shops",
    "lat": 46.9481729,
    "lon": 7.4483559,
    "tags": {
      "alt_name": "R\u00fcthy Goldschmiede",
      "check_date": "2024-05-16",
      "contact:addr": "Kramgasse 82, 3011 Bern",
      "contact:email": "info@ruethy.ch",
      "contact:fax": "+41 31 3111692",
      "contact:phone": "+41 31 3114535",
      "craft": "jeweller",
      "name": "Ruethy",
      "opening_hours": "Mo off; Tu-Fr 09:00-12:00, 13:30-18:30; Sa 10:00-16:00; Su off",
      "operator": "R\u00fcthy Goldschmiede GmbH",
      "shop": "jewelry",
      "source": "survey and website",
      "website": "https://www.ruethy.ch/"
    },
    "distance_to_station": 220.23482416099952
  },
  {
    "feature_type": "shops",
    "lat": 46.9481371,
    "lon": 7.4484285,
    "tags": {
      "alt_name": "Ingredienza der Laden",
      "contact:addr": "Kramgasse 80, 3011 Bern",
      "contact:email": "info@ingredienzabern.ch",
      "contact:fax": "+41 31 3129922",
      "contact:phone": "+41 31 3129922",
      "craft": "pastamaker",
      "description": "de:Italienische Delikatessen und Spezialit\u00e4ten sowie hausgemachte Teigwaren",
      "name": "Ingredienza",
      "opening_hours": "Mo off; Tu-Fr 09:30-19:00; Sa 08:00-17:00; Su off",
      "operator": "Ingredienza GmbH",
      "organic": "yes",
      "shop": "deli",
      "source": "survey and website",
      "website": "https://www.ingredienzabern.ch/"
    },
    "distance_to_station": 216.83432701804944
  },
  {
    "feature_type": "shops",
    "lat": 46.9481711,
    "lon": 7.4485093,
    "tags": {
      "alt_name": "Mammut Store Bern",
      "check_date": "2025-07-17",
      "contact:addr": "Kramgasse 78, 3011 Bern",
      "contact:email": "bern@mammutstore.ch",
      "contact:fax": "+41 31 3117407",
      "contact:phone": "+41 31 3014242",
      "name": "Mammut",
      "opening_hours": "Mo 12:00-18:30; Tu-We 09:30-18:30; Th 09:30-20:00; Fr 09:30-18:30; Sa 09:00-17:00; Su off",
      "shop": "outdoor",
      "source": "survey and website",
      "website": "http://www.mammut.ch/"
    },
    "distance_to_station": 221.36755377613216
  },
  {
    "feature_type": "shops",
    "lat": 46.9478552,
    "lon": 7.4489936,
    "tags": {
      "addr:floor": "0",
      "alt_name": "St\u00e4hli Goldschmied",
      "contact:addr": "Kramgasse 67, 3011 Bern",
      "contact:email": "info@staehli-goldschmied.ch",
      "contact:facebook": "https://www.facebook.com/pages/St\u00e4hli-Goldschmied-Schmuck-Uhren/161641960588027",
      "contact:fax": "+41 31 3113907",
      "contact:phone": "+41 31 3119545",
      "craft": "jeweller",
      "name": "St\u00e4hli",
      "opening_hours": "Mo 12:15-18:30; Tu-We 09:15-18:30; Th 09:15-19:30; Fr 09:15-18:30; Sa 09:15-16:15; Su off",
      "shop": "jewelry",
      "source": "survey and website",
      "website": "https://www.staehli-goldschmied.ch/"
    },
    "distance_to_station": 196.15216951511854
  },
  {
    "feature_type": "shops",
    "lat": 46.9480337,
    "lon": 7.4471837,
    "tags": {
      "contact:addr": "Marktgasse 2, 3011 Bern",
      "contact:email": "bern@bucherer.com",
      "contact:fax": "+41 31 3289095",
      "contact:phone": "+41 31 3289090",
      "description": "de:Schmuck und Uhren",
      "description:en": "Jewelry and watches",
      "name": "Bucherer",
      "note": "Marktgasse 2 doesn't exist officially and is used by Bucherer only Official house address is Kornhausplatz 2",
      "opening_hours": "Mo-Fr 09:30-18:30; Sa 09:00-17:00; Su off",
      "operator": "Bucherer AG",
      "shop": "jewelry",
      "source": "survey and website",
      "website": "https://bucherer.com/de/standorte/bern-marktgasse"
    },
    "distance_to_station": 215.43561991368142
  },
  {
    "feature_type": "shops",
    "lat": 46.9482888,
    "lon": 7.442322,
    "tags": {
      "addr:floor": "-1",
      "alt_name": "Goldschmiedeatelier Trudi Ch\u00e8vre",
      "contact:addr": "Spitalgasse 26, 3011 Bern",
      "contact:email": "info@trudi-chevre.ch",
      "contact:fax": "+41 31 3117480",
      "contact:phone": "+41 31 3112008",
      "contact:website": "http://www.trudi-chevre.ch/kontakt.html",
      "craft": "jeweller",
      "name": "Trudi Ch\u00e8vre",
      "opening_hours": "Mo off; Tu-We 08:30-18:30; Th 08:30-20:00; Fr 08:30-18:30; Sa 08:30-16:00; Su off",
      "shop": "jewelry",
      "source": "survey and website",
      "website": "http://www.trudi-chevre.ch"
    },
    "distance_to_station": 496.30787026497114
  },
  {
    "feature_type": "shops",
    "lat": 46.9482487,
    "lon": 7.4428084,
    "tags": {
      "brand": "Patek Philippe;Rolex;Jaeger-LeCoultre;Longines;Certina;Wellendorff;Frieden;Meister;Diadoro;Ole Lynggaard Copenhagen",
      "contact:addr": "Spitalgasse 14, 3011 Bern",
      "contact:email": "info@zigerli-iff.ch",
      "contact:fax": "+41 31 3122387",
      "contact:phone": "+41 31 3112367",
      "craft": "jeweller",
      "description": "de:Schmuck und Uhren",
      "description:en": "Jewelry and watches",
      "name": "Zigerli+Iff",
      "opening_hours": "Mo 10:00-18:30; Tu-We 09:00-18:30; Th 09:00-20:00; Fr 09:00-18:30; Sa 09:00-17:00; Su off",
      "operator": "Zigerli+Iff AG",
      "shop": "jewelry",
      "source": "survey and website",
      "website": "https://www.zigerli-iff.ch/"
    },
    "distance_to_station": 461.7842595293973
  },
  {
    "feature_type": "shops",
    "lat": 46.9475607,
    "lon": 7.442153,
    "tags": {
      "addr:floor": "2",
      "alt_name": "Heads Coiffure",
      "check_date:opening_hours": "2023-09-21",
      "contact:addr": "Storcheng\u00e4sschen 6, 3011 Bern",
      "contact:email": "contact@headscoiffure.ch",
      "contact:phone": "+41 31 3121767",
      "contact:website": "http://www.headscoiffure.ch/pages/kontakt.php",
      "female": "yes",
      "name": "Heads",
      "opening_hours": "Mo off; Tu-Fr 08:00-18:30; Sa 08:00-13:00; Su off",
      "shop": "hairdresser",
      "source": "survey and website",
      "website": "https://www.headscoiffure.ch"
    },
    "distance_to_station": 476.1180342417014
  },
  {
    "feature_type": "shops",
    "lat": 46.9481603,
    "lon": 7.4422295,
    "tags": {
      "brand": "Calzedonia",
      "brand:wikidata": "Q1027874",
      "contact:addr": "Spitalgasse 28, 3011 Bern",
      "contact:email": "bern3@companys.ch",
      "contact:fax": "+41 31 3030001",
      "contact:phone": "+41 31 3030000",
      "levels": "1",
      "name": "Calzedonia",
      "opening_hours": "Mo-We 09:00-19:00; Th 09:00-21:00; Fr 09:00-20:00; Sa 09:00-17:00; Su off",
      "operator": "Companys AG",
      "shop": "clothes",
      "source": "survey and website",
      "website": "https://www.companys.ch/site/#/article/548",
      "wheelchair": "yes"
    },
    "distance_to_station": 496.0821266372389
  },
  {
    "feature_type": "shops",
    "lat": 46.9481233,
    "lon": 7.4538698,
    "tags": {
      "alt_name": "Duo Hairstyling",
      "contact:addr": "Gerechtigkeitsgasse 45, 3011 Bern",
      "contact:phone": "+41 31 3115177",
      "name": "Duo",
      "opening_hours": "Mo off; Tu-Fr 08:30-18:30; Sa 08:00-14:00; Su off",
      "operator": "Monika Schmutz Badertscher & Murielle Messerli",
      "shop": "hairdresser",
      "source": "survey and website",
      "website": "http://www.duohairstyling.ch"
    },
    "distance_to_station": 487.40796080053957
  },
  {
    "feature_type": "shops",
    "lat": 46.9484016,
    "lon": 7.4481374,
    "tags": {
      "alt_name": "Coiffure Studio 7",
      "contact:addr": "Zibeleg\u00e4ssli 18, 3011 Bern",
      "contact:email": "info@studio7.ch",
      "contact:facebook": "https://www.facebook.com/pages/Coiffure-Studio-7-GmbH/152744934754842",
      "contact:phone": "+41 31 3111365",
      "female": "yes",
      "male": "yes",
      "name": "Studio 7",
      "opening_hours": "Mo off; Tu-We 08:30-18:30; Tu 08:30-21:00; Fr 08:30-19:00; Sa 10:00-16:00; Su off",
      "operator": "Coiffure Studio 7 GmbH",
      "shop": "hairdresser",
      "source": "survey and website",
      "website": "https://www.studio7.ch/"
    },
    "distance_to_station": 244.82321193818868
  },
  {
    "feature_type": "shops",
    "lat": 46.9475834,
    "lon": 7.4507784,
    "tags": {
      "alt_name": "Goldschmiedeatelier PUNCTUM AUREUM",
      "check_date": "2025-07-20",
      "contact:addr": "M\u00fcnstergasse 30, 3011 Bern",
      "contact:email": "info@punctum-aureum.ch",
      "contact:fax": "+41 31 3112502",
      "contact:phone": "+41 31 3111137",
      "craft": "jeweller",
      "name": "Punctum Aureum",
      "opening_hours": "Mo off; Tu-Fr 09:00-18:00; Sa 10:00-16:00; Su off",
      "operator": "PUNCTUM AUREUM GmbH",
      "shop": "jewelry",
      "source": "survey and website",
      "website": "https://www.punctum-aureum.ch/"
    },
    "distance_to_station": 254.95258552031905
  },
  {
    "feature_type": "shops",
    "lat": 46.9475729,
    "lon": 7.4484987,
    "tags": {
      "alt_name": "Mediterrane Blumen Melanie JeanRichard",
      "check_date:opening_hours": "2023-01-09",
      "contact:addr": "M\u00fcnstergasse 72, 3011 Bern",
      "contact:email": "blumen@jeanrichard.ch",
      "contact:facebook": "https://www.facebook.com/mediterrane.blumen",
      "contact:instagram": "https://www.instagram.com/mjr_mediterrane_blumen/",
      "contact:phone": "+41 31 311 46 79",
      "name": "Melanie JeanRichard",
      "opening_hours": "Mo-Fr 09:00-18:30; Sa 09:00-16:30; Su off; PH off",
      "shop": "florist",
      "source": "survey and website",
      "website": "https://melaniejeanrichard.ch",
      "wheelchair": "yes"
    },
    "distance_to_station": 155.63071537089894
  },
  {
    "feature_type": "shops",
    "lat": 46.9477635,
    "lon": 7.451161,
    "tags": {
      "brand": "uhrsachen",
      "contact:addr": "Kramgasse 19, 3011 Bern",
      "contact:email": "info@uhrsachen.ch",
      "contact:fax": "+41 31 3180112",
      "contact:phone": "+41 31 3180118",
      "contact:website": "https://www.uhrsachen.ch/kontakt/",
      "name": "Uhrsachen",
      "opening_hours": "Mo off; Tu-Fr 11:00-18:30; Sa 10:00-17:00; Su off; PH off",
      "shop": "watches",
      "source": "survey and website",
      "url": "https://www.uhrsachen.ch/marken",
      "website": "https://www.uhrsachen.ch"
    },
    "distance_to_station": 290.2005032612172
  },
  {
    "feature_type": "shops",
    "lat": 46.9481251,
    "lon": 7.4540145,
    "tags": {
      "alt_name": "LOVELAND MEDIA",
      "contact:addr": "Gerechtigkeitsgasse 41, 3011 Bern",
      "name": "MrLove",
      "phone": "+41 31 301 28 28",
      "shop": "erotic",
      "website": "https://mrlove.ch"
    },
    "distance_to_station": 497.387740200468
  },
  {
    "feature_type": "shops",
    "lat": 46.9479668,
    "lon": 7.4529207,
    "tags": {
      "alt_name": "Kinderm\u00f6bel",
      "contact:addr": "Gerechtigkeitsgasse 69, 3011 Bern",
      "contact:email": "info@u-tiger.ch",
      "contact:facebook": "https://www.facebook.com/pages/U-Tiger-Kinderm%C3%B6bel/300222930065087",
      "contact:fax": "+41 31 3279097",
      "contact:phone": "+41 31 3279091",
      "name": "U-Tiger",
      "opening_hours": "Mo off; Tu-Fr 09:30-18:30; Sa 09:00-16:00; Su off",
      "shop": "furniture",
      "source": "survey and website",
      "website": "https://www.u-tiger.ch/"
    },
    "distance_to_station": 415.3398886868342
  },
  {
    "feature_type": "shops",
    "lat": 46.9475751,
    "lon": 7.451157,
    "tags": {
      "alt_name": "Salon de Coiffure Blond",
      "check_date": "2025-07-20",
      "contact:addr": "M\u00fcnstergasse 22, 3011 Bern",
      "contact:email": "mail@blond.ch",
      "contact:facebook": "https://www.facebook.com/pages/Blond-Salon-de-Coiffure/143103732404157",
      "contact:phone": "+41 31 3118515",
      "name": "Blond",
      "opening_hours": "Mo 10:00-18:30; Tu 09:00-18:30; We-Th 09:00-21:00; Fr 09:00-18:30; Sa 09:00-16:00; Su off",
      "shop": "hairdresser",
      "source": "survey and website",
      "website": "https://www.blond.ch"
    },
    "distance_to_station": 277.90326452601795
  },
  {
    "feature_type": "shops",
    "lat": 46.948752,
    "lon": 7.4431346,
    "tags": {
      "addr:floor": "1",
      "alt_name": "Coiffeursalon Voguehair",
      "contact:addr": "Neuengasse 7, 3011 Bern",
      "contact:email": "info@voguehair.ch",
      "contact:phone": "+41 31 3120366",
      "name": "Voguehair",
      "opening_hours": "Mo off; Tu-Fr 09:00-18:30; Sa 09:00-15:30; Su off",
      "operator": "VOGUE PROFESSIONAL HAIRSTYLING Mantarelli Luca (Einzelunternehmen)",
      "shop": "hairdresser",
      "source": "survey and website",
      "website": "https://www.voguehair.ch/salons/bern1/"
    },
    "distance_to_station": 471.7983961125078
  },
  {
    "feature_type": "shops",
    "lat": 46.9488015,
    "lon": 7.4453011,
    "tags": {
      "check_date": "2024-05-15",
      "contact:addr": "Zeughausgasse 29, 3011 Bern",
      "contact:mobile": "+41 79 6634554",
      "name": "Swiss Design Market",
      "opening_hours": "Mo-Fr 10:00-18:30; Sa 10:00-16:00; Su,PH off",
      "shop": "interior_decoration",
      "website": "https://www.swissdesignmarket.ch"
    },
    "distance_to_station": 358.9143028416931
  },
  {
    "feature_type": "shops",
    "lat": 46.9477409,
    "lon": 7.4498834,
    "tags": {
      "alt_name": "Cucina",
      "contact:addr": "Kramgasse 51 / M\u00fcnstergasse 46, 3011 Bern",
      "contact:email": "iljos@iljos-cucina.ch",
      "contact:fax": "+41 31 3119011",
      "contact:phone": "+41 31 3119011",
      "name": "Iljos Cucina",
      "opening_hours": "Mo-Fr 09:00-18:30; Sa 09:00-17:00; Su off",
      "operator": "Iljos Cucina GmbH",
      "shop": "houseware",
      "source": "survey and website",
      "website": "https://www.iljos-cucina.ch/"
    },
    "distance_to_station": 218.36816659385852
  },
  {
    "feature_type": "shops",
    "lat": 46.9478405,
    "lon": 7.4497752,
    "tags": {
      "name": "Paper & Tea",
      "shop": "gift",
      "source": "survey"
    },
    "distance_to_station": 222.36477439219277
  },
  {
    "feature_type": "shops",
    "lat": 46.9481123,
    "lon": 7.4511407,
    "tags": {
      "contact:addr": "Kramgasse 20, 3011 Bern",
      "contact:email": "info@saulnier.ch",
      "contact:fax": "+41 31 3181862",
      "contact:phone": "+41 31 3112419",
      "name": "Saulnier",
      "opening_hours": "Mo off; Tu-Fr 09:00-12:30, 13:30-18:30; Sa 09:00-16:00; Su off",
      "operator": "Saulnier Optik AG",
      "shop": "optician",
      "source": "survey and website",
      "website": "http://www.saulnier.ch"
    },
    "distance_to_station": 313.8347056804412
  },
  {
    "feature_type": "shops",
    "lat": 46.9481362,
    "lon": 7.4485889,
    "tags": {
      "addr:floor": "-1",
      "alt_name": "Coiffeur Newroz",
      "contact:addr": "Kramgasse 76, 3011 Bern",
      "contact:phone": "+41 31 3110914",
      "name": "Newroz",
      "opening_hours": "Mo-Fr 09:00-19:00; Sa 09:00-17:00",
      "operator": "Majid Bakhtiar",
      "shop": "hairdresser",
      "source": "survey",
      "wheelchair": "no"
    },
    "distance_to_station": 218.47087313408332
  },
  {
    "feature_type": "shops",
    "lat": 46.9478252,
    "lon": 7.4488382,
    "tags": {
      "contact:addr": "Kramgasse 71, 3011 Bern",
      "contact:email": "bern.kramgasse@kochoptik.ch",
      "contact:fax": "+41 31 3125341",
      "contact:phone": "+41 31 3112320",
      "name": "Kochoptik",
      "old_name": "MARTIN Optik",
      "opening_hours": "Mo-We 08:30-18:30; Th 08:30-19:00; Fr 08:30-18:30; Sa 08:30-16:00; Su off",
      "operator": "'MARTIN' Optik AG",
      "shop": "optician",
      "source": "survey and website",
      "website": "https://kochoptik.ch/filiale/items/bern-kramgasse.html"
    },
    "distance_to_station": 189.2026983239811
  },
  {
    "feature_type": "shops",
    "lat": 46.9445566,
    "lon": 7.4436604,
    "tags": {
      "alt_name": "Coiffeur Haarbijou",
      "contact:addr": "Br\u00fcckenstrasse 13, 3005 Bern",
      "contact:phone": "+41 31 3113660",
      "name": "Haar Bijou",
      "operator": "Chantal Bieri",
      "shop": "hairdresser",
      "source": "survey"
    },
    "distance_to_station": 383.37394446599
  },
  {
    "feature_type": "shops",
    "lat": 46.947845,
    "lon": 7.4515133,
    "tags": {
      "check_date": "2024-04-27",
      "email": "store@feinfracht.com",
      "name": "Feinfracht",
      "opening_hours": "Tu-Fr 11:00-18:30; Sa 10:00-16:00",
      "phone": "+41 31 311 11 55",
      "shop": "clothes",
      "website": "https://www.feinfracht.com/"
    },
    "distance_to_station": 317.1634754062906
  },
  {
    "feature_type": "shops",
    "lat": 46.9479215,
    "lon": 7.4476808,
    "tags": {
      "alt_name": "Zytglogge - Kiosk Chaudhary",
      "contact:addr": "Bim Zytglogge 5, 3011 Bern",
      "contact:phone": "+41 31 3114469",
      "name": "Chaudhary",
      "shop": "kiosk",
      "source": "survey"
    },
    "distance_to_station": 194.04898841109718
  },
  {
    "feature_type": "shops",
    "lat": 46.9479891,
    "lon": 7.4477077,
    "tags": {
      "alt_name": "k kiosk Zeitglocken",
      "brand": "k kiosk",
      "brand:wikidata": "Q60381703",
      "cash_withdrawal": "yes",
      "cash_withdrawal:fee": "no",
      "cash_withdrawal:operator": "sonect",
      "cash_withdrawal:purchase_required": "no",
      "cash_withdrawal:type": "checkout",
      "contact:addr": "Bim Zytglogge 3, 3011 Bern",
      "name": "k kiosk",
      "operator": "Valora Schweiz AG",
      "shop": "newsagent",
      "website": "https://www.kkiosk.ch/de/allover/standortsuche/"
    },
    "distance_to_station": 201.15535607467294
  },
  {
    "feature_type": "shops",
    "lat": 46.9476902,
    "lon": 7.4478824,
    "tags": {
      "addr:floor": "3",
      "contact:addr": "Hotelgasse 8, 3011 Bern",
      "contact:email": "info@medusahair.ch",
      "contact:facebook": "https://www.facebook.com/pages/medusahair/333992563154",
      "contact:phone": "+41 31 3119480",
      "name": "Medusahair",
      "opening_hours": "Mo off; Tu-We 09:00-18:30; Th 09:00-20:00; Fr 09:00-18:30; Sa 09:00-15:00; Su off",
      "operator": "Medusahair AG",
      "shop": "hairdresser",
      "source": "survey and website",
      "website": "https://www.medusahair.ch"
    },
    "distance_to_station": 166.52394156145846
  },
  {
    "feature_type": "shops",
    "lat": 46.9483173,
    "lon": 7.4439813,
    "tags": {
      "alt_name": "Brillen Fielmann",
      "brand": "Fielmann",
      "brand:wikidata": "Q457822",
      "brand:wikipedia": "de:Fielmann",
      "check_date": "2023-01-04",
      "contact:addr": "Waisenhausplatz 1, 3011 Bern",
      "email": "kundenservice@fielmann.com",
      "fax": "+41 31 310 28 51",
      "name": "Fielmann",
      "opening_hours": "Mo-Fr 08:30-19:00; Sa 08:30-17:00",
      "operator": "Fielmann AG",
      "phone": "+41 31 310 28 50",
      "shop": "optician",
      "website": "https://www.fielmann.ch/filialen/bern/3011-waisenhausplatz-1",
      "wheelchair": "yes"
    },
    "distance_to_station": 391.3795859509166
  },
  {
    "feature_type": "shops",
    "lat": 46.9478461,
    "lon": 7.4515583,
    "tags": {
      "check_date:opening_hours": "2022-03-09",
      "contact:email": "info@ds-schmuckkultur.com",
      "contact:fax": "+41 31 318 17 68",
      "contact:phone": "+41 31 318 17 67",
      "contact:website": "https://ds-schmuckkultur.com/",
      "name": "DS Schmuckkultur",
      "opening_hours": "Tu-Fr 09:30-18:30; Sa 10:00-16:00",
      "shop": "jewelry"
    },
    "distance_to_station": 320.03010003681516
  },
  {
    "feature_type": "shops",
    "lat": 46.9478639,
    "lon": 7.4518842,
    "tags": {
      "alt_name": "H\u00fcsler Nest Center Bern",
      "check_date": "2024-04-27",
      "contact:addr": "Kramgasse 7, 3011 Bern",
      "contact:email": "info@huesler-nest-center.ch",
      "contact:fax": "+41 31 3126514",
      "contact:phone": "+41 31 3126513",
      "name": "H\u00fcsler Nest",
      "opening_hours": "Mo-Fr 10:00-12:00, 13:00-18:30; Sa 10:00-16:00; Su off",
      "operator": "H\u00fcsler Nest Center GmbH",
      "shop": "furniture",
      "source": "survey and website",
      "website": "https://www.huesler-nest-center.ch/index.php?p=contact_bern"
    },
    "distance_to_station": 341.68507261428533
  },
  {
    "feature_type": "shops",
    "lat": 46.9477747,
    "lon": 7.4517468,
    "tags": {
      "addr:floor": "-1",
      "contact:addr": "Kramgasse 9, 3011 Bern",
      "contact:email": "ideale@bluewin.ch",
      "contact:mobile": "+41 76 3995567",
      "name": "Ideale",
      "shop": "clothes",
      "source": "survey and website",
      "website": "http://www.ideale.biz"
    },
    "distance_to_station": 327.55692862352316
  },
  {
    "feature_type": "shops",
    "lat": 46.9478471,
    "lon": 7.451627,
    "tags": {
      "check_date": "2024-04-27",
      "check_date:opening_hours": "2022-03-09",
      "contact:email": "info@johannkleider.ch",
      "contact:phone": "+41 31 318 25 65",
      "contact:website": "https://www.johannkleider.ch/",
      "name": "johann",
      "opening_hours": "Mo 14:00-18:30; Tu-Fr 10:00-18:30; 10:00-16:00",
      "shop": "tailor"
    },
    "distance_to_station": 324.38443248255925
  },
  {
    "feature_type": "shops",
    "lat": 46.9478217,
    "lon": 7.4517623,
    "tags": {
      "addr:floor": "0",
      "contact:addr": "Kramgasse 9, 3011 Bern",
      "contact:email": "ritschardantik@bluewin.ch",
      "contact:mobile": "+41 79 3545552",
      "contact:phone": "+41 31 3118660",
      "name": "U.+M. Ritschard",
      "opening_hours": "Mo off; Tu-Fr 10:00-12:00, 14:00-18:30; Sa 10:00-16:00; Su off",
      "shop": "antiques",
      "source": "survey and website",
      "website": "https://www.antiquitaeten-ritschard.ch/"
    },
    "distance_to_station": 331.3665549346967
  },
  {
    "feature_type": "shops",
    "lat": 46.9483825,
    "lon": 7.4495576,
    "tags": {
      "check_date": "2024-06-19",
      "name": "Street belt.ch",
      "shop": "clothes"
    },
    "distance_to_station": 266.7161103369376
  },
  {
    "feature_type": "shops",
    "lat": 46.9483826,
    "lon": 7.4494583,
    "tags": {
      "alt_name": "BlackSheep Ink",
      "contact:addr": "Rathausgasse 53, 3011 Bern",
      "contact:email": "info@blacksheepink.ch",
      "contact:facebook": "https://www.facebook.com/blacksheepink.bern",
      "contact:phone": "+41 31 3182727",
      "name": "BlackSheep",
      "opening_hours": "Mo-We 10:00-12:00, 13:00-18:30; Th 13:00-21:0; Fr 10:00-12:00, 13:00-18:30; Sa 10:00-12:00, 13:00-17:00; Su off",
      "operator": "BlackSheep Ink Ltd",
      "shop": "tattoo",
      "source": "survey and website",
      "website": "http://www.blacksheepink.ch"
    },
    "distance_to_station": 263.68853708859547
  },
  {
    "feature_type": "shops",
    "lat": 46.9481659,
    "lon": 7.4472008,
    "tags": {
      "brand": "Thomas Sabo",
      "brand:wikidata": "Q13415716",
      "check_date": "2025-07-21",
      "contact:addr": "Kornhausplatz 8, 3011 Bern",
      "contact:phone": "+41 31 3113246",
      "name": "Thomas Sabo",
      "opening_hours": "Mo-We 09:00-19:00; Th 09:00-20:00; Fr 09:00-19:00; Sa 09:00-17:00; Su off",
      "operator": "Thomas Sabo GmbH",
      "shop": "jewelry",
      "source": "survey and website",
      "website": "https://www.thomassabo.ch/"
    },
    "distance_to_station": 229.0071742894327
  },
  {
    "feature_type": "shops",
    "lat": 46.9473908,
    "lon": 7.4461761,
    "tags": {
      "check_date": "2025-07-11",
      "contact:addr": "Marktgass-Passage 3, 3011 Bern",
      "contact:email": "info@huwyler.com",
      "contact:phone": "+41 31 3119191",
      "craft": "shoemaker",
      "description": "de:Reparaturen, Massschuhe f\u00fcr Damen und Herren",
      "name": "Huwyler",
      "opening_hours": "Tu-Fr 09:15-12:45; Sa 10:00-14:00",
      "operator": "Fritz Huwyler & Co.",
      "shop": "shoes",
      "source": "survey and website",
      "website": "https://www.huwyler.com/standorte.php"
    },
    "distance_to_station": 197.13299402143596
  },
  {
    "feature_type": "shops",
    "lat": 46.9477959,
    "lon": 7.445811,
    "tags": {
      "alt_name": "Bijoux Stadelmann",
      "brand": "Albanu monaco; Baume & Mercier; Drachenfels Design; Frieden; Hermann Bauer; Henrich | Denzel; IsabellFa Jewelry; Jezler; j\u00f6rg kaiser; Kaufmann; K\u00fchnsilber",
      "contact:addr": "Marktgasse 29, 3011 Bern",
      "contact:email": "info@bijouxstadelmann.ch",
      "contact:fax": "+41 31 3118110",
      "contact:phone": "+41 31 3112457",
      "craft": "jeweller",
      "description": "de:Schmuck und Uhren",
      "name": "Stadelmann",
      "opening_hours": "Mo 10:00-18:30; Tu-We 09:00-18:30; Th 09:00-20:00; Fr 09:00-18:30; Sa 09:00-17:00; Su off",
      "operator": "Bijoux Stadelmann AG",
      "shop": "jewelry",
      "source": "survey and website",
      "website": "https://www.bijouxstadelmann.ch/"
    },
    "distance_to_station": 248.35947391309844
  },
  {
    "feature_type": "shops",
    "lat": 46.9491632,
    "lon": 7.4437237,
    "tags": {
      "alt_name": "Boutique Max Mara",
      "brand": "Max Mara",
      "brand:wikidata": "Q1151774",
      "contact:addr": "Waisenhausplatz 22, 3011 Bern",
      "contact:phone": "+41 31 3116328",
      "name": "Max Mara",
      "opening_hours": "Mo-We 09:30-18:30; Th 09:30-20:00; Fr 09:30-18:30; Sa 09:30-17:00; Su off; PH off",
      "operator": "BRUNSCHWIG & CIE SA",
      "shop": "clothes",
      "source": "survey and website",
      "website": "https://stores.bongenie-grieder.ch/de/die-gruppe/partner/max-mara/bern"
    },
    "distance_to_station": 467.89173247302597
  },
  {
    "feature_type": "shops",
    "lat": 46.9483698,
    "lon": 7.4431729,
    "tags": {
      "alt_name": "Bijoux Guggisberg",
      "contact:addr": "Spitalgasse 4, 3011 Bern",
      "contact:email": "info@bijouxguggisberg.ch",
      "contact:phone": "+41 31 3122522",
      "craft": "jeweller",
      "level": "2",
      "name": "Guggisberg",
      "operator": "Christoph Guggisberg",
      "shop": "jewelry",
      "source": "survey and website",
      "website": "http://www.bijouxguggisberg.ch"
    },
    "distance_to_station": 445.0820078569399
  },
  {
    "feature_type": "shops",
    "lat": 46.9491906,
    "lon": 7.4450558,
    "tags": {
      "alt_name": "Musik M\u00fcller",
      "check_date": "2025-07-19",
      "contact:addr": "Zeughausgasse 22, 3011 Bern",
      "contact:email": "info@musikmueller.ch",
      "contact:facebook": "https://www.facebook.com/pages/Musik-M\u00fcller-AG-Bern/154619884591660",
      "contact:fax": "+41 31 3114133",
      "contact:instagram": "https://www.instagram.com/musik_mueller_bern",
      "contact:phone": "+41 31 3114134",
      "contact:youtube": "https://www.youtube.com/channel/UC1ICQA8NjbJJKGHQXK7awTw",
      "name": "M\u00fcller",
      "opening_hours": "Mo off; Tu-We 09:00-12:30, 13:30-18:30; Th 09:00-12:30, 13:30-20:00; Fr 09:00-12:30, 13:30-18:30; Sa 09:00-17:00; Su off; PH off",
      "operator": "Musik M\u00fcller AG",
      "shop": "music",
      "source": "survey and website",
      "website": "https://www.musikmueller.ch"
    },
    "distance_to_station": 404.9462605801558
  },
  {
    "feature_type": "shops",
    "lat": 46.9478309,
    "lon": 7.4509071,
    "tags": {
      "alt_name": "B\u00fcchi Optik",
      "contact:addr": "Kramgasse 25, 3011 Bern",
      "contact:email": "info@buechioptik.ch",
      "contact:fax": "+41 31 3111845",
      "contact:phone": "+41 31 3112181",
      "name": "B\u00fcchi",
      "opening_hours": "Mo off; Tu-Fr 09:00-12:15, 13:00-18:30; Sa 09:00-16:00; Su off",
      "operator": "B\u00fcchi Optik AG",
      "shop": "optician",
      "source": "survey and website",
      "website": "https://www.buechioptik.ch/"
    },
    "distance_to_station": 279.8088535246992
  },
  {
    "feature_type": "shops",
    "lat": 46.947659,
    "lon": 7.4509308,
    "tags": {
      "contact:addr": "Kramgasse 25 / M\u00fcnstergasse 26, 3011 Bern",
      "contact:email": "info@nassrasieren.ch",
      "contact:facebook": "https://de-de.facebook.com/nassrasieren.ch",
      "contact:phone": "+41 31 3112181",
      "name": "nassrasieren.ch",
      "note": "Schaufenster und Verkaufslokal M\u00fcnstergasse 26, Ladeneingang Kramgasse 25 bei B\u00fcchi Optik",
      "opening_hours": "Mo off; Tu-Fr 09:00-12:15, 13:00-18:30; Sa 09:00-16:00; Su off",
      "operator": "B\u00fcchi Optik AG",
      "shop": "beauty",
      "source": "survey and website",
      "website": "https://www.nassrasieren.ch/"
    },
    "distance_to_station": 269.2503336423815
  },
  {
    "feature_type": "shops",
    "lat": 46.9473767,
    "lon": 7.4502229,
    "tags": {
      "contact:addr": "M\u00fcnstergasse 37, 3011 Bern",
      "contact:email": "info@bilboquet.ch",
      "contact:fax": "+41 31 3111752",
      "contact:phone": "+41 31 3113671",
      "name": "Bilboquet",
      "opening_hours": "Mo 12:00-18:30; Th-Fr 9:30-18:30; Sa 9:00-16:00; Su off; PH off",
      "operator": "Bilboquet-Der Spielzeugladen GmbH",
      "shop": "toys",
      "source": "survey and website",
      "website": "http://www.bilboquet.ch",
      "wheelchair": "no"
    },
    "distance_to_station": 207.57935866882102
  },
  {
    "feature_type": "shops",
    "lat": 46.9481825,
    "lon": 7.449427,
    "tags": {
      "contact:addr": "Kramgasse 60, 3011 Bern",
      "contact:email": "mail@blumenflair.ch",
      "contact:phone": "+41 31 3113730",
      "contact:website": "http://blumenflair.ch/kontakt/",
      "name": "flair",
      "opening_hours": "Mo-We 9:00-18:30; Th 9:00-19:00; Fr 9:00-18:30; Sa 9:00-17:00; Su off",
      "operator": "flair Blumen- und Hofboutique GmbH",
      "shop": "florist",
      "source": "survey and website",
      "website": "https://www.blumenflair.ch/",
      "wheelchair": "yes"
    },
    "distance_to_station": 242.368514003197
  },
  {
    "feature_type": "shops",
    "lat": 46.9478458,
    "lon": 7.4495625,
    "tags": {
      "alt_name": "Confiserie Eichenberger",
      "contact:addr": "Kramgasse 57, 3011 Bern",
      "contact:email": "info@confiserie-eichenberger.ch",
      "contact:phone": "+41 31 3116432",
      "craft": "confectionery",
      "indoor_seating": "yes",
      "name": "Eichenberger",
      "opening_hours": "Mo-Fr 7:30-18:30; Sa 8:00-17:00; Su 10:00-17:00",
      "outdoor_seating": "yes",
      "shop": "bakery",
      "takeaway": "yes",
      "website": "https://www.confiserie-eichenberger.ch/filialen/kramgasse",
      "wheelchair": "yes"
    },
    "distance_to_station": 214.04611753310468
  },
  {
    "feature_type": "shops",
    "lat": 46.9480598,
    "lon": 7.4433858,
    "tags": {
      "addr:city": "Bern",
      "addr:floor": "0",
      "addr:housenumber": "2",
      "addr:postcode": "3011",
      "addr:street": "B\u00e4renplatz",
      "alt_name": "Salt Store Spitalgasse",
      "branch": "Bern Spitalgasse",
      "brand": "Salt",
      "brand:wikidata": "Q17325543",
      "contact:addr": "B\u00e4renplatz 2, 3011 Bern",
      "contact:fax": "+41 31 3186511",
      "contact:phone": "+41 800 700 700",
      "levels": "1",
      "name": "Salt",
      "opening_hours": "Mo-We 09:00-19:00; Th 09:00-21:00; Fr 09:00-19:00; Sa 09:00-17:00; Su off",
      "operator": "Salt Mobile",
      "shop": "mobile_phone",
      "website": "https://www.salt.ch/"
    },
    "distance_to_station": 413.3106963282142
  },
  {
    "feature_type": "shops",
    "lat": 46.9483336,
    "lon": 7.4432918,
    "tags": {
      "addr:floor": "-1",
      "branch": "Bern Spitalgasse",
      "brand": "Coop",
      "brand:wikidata": "Q432564",
      "contact:addr": "Spitalgasse 2, 3011 Bern",
      "contact:fax": "+41 31 3100121",
      "contact:phone": "+41 31 3100120",
      "level": "-1",
      "name": "Coop",
      "opening_hours": "Mo-We 07:00-19:00; Th 07:00-21:00; Fr 07:00-19:00; Sa 07:00-17:00; Su off",
      "shop": "supermarket",
      "website": "https://www.coop.ch/",
      "wheelchair": "yes"
    },
    "distance_to_station": 435.31823023512345
  },
  {
    "feature_type": "shops",
    "lat": 46.9481336,
    "lon": 7.445456,
    "tags": {
      "brand": "Dosenbach",
      "brand:wikidata": "Q2677329",
      "check_date": "2023-08-19",
      "contact:addr": "Marktgasse 36, 3011 Bern",
      "contact:phone": "+41 31 3117988",
      "name": "Dosenbach",
      "opening_hours": "Mo-We,Fr 09:00-19:00; Th 09:00-20:00; Sa 09:00-17:00",
      "payment:american_express": "yes",
      "payment:diners_club": "yes",
      "payment:jcb": "yes",
      "payment:maestro": "yes",
      "payment:mastercard": "yes",
      "payment:postfinance_card": "yes",
      "payment:twint": "yes",
      "payment:visa": "yes",
      "shop": "shoes",
      "source": "survey and website",
      "website": "https://www.dosenbach.ch/"
    },
    "distance_to_station": 294.12652137763786
  },
  {
    "feature_type": "shops",
    "lat": 46.9481451,
    "lon": 7.4453736,
    "tags": {
      "alt_name": "United Colors of Benetton & 012",
      "brand": "United Colors of Benetton",
      "brand:wikidata": "Q817139",
      "check_date": "2022-10-21",
      "contact:addr": "Marktgasse 38, 3011 Bern",
      "contact:phone": "+41 31 3120402",
      "name": "United Colors of Benetton",
      "opening_hours": "Mo-Fr 09:30-19:00; Sa 09:00-17:00",
      "shop": "clothes",
      "short_name": "Benetton",
      "source": "survey and website",
      "website": "https://ch.benetton.com/"
    },
    "distance_to_station": 299.35237409902606
  },
  {
    "feature_type": "shops",
    "lat": 46.9479458,
    "lon": 7.4447099,
    "tags": {
      "contact:email": "info@chat-noir.ch",
      "contact:facebook": "https://www.facebook.com/ChatNoirAG",
      "contact:instagram": "https://www.instagram.com/chat_noir_bern",
      "contact:phone": "+41 313118185",
      "contact:website": "https://www.chat-noir.ch",
      "name": "Chat Noir",
      "opening_hours": "Mo 10:00-18:30; Tu,We,Fr 09:00-18:30; Th 09:00-20:00; Sa 09:00-17:00; Su,PH off",
      "shop": "gift"
    },
    "distance_to_station": 322.34928058383383
  },
  {
    "feature_type": "shops",
    "lat": 46.9430711,
    "lon": 7.4509475,
    "tags": {
      "contact:addr": "Thunstrasse 6, 3005 Bern",
      "contact:email": "chocolatemanufacture@gmail.com",
      "contact:mobile": "+41 76 4233477",
      "craft": "confectionery",
      "name": "Chocolate Manufacture",
      "opening_hours": "Mo off; Tu-Fr 10:00-17:00; Sa 09:00-15:00; Su off",
      "shop": "pastry",
      "source": "survey and website",
      "website": "https://www.chocolate-manufacture.com"
    },
    "distance_to_station": 409.60139102485516
  },
  {
    "feature_type": "shops",
    "lat": 46.9478776,
    "lon": 7.4472304,
    "tags": {
      "addr:city": "Bern",
      "addr:country": "CH",
      "addr:floor": "-1",
      "addr:housenumber": "1",
      "addr:postcode": "3011",
      "addr:street": "Marktgasse",
      "alt_name": "Caveverde",
      "contact:email": "info@caveverde.ch",
      "contact:phone": "+41 31 3115989",
      "name": "Cave Verde",
      "opening_hours": "Mo 09:00-18:30; Tu off; We-Fr 09:00-18:30; Sa 09:00-17:00; Su off; PH off",
      "operator": "Caveverde GmbH",
      "shop": "florist",
      "source": "survey and website",
      "website": "http://www.caveverde.ch"
    },
    "distance_to_station": 197.87592903887494
  },
  {
    "feature_type": "shops",
    "lat": 46.9477916,
    "lon": 7.4464392,
    "tags": {
      "brand": "Otto's",
      "brand:wikidata": "Q2041507",
      "check_date:opening_hours": "2024-02-29",
      "name": "Otto's Beauty Shop",
      "not:name": "Otto's",
      "not:shop": "variety_store",
      "opening_hours": "Mo-We,Fr 09:00-19:00; Th 09:00-20:00; Sa 09:00-18:00; Su,PH closed",
      "operator": "Otto's",
      "shop": "cosmetics"
    },
    "distance_to_station": 217.29040320302198
  },
  {
    "feature_type": "shops",
    "lat": 46.9483963,
    "lon": 7.4507479,
    "tags": {
      "alt_name": "Tredicipercento Weinkeller",
      "check_date": "2025-07-17",
      "contact:addr": "Rathausgasse 25, 3011 Bern",
      "contact:email": "info@tredicipercento.ch",
      "contact:fax": "+41 31 3118031",
      "contact:phone": "+41 31 3118031",
      "name": "Tredicipercento",
      "opening_hours": "Mo off; Tu-We 12:00-19:00; Th 12:00-21:00; Fr 12:00-19:00; Sa 09:00-17:00; Su off",
      "operator": "Tredicipercento GmbH",
      "shop": "alcohol",
      "source": "survey and website",
      "website": "https://tredicipercento.ch"
    },
    "distance_to_station": 316.29651315382364
  },
  {
    "feature_type": "shops",
    "lat": 46.9484059,
    "lon": 7.4501538,
    "tags": {
      "check_date": "2024-05-29",
      "contact:addr": "Rathausgasse 39, 3011 Bern",
      "contact:email": "info@yangdol.ch",
      "contact:facebook": "https://de-de.facebook.com/Yangdoltibet-1606682376326930/",
      "contact:phone": "+41 31 3114044",
      "internet_access": "wlan",
      "name": "Yangdol",
      "opening_hours": "Mo off; Tu-Fr 10:00-18:30; Sa 10:00-17:00; Su off; PH off",
      "operator": "Yangdol Dongtse-Tsokhim",
      "shop": "convenience",
      "source": "survey and website",
      "website": "https://www.yangdol.ch/"
    },
    "distance_to_station": 290.6379432695102
  },
  {
    "feature_type": "shops",
    "lat": 46.9478391,
    "lon": 7.4463658,
    "tags": {
      "addr:housenumber": "19",
      "addr:street": "Marktgasse",
      "contact:email": "bern@aess-bar.ch",
      "contact:facebook": "https://www.facebook.com/aessbarbern",
      "contact:phone": "+41 31 558 27 72",
      "level": "-1",
      "name": "\u00c4ss-Bar",
      "opening_hours": "Mo 11:00-18:30; Tu-Fr 09:00-18:30; Sa 09:00-17:00",
      "shop": "bakery",
      "website": "https://www.aess-bar.ch/",
      "wheelchair": "no"
    },
    "distance_to_station": 224.8298017870411
  },
  {
    "feature_type": "shops",
    "lat": 46.9489092,
    "lon": 7.4485023,
    "tags": {
      "name": "Optik am Hirschengraben",
      "shop": "optician"
    },
    "distance_to_station": 302.79320174789086
  },
  {
    "feature_type": "shops",
    "lat": 46.947547,
    "lon": 7.4485985,
    "tags": {
      "alt_name": "Mephista Rock'n'Romantic Fashion",
      "contact:addr": "M\u00fcnstergasse 70, 3011 Bern",
      "contact:facebook": "https://www.facebook.com/Mephista-1561862344038539",
      "contact:phone": "+41 31313123110",
      "contact:website": "https://www.mephista.ch/kontakt/",
      "name": "Mephista",
      "opening_hours": "Mo 13:00-18:30; Tu-Fr 11:00-18:30; Sa 11:00-17:00; Su off; PH off",
      "operator": "Undergroundfashion GmbH",
      "shop": "clothes",
      "website": "https://www.mephista.ch"
    },
    "distance_to_station": 154.48584031084212
  },
  {
    "feature_type": "shops",
    "lat": 46.9483344,
    "lon": 7.4494862,
    "tags": {
      "addr:city": "Bern",
      "addr:housenumber": "53",
      "addr:postcode": "3011",
      "addr:street": "Rathausgasse",
      "clothes": "women;underwear;men",
      "contact:facebook": "https://www.facebook.com/rootsbern",
      "contact:instagram": "https://www.instagram.com/roots.fashion",
      "description": "Ethical & sustainable fashion",
      "email": "shop@roots-fashion.ch",
      "name": "Stoor",
      "old_name": "ROOTS Fashion",
      "opening_hours": "Mo-Fr 10:00-18:30; Sa 10:00-17:00; Su off; PH off",
      "operator": "STOOR GmbH",
      "payment:cash": "yes",
      "payment:debit_cards": "yes",
      "phone": "+41 31 311 87 87",
      "shop": "clothes",
      "website": "https://www.stoor.ch"
    },
    "distance_to_station": 259.61533278962037
  },
  {
    "feature_type": "shops",
    "lat": 46.9447982,
    "lon": 7.443374,
    "tags": {
      "contact:addr": "Br\u00fcckenstrasse 14e, 3005 Bern",
      "contact:email": "info@vaglio-reisen.ch",
      "contact:fax": "+41 31 8021252",
      "contact:phone": "+41 31 8021250",
      "name": "Vaglio Reisen",
      "office": "travel_agent",
      "opening_hours": "Mo 13:30-18:30; Tu-Fr 09:30-12:30,13:30-18:30; Sa 09:30-13:30; Su off; PH off",
      "operator": "Vaglio Reisen AG",
      "shop": "travel_agency",
      "source": "Survey and website",
      "website": "https://www.vaglio-reisen.ch"
    },
    "distance_to_station": 391.15916661245217
  },
  {
    "feature_type": "shops",
    "lat": 46.9487475,
    "lon": 7.4443397,
    "tags": {
      "alt_name": "Heinzelmann Optik Bern",
      "check_date": "2022-12-23",
      "contact:addr": "Waaghausgasse 5, 3011 Bern",
      "email": "mail@heinzelmann-optik-bern.ch",
      "fax": "+41 31 311 63 89",
      "name": "Heinzelmann",
      "opening_hours": "Tu-Fr 09:00-12:30,13:30-18:30; Sa 09:00-16:00",
      "operator": "Heinzelmann Optik Bern AG",
      "phone": "+41 31 311 63 46",
      "shop": "optician",
      "website": "https://heinzelmann-optik-bern.ch"
    },
    "distance_to_station": 402.14215307173146
  },
  {
    "feature_type": "shops",
    "lat": 46.9481078,
    "lon": 7.4510247,
    "tags": {
      "addr:city": "Bern",
      "addr:housenumber": "20",
      "addr:postcode": "3011",
      "addr:street": "Kramgasse",
      "clothes": "women",
      "contact:addr": "Kramgasse 20, 3011 Bern",
      "contact:email": "info@ooonyva.ch",
      "contact:facebook": "https://de-de.facebook.com/OOOnvya",
      "contact:instagram": "https://www.instagram.com/ooonyva/",
      "contact:phone": "+41 31 3185050",
      "name": "Ooonyva",
      "opening_hours": "Mo off; Tu-We 11:00-18:30; Th 11:00-20:00; Fr 11:00-18:30; Sa 10:00-17:00; Su off; PH off",
      "payment:cash": "yes",
      "payment:credit_cards": "yes",
      "payment:debit_cards": "yes",
      "shop": "clothes",
      "website": "https://www.ooonyva.ch/"
    },
    "distance_to_station": 307.07043868236553
  },
  {
    "feature_type": "shops",
    "lat": 46.9487094,
    "lon": 7.4443361,
    "tags": {
      "check_date:opening_hours": "2021-12-01",
      "email": "info@tabakgourmet.ch",
      "name": "Tabak Gourmet & Spirituosen",
      "opening_hours": "Mo 09:30-18:30; Tu-Fr 09:00-18:30; Sa 09:00-17:00; Su,PH closed",
      "operator": "Brigitte D\u00e4twyler",
      "phone": "+41 31 311 57 53",
      "shop": "tobacco",
      "website": "https://www.tabakgourmet.ch/"
    },
    "distance_to_station": 399.364802458054
  },
  {
    "feature_type": "shops",
    "lat": 46.9475464,
    "lon": 7.4433871,
    "tags": {
      "alt_name": "Alnatura Bern B\u00e4renplatz",
      "branch": "Bern B\u00e4renplatz",
      "brand": "Alnatura",
      "brand:wikidata": "Q876811",
      "contact:addr": "B\u00e4renplatz 8, 3011 Bern",
      "contact:fax": "+41 58 5635091",
      "contact:phone": "+41 58 5635090",
      "levels": "1",
      "name": "Alnatura",
      "opening_hours": "Mo 09:00-19:00; Tu-We 08:00-19:00; Th 08:00-21:00; Fr 08:00-20:00; Sa 08:00-17:00; Su off",
      "operator": "Genossenschaft Migros Aare",
      "organic": "only",
      "shop": "supermarket",
      "website": "https://www.alnatura.ch/"
    },
    "distance_to_station": 387.8194219633633
  },
  {
    "feature_type": "shops",
    "lat": 46.9476038,
    "lon": 7.4433729,
    "tags": {
      "brand": "Denner",
      "brand:wikidata": "Q379911",
      "cash_withdrawal": "migros_bank;postfinance_card",
      "cash_withdrawal:fee": "no",
      "cash_withdrawal:purchase_required": "no",
      "cash_withdrawal:type": "checkout",
      "contact:addr": "B\u00e4renplatz 8, 3011 Bern",
      "contact:phone": "+41 31 3033790",
      "levels": "1",
      "name": "Denner Express",
      "opening_hours": "Mo 08:00-19:00; Tu-We 08:00-19:00; Th 08:00-21:00; Fr 08:00-20:00; Sa 08:00-17:00; Su off",
      "operator": "Denner AG",
      "shop": "supermarket",
      "website": "https://www.denner.ch"
    },
    "distance_to_station": 391.3157877401956
  },
  {
    "feature_type": "shops",
    "lat": 46.9477713,
    "lon": 7.4420221,
    "tags": {
      "alt_name": "Bakery Kitchen Bern",
      "contact:facebook": "backformen.chGmbh",
      "contact:phone": "+41 31 3112206",
      "level": "1",
      "name": "Bakery Kitchen",
      "opening_hours": "Mo 13:30-18:30; Tu-Fr 10:00-18:30; Sa 10:00-17:00",
      "operator": "La Grande GmbH",
      "shop": "baking_supplies",
      "website": "https://www.bakery-kitchen.ch/",
      "wheelchair": "limited"
    },
    "distance_to_station": 493.34828049999385
  },
  {
    "feature_type": "shops",
    "lat": 46.9479959,
    "lon": 7.4442634,
    "tags": {
      "brand": "Massimo Dutti",
      "brand:wikidata": "Q788231",
      "contact:addr": "Marktgasse 63-65, 3011 Bern",
      "contact:phone": "+41 31 3113693",
      "name": "Massimo Dutti",
      "old_name": "Restaurant La Vigna",
      "opening_hours": "Mo-We 09:00-18:30; Th 09:00-21:00; Fr 09:00-18:30; Sa 09:00-17:00; Su off; PH off",
      "operator": "Massimo Dutti Suisse S\u00e0rl",
      "shop": "clothes",
      "source": "website and survey",
      "website": "https://www.massimodutti.com/ch/de/store-locator.html"
    },
    "distance_to_station": 353.123556273255
  },
  {
    "feature_type": "shops",
    "lat": 46.9484987,
    "lon": 7.4455923,
    "tags": {
      "alt_name": "Umeri Schneiderei",
      "check_date": "2024-05-22",
      "contact:addr": "Zeughaus-Passage 5, 3011 Bern",
      "contact:email": "info@umeri.ch",
      "contact:facebook": "https://www.facebook.com/pages/Umeri-Schneiderei/1413575295595533",
      "contact:phone": "+41 31 3114131",
      "craft": "tailor",
      "level": "0",
      "name": "Umeri",
      "name:de": "Umeri",
      "opening_hours": "Mo-Fr 08:00-18:30; Sa 09:00-16:30",
      "shop": "tailor",
      "source": "survey and website",
      "website": "https://umeri.ch/"
    },
    "distance_to_station": 318.69972254050003
  },
  {
    "feature_type": "shops",
    "lat": 46.9485854,
    "lon": 7.4457328,
    "tags": {
      "alt_name": "Orinad Bern",
      "branch": "Bern",
      "brand": "Orinad",
      "contact:addr": "Zeughaus-Passage, 3011 Bern",
      "contact:phone": "+41 31 3126562",
      "female": "yes",
      "male": "yes",
      "name": "Orinad",
      "opening_hours": "Mo-Fr 08:30-18:30; Th 08:30-20:00; Sa 08:30-17:00; PH off",
      "operator": "Orinad Look",
      "shop": "hairdresser",
      "source": "survey and website",
      "website": "https://www.orinad.ch/stadt-bern/"
    },
    "distance_to_station": 320.3811053215564
  },
  {
    "feature_type": "shops",
    "lat": 46.948518,
    "lon": 7.4434265,
    "tags": {
      "addr:city": "Bern",
      "addr:housenumber": "6",
      "addr:postcode": "3011",
      "addr:street": "Waisenhausplatz",
      "alt_name": "Interdiscount Waisenhausplatz",
      "branch": "Bern Waisenhausplatz",
      "brand": "Interdiscount",
      "brand:wikidata": "Q1665980",
      "brand:wikipedia": "de:Interdiscount",
      "name": "Interdiscount",
      "opening_hours": "Mo-Th 09:00-19:00; Fr 09:00-20:00; Sa 09:00-17:00",
      "operator": "Coop Genossenschaft",
      "shop": "electronics",
      "website": "https://www.interdiscount.ch"
    },
    "distance_to_station": 438.51066899997664
  },
  {
    "feature_type": "shops",
    "lat": 46.9481824,
    "lon": 7.4480628,
    "tags": {
      "alt_name": "Albert Hair Design",
      "contact:addr": "Zytgloggelaube 2, 3011 Bern",
      "contact:email": "info@alberthairdesign.ch",
      "contact:facebook": "https://www.facebook.com/Albert-Hair-Design-1830521510493475/",
      "contact:instagram": "https://www.instagram.com/alberthairdesign/",
      "contact:phone": "+41 31 3111131",
      "name": "Albert",
      "opening_hours": "Mo off; Tu-Fr 09:00-18:30; Sa 09:00-16:00; Su off; PH off",
      "operator": "Albert Neziri",
      "shop": "hairdresser",
      "source": "survey and website",
      "website": "https://www.alberthairdesign.ch"
    },
    "distance_to_station": 220.45090914683556
  },
  {
    "feature_type": "shops",
    "lat": 46.9474931,
    "lon": 7.4471955,
    "tags": {
      "check_date:opening_hours": "2023-01-09",
      "contact:addr": "Theaterplatz 8, 3011 Bern",
      "contact:email": "info@decorof-bern.ch",
      "contact:fax": "+41 31 3123677",
      "contact:phone": "+41 31 3117375",
      "description": "Stoffe, Vorh\u00e4nge und Vorhangservice",
      "name": "Decorof",
      "opening_hours": "Mo off; Tu-Fr 09:00-12:30,13:30-18:30; Sa 09:00-16:00; Su off; PH off",
      "operator": "Decorof Bern AG",
      "shop": "fabric",
      "source": "survey and website",
      "website": "https://www.decorof-bern.ch/"
    },
    "distance_to_station": 159.338501071429
  },
  {
    "feature_type": "shops",
    "lat": 46.9484112,
    "lon": 7.4461786,
    "tags": {
      "addr:floor": "1",
      "contact:addr": "Sch\u00fctzeng\u00e4sschen 5, 3011 Bern",
      "contact:email": "matiaszarza@hotmail.com",
      "contact:phone": "+41 31 3110686",
      "name": "Sentidos Professional",
      "opening_hours": "Mo 12:00-19:00; Tu-We 09:00-19:00; Th 09:00-20:00; Fr 09:00-19:00; Sa 09:00-17:00; Su off; PH off",
      "operator": "Matias Zarza",
      "shop": "hairdresser",
      "source": "survey"
    },
    "distance_to_station": 285.8795171248686
  },
  {
    "feature_type": "shops",
    "lat": 46.9478605,
    "lon": 7.4491638,
    "tags": {
      "addr:city": "Bern",
      "addr:housenumber": "63",
      "addr:postcode": "3011",
      "addr:street": "Kramgasse",
      "contact:phone": "+41 31 3116517",
      "contact:website": "https://www.evas-apples.ch",
      "diet:vegan": "only",
      "diet:vegetarian": "only",
      "name": "Eva's Apples",
      "opening_hours": "Mo off; Tu-Fr 10:30-18:30; Sa 09:00-17:00; Su off; PH off",
      "organic": "only",
      "shop": "convenience"
    },
    "distance_to_station": 201.5258438653123
  },
  {
    "feature_type": "shops",
    "lat": 46.9486456,
    "lon": 7.4508918,
    "tags": {
      "check_date": "2025-07-16",
      "check_date:opening_hours": "2022-09-26",
      "contact:addr": "Rathausgasse 14, 3011 Bern",
      "contact:email": "info@ohlalastoffe.ch",
      "contact:phone": "+41 31 3113636",
      "name": "Oh La La!",
      "opening_hours": "Mo off; Tu-Fr 09:00-18:00; Sa 09:00-16:00; Su off; PH off",
      "operator": "Oh L\u00e0 L\u00e0 Stoffe GmbH",
      "shop": "fabric",
      "source": "Survey and website",
      "website": "https://www.ohlalastoffe.ch"
    },
    "distance_to_station": 344.763849224228
  },
  {
    "feature_type": "shops",
    "lat": 46.9484458,
    "lon": 7.4430191,
    "tags": {
      "brand": "Decathlon",
      "brand:wikidata": "Q509349",
      "check_date:opening_hours": "2024-02-29",
      "contact:city": "Bern",
      "contact:housenumber": "4",
      "contact:postcode": "3011",
      "contact:street": "Spitalgasse",
      "name": "Decathlon",
      "opening_hours": "Mo-We,Fr 09:00-19:00; Th 09:00-20:00; Sa 09:00-17:00; Su,PH closed",
      "opening_hours:url": "https://www.decathlon.ch/de/store-view/filiale-bern-city-0070275402754",
      "phone": "+41 31 311 82 83",
      "shop": "sports"
    },
    "distance_to_station": 459.47416916013947
  },
  {
    "feature_type": "shops",
    "lat": 46.9453089,
    "lon": 7.4435914,
    "tags": {
      "contact:addr": "Weihergasse 20, 3005 Bern",
      "contact:email": "blumenfenster@bluewin.ch",
      "contact:phone": "+41 31 5115103",
      "name": "Blumenfenster",
      "shop": "florist",
      "source": "survey"
    },
    "distance_to_station": 356.3100744629454
  },
  {
    "feature_type": "shops",
    "lat": 46.9488798,
    "lon": 7.4433495,
    "tags": {
      "brand": "Carat",
      "email": "bern@carat.ch",
      "name": "Wedding Carat",
      "opening_hours": "Mo,Su,PH closed; Tu-Fr 11:00-19:00; Sa 09:00-17:00",
      "operator": "IGS AG",
      "phone": "+41 33 748 12 77",
      "shop": "jewelry",
      "website": "https://www.carat.ch/"
    },
    "distance_to_station": 467.79192659969016
  },
  {
    "feature_type": "shops",
    "lat": 46.9483008,
    "lon": 7.4442651,
    "tags": {
      "addr:city": "Bern",
      "addr:housenumber": "60",
      "addr:postcode": "3011",
      "addr:street": "Marktgasse",
      "check_date": "2022-08-31",
      "name": "DQ Solutions Filiale Bern",
      "opening_hours": "Mo-Fr 09:00-19:00; Sa 09:00-17:00",
      "operator": "DQ Solutions",
      "payment:app": "yes",
      "payment:cards": "yes",
      "payment:cash": "yes",
      "payment:credit_cards": "yes",
      "payment:debit_cards": "yes",
      "payment:maestro": "yes",
      "payment:mastercard": "yes",
      "payment:postfinance_card": "yes",
      "payment:visa": "yes",
      "phone": "+41 31 310 29 39",
      "shop": "computer",
      "website": "https://www.dq-solutions.ch/de/standorte/-addresses/dq-solutions-store-bern",
      "wheelchair": "yes"
    },
    "distance_to_station": 373.2434862980495
  },
  {
    "feature_type": "shops",
    "lat": 46.9475157,
    "lon": 7.4459227,
    "tags": {
      "alt_name": "Electras Kaffeemaschinen",
      "contact:addr": "Amthausg\u00e4sschen 3, 3011 Bern",
      "contact:email": "info@electras.ch",
      "contact:phone": "+41 31 3114711",
      "contact:website": "https://www.electras.ch/index.php/kontakt",
      "name": "Electras",
      "opening_hours": "Mo-Fr 09:00-18:30; Sa 09:00-16:00; Su off; PH off",
      "operator": "Electras GmbH",
      "shop": "houseware",
      "website": "https://www.electras.ch"
    },
    "distance_to_station": 220.72754985155234
  },
  {
    "feature_type": "shops",
    "lat": 46.9476416,
    "lon": 7.4427729,
    "tags": {
      "contact:addr": "Spitalgasse 17-21, 3011 Bern",
      "contact:phone": "+41 58 578 40 23",
      "name": "Parfum Christian Dior",
      "shop": "cosmetics",
      "website": "https://www.dior.com/"
    },
    "distance_to_station": 434.993367134328
  },
  {
    "feature_type": "shops",
    "lat": 46.9467798,
    "lon": 7.4417224,
    "tags": {
      "name": "Domino",
      "shop": "hairdresser"
    },
    "distance_to_station": 488.4018067278409
  },
  {
    "feature_type": "shops",
    "lat": 46.9469655,
    "lon": 7.4416602,
    "tags": {
      "contact:phone": "+41 31 318 86 86",
      "contact:website": "https://kaufengold.ch/kontakt-karte/geschaft-goldankauf-bern/",
      "name": "Kaufengold.ch Bern",
      "opening_hours": "Tu-Fr 09:00-12:30,13:30-18:30; Sa 09:00-17:00",
      "shop": "jewelry"
    },
    "distance_to_station": 496.2040191685602
  },
  {
    "feature_type": "shops",
    "lat": 46.9474002,
    "lon": 7.445764,
    "tags": {
      "brand": "k kiosk",
      "brand:wikidata": "Q60381703",
      "cash_withdrawal": "yes",
      "cash_withdrawal:fee": "no",
      "cash_withdrawal:operator": "sonect",
      "cash_withdrawal:purchase_required": "no",
      "cash_withdrawal:type": "checkout",
      "name": "k kiosk",
      "operator": "Valora",
      "shop": "newsagent"
    },
    "distance_to_station": 221.93504330833292
  },
  {
    "feature_type": "shops",
    "lat": 46.9472684,
    "lon": 7.4428164,
    "tags": {
      "check_date:opening_hours": "2024-02-29",
      "email": "info@patinamoebel.ch",
      "name": "Patinam\u00f6bel",
      "opening_hours": "Tu-Fr 11:00-18:00; Sa 11:00-16:00; Mo,Su,PH closed",
      "opening_hours:url": "https://www.patinamoebel.ch/pages/kontakt",
      "phone": "+41 31 305 15 25",
      "shop": "furniture",
      "website": "https://www.patinamoebel.ch/"
    },
    "distance_to_station": 418.3044448613211
  },
  {
    "feature_type": "shops",
    "lat": 46.9472874,
    "lon": 7.4431795,
    "tags": {
      "name": "Maurer AG",
      "shop": "travel_agency"
    },
    "distance_to_station": 392.60000942219415
  },
  {
    "feature_type": "shops",
    "lat": 46.9483933,
    "lon": 7.4498429,
    "tags": {
      "check_date": "2024-05-29",
      "contact:addr": "Rathausgasse 45, 3011 Bern",
      "contact:email": "info@casa-nobile.ch",
      "contact:phone": "+41 31 3110538",
      "name": "Cioccolateria Casa Nobile",
      "note": "Er\u00f6ffnung 17. November 2018",
      "opening_hours": "Mo off; Tu-Fr 10:00-18:30; Sa 09:00-16:00; Su off",
      "operator": "Casa Nobile GmbH",
      "shop": "chocolate",
      "source": "Survey and website",
      "website": "https://www.casa-nobile.ch/cioccolateria"
    },
    "distance_to_station": 277.45870595492806
  },
  {
    "feature_type": "shops",
    "lat": 46.9469446,
    "lon": 7.449678,
    "tags": {
      "addr:city": "Bern",
      "addr:housenumber": "19",
      "addr:postcode": "3011",
      "addr:street": "Herrengasse",
      "alt_name": "Blumeng\u00e4rtnerei Ellenberger & Fuhrimann",
      "contact:facebook": "https://www.facebook.com/DieBlumengaertnerei",
      "email": "info@dieblumengaertnerei.ch",
      "level": "-1",
      "name": "Ellenberger & Fuhrimann",
      "opening_hours": "Tu-Fr 09:30-12:00,13:30-18:00; Sa 09:30-12:00,13:30-16:00",
      "operator": "Blumeng\u00e4rtnerei Susanne Ellenberger und Ursi Fuhrimann (Kollektivgesellschaft)",
      "phone": "+41 31 311 63 19",
      "shop": "florist",
      "website": "https://www.dieblumengaertnerei.ch/"
    },
    "distance_to_station": 145.6160246776077
  },
  {
    "feature_type": "shops",
    "lat": 46.9485889,
    "lon": 7.4443389,
    "tags": {
      "alt_name": "YOURS Ren\u00e9 Piller",
      "check_date": "2022-12-23",
      "contact:addr": "Waaghausgasse 3, 3011 Bern",
      "contact:email": "parfumerie.yours@bluewin.ch",
      "contact:fax": "+41 31 3110146",
      "contact:phone": "+41 31 3110125",
      "name": "YOURS",
      "opening_hours": "Mo 10:00-18:30; Tu-We,Fr 09:00-18:30; Th 09:00-20:00; Sa 08:00-16:00",
      "operator": "Ren\u00e9 Piller",
      "shop": "perfumery",
      "source": "Survey and website",
      "website": "https://www.mixyourcandle.ch/partner-parfumerie-yours-bern"
    },
    "distance_to_station": 389.96543935548806
  },
  {
    "feature_type": "shops",
    "lat": 46.9478644,
    "lon": 7.4421258,
    "tags": {
      "brand": "Rituals",
      "brand:wikidata": "Q62874140",
      "name": "Rituals",
      "shop": "cosmetics"
    },
    "distance_to_station": 489.8112602499998
  },
  {
    "feature_type": "shops",
    "lat": 46.949016,
    "lon": 7.4491572,
    "tags": {
      "addr:city": "Bern",
      "addr:housenumber": "44",
      "addr:postcode": "3011",
      "addr:street": "Brunngasse",
      "alt_name": "Goldschmiedeatelier Maria Lutz",
      "contact:facebook": "https://www.facebook.com/marialutz44/",
      "contact:instagram": "https://www.instagram.com/maria_lutz_goldschmiedeatelier",
      "craft": "jeweller",
      "email": "info@marialutz.ch",
      "name": "Maria Lutz",
      "opening_hours": "Mo off; Tu-Fr 11:00-18:30; Sa 11:00-16:00; Su off; PH off",
      "phone": "+41 31 311 17 05",
      "shop": "jewelry",
      "website": "https://www.marialutz.ch/"
    },
    "distance_to_station": 323.2451834069105
  },
  {
    "feature_type": "shops",
    "lat": 46.9490175,
    "lon": 7.4489875,
    "tags": {
      "contact:addr": "Brunngasse 48, 3011 Bern",
      "contact:phone": "+41 31 3111950",
      "name": "Glanz + Gloria",
      "note": "Vintage Fashion, Second-Hand-Shop",
      "opening_hours": "Th 16:00+",
      "shop": "clothes",
      "source": "survey"
    },
    "distance_to_station": 320.4533001136676
  },
  {
    "feature_type": "shops",
    "lat": 46.9487904,
    "lon": 7.44891,
    "tags": {
      "addr:city": "Bern",
      "addr:housenumber": "27",
      "addr:postcode": "3011",
      "addr:street": "Brunngasse",
      "brand": "Cresta;Koga;Bergamont",
      "contact:addr": "Brunngasse 27, 3011 Bern",
      "contact:email": "dominik.jacob@bluewin.ch",
      "contact:facebook": "https://www.facebook.com/Zweirad-Center-Jacob-152205252135038",
      "contact:phone": "+41 31 3113583",
      "image": "https://upload.wikimedia.org/wikipedia/commons/thumb/5/59/Brunngassbrunnen_02.jpg/800px-Brunngassbrunnen_02.jpg",
      "name": "Zweirad Center Jakob",
      "opening_hours": "Mo-Fr 08:00-12:00, 14:00-18:30; Sa 08:30-12:30; Su off; PH off",
      "operator": "Dominik Jakob",
      "shop": "bicycle",
      "source": "survey and website",
      "start_date": "1983",
      "website": "https://www.velojacob.ch"
    },
    "distance_to_station": 294.5288590826672
  },
  {
    "feature_type": "shops",
    "lat": 46.9481322,
    "lon": 7.4502107,
    "tags": {
      "name": "Baldessarini",
      "shop": "clothes"
    },
    "distance_to_station": 268.015252021836
  },
  {
    "feature_type": "shops",
    "lat": 46.9482183,
    "lon": 7.4426129,
    "tags": {
      "brand": "Orell F\u00fcssli",
      "brand:wikidata": "Q1511140",
      "check_date": "2023-12-18",
      "contact:addr": "Spitalgasse 18-20, 3011 Bern",
      "contact:email": "kundenservice@orellfuessli.ch",
      "contact:fax": "+41 44 4555620",
      "contact:phone": "+41 848 849848",
      "kids_area": "yes",
      "name": "Orell F\u00fcssli",
      "opening_hours": "Mo-We,Fr 09:00-19:00; Th 09:00-20:00; Sa 09:00-17:00",
      "shop": "books",
      "website": "https://www.orellfuessli.ch/buchhandlung/1044",
      "wheelchair": "yes"
    },
    "distance_to_station": 473.1369608779814
  },
  {
    "feature_type": "shops",
    "lat": 46.9484139,
    "lon": 7.4444136,
    "tags": {
      "branch": "Bern",
      "brand": "Beldona",
      "check_date": "2022-12-23",
      "clothes": "women;underwear",
      "contact:addr": "Marktgasse 56, 3011 Bern",
      "contact:phone": "+41 31 3182865",
      "name": "Beldona",
      "opening_hours": "Mo-We,Fr 09:30-18:30; Th 09:30-20:00; Sa 09:30-17:00",
      "operator": "Beldona AG",
      "shop": "clothes",
      "website": "https://www.beldona.com"
    },
    "distance_to_station": 372.7040058378628
  },
  {
    "feature_type": "shops",
    "lat": 46.9478401,
    "lon": 7.4457285,
    "tags": {
      "check_date": "2023-09-01",
      "clothes": "men;women",
      "contact:addr": "Marktgasse 31, 3011 Bern",
      "contact:phone": "+41 31 3111532",
      "name": "Jack & Jones / Vero Moda",
      "opening_hours": "Mo-We, Fr 09:00-18:30; Th 09:00-21:00; Sa 09:00-17:00",
      "shop": "clothes"
    },
    "distance_to_station": 256.25465047907284
  },
  {
    "feature_type": "shops",
    "lat": 46.9478489,
    "lon": 7.4456319,
    "tags": {
      "check_date": "2023-09-01",
      "contact:addr": "Marktgasse 35, 3011 Bern",
      "contact:phone": "+41 313111118",
      "contact:website": "https://www.passoperpasso.ch",
      "name": "Passo per Passo",
      "opening_hours": "Mo-Fr 11:00-14:00,14:30-18:30; Sa 10:00-17:00; Su,PH off",
      "shop": "shoes"
    },
    "distance_to_station": 262.1415965216832
  },
  {
    "feature_type": "shops",
    "lat": 46.9484197,
    "lon": 7.4445813,
    "tags": {
      "brand": "Tally Weijl",
      "brand:wikidata": "Q689695",
      "brand:wikipedia": "en:Tally Weijl",
      "contact:addr": "Marktgasse 52, 3011 Bern",
      "contact:phone": "+41 31 3116738",
      "name": "Tally Weijl",
      "shop": "clothes",
      "website": "https://www.tally-weijl.com/de_CH/store-details/1T97"
    },
    "distance_to_station": 363.6807805364999
  },
  {
    "feature_type": "shops",
    "lat": 46.9482602,
    "lon": 7.4428727,
    "tags": {
      "brand": "Intimissimi",
      "brand:wikidata": "Q305404",
      "brand:wikipedia": "en:Intimissimi",
      "clothes": "underwear",
      "name": "Intimissimi",
      "shop": "clothes"
    },
    "distance_to_station": 458.18283515935747
  },
  {
    "feature_type": "shops",
    "lat": 46.9490394,
    "lon": 7.4486986,
    "tags": {
      "contact:addr": "Brunngasse 54, 3011 Bern",
      "contact:email": "post@rytzbern.ch",
      "contact:facebook": "https://www.facebook.com/rytzbern",
      "contact:instagram": "https://www.instagram.com/rytz_bern",
      "contact:phone": "+41 31 3182380",
      "name": "Rytz",
      "opening_hours": "Tu-Fr 11:00-18:30; Sa 10:00-16:00; PH,Su,Mo off",
      "operator": "Arlette Schneider",
      "shop": "clothes",
      "website": "https://rytzbern.ch"
    },
    "distance_to_station": 318.9799016046259
  },
  {
    "feature_type": "shops",
    "lat": 46.9476481,
    "lon": 7.4525149,
    "tags": {
      "amenity": "bar",
      "contact:addr": "Junkerngasse 58, 3011 Bern",
      "contact:email": "info@eniline.ch",
      "contact:facebook": "https://www.facebook.com/eniline",
      "contact:instagram": "https://www.instagram.com/enilinegmbh",
      "contact:phone": "+41 31 9641010",
      "indoor_seating": "yes",
      "name": "eniline",
      "opening_hours": "Tu-Fr 09:00-19:00; Th 09:00-20:00; Sa 09:00-17:00; PH off",
      "opening_hours:bar": "Tu-We 09:00-19:00, Th-Sa 09:00-23:00; PH off",
      "operator": "eniline GmbH",
      "outdoor_seating": "yes",
      "shop": "clothes",
      "source": "survey and website",
      "toilets:wheelchair": "no",
      "website": "https://eniline.ch",
      "wheelchair": "limited"
    },
    "distance_to_station": 371.811193209268
  },
  {
    "feature_type": "shops",
    "lat": 46.9475885,
    "lon": 7.4498434,
    "tags": {
      "check_date": "2025-07-20",
      "clothes": "dance",
      "contact:addr": "M\u00fcnstergasse 48, 3011 Bern",
      "contact:email": "order@ballettshopbern.ch",
      "contact:phone": "+41 31 3113040",
      "name": "Ballett Shop Bern",
      "opening_hours": "Mo off; Tu-Fr 11:00-19:00; Sa 10:00-17:00; Su off; PH off",
      "operator": "Ballett Shop Bern GmbH",
      "shop": "clothes",
      "website": "https://www.ballettshopbern.ch"
    },
    "distance_to_station": 203.3515989857656
  },
  {
    "feature_type": "shops",
    "lat": 46.9473095,
    "lon": 7.4500922,
    "tags": {
      "contact:addr": "M\u00fcnstergasse 41, 3011 Bern",
      "contact:email": "info@90-grad.ch",
      "contact:facebook": "https://www.facebook.com/90gradhairstudio",
      "contact:instagram": "https://www.instagram.com/90gradhairstudio/",
      "contact:phone": "+41 31 3011462",
      "name": "90 - Grad Hair Studio",
      "opening_hours": "Mo-We 09:00-19:00; Th 09:00-20:00; Fr 09:00-19:00; Sa 07:30-15:00; Su off; PH off",
      "shop": "hairdresser",
      "source": "survey and website",
      "website": "https://www.90-grad.ch"
    },
    "distance_to_station": 195.167634105887
  },
  {
    "feature_type": "shops",
    "lat": 46.9475441,
    "lon": 7.448419,
    "tags": {
      "cash_withdrawal": "yes",
      "cash_withdrawal:operator": "sonect",
      "contact:addr": "M\u00fcnstergasse 74, 3011 Bern",
      "contact:email": "hallo@bread-a-porter.ch",
      "contact:fax": "+41 31 312 05 21",
      "contact:phone": "+41 31 311 27 71",
      "craft": "bakery",
      "indoor_seating": "no",
      "name": "Bread \u00e0 porter",
      "opening_hours": "Mo-Fr 06:00-19:00; Sa 06:00-17:00; PH,Su off",
      "outdoor_seating": "yes",
      "payment:american_express": "yes",
      "payment:jcb": "yes",
      "payment:mastercard": "yes",
      "payment:postfinance_card": "yes",
      "payment:visa": "yes",
      "payment:visa_debit": "yes",
      "shop": "bakery",
      "website": "https://www.bread-a-porter.ch/",
      "wheelchair": "no"
    },
    "distance_to_station": 151.40610067837542
  },
  {
    "feature_type": "shops",
    "lat": 46.9484722,
    "lon": 7.4477723,
    "tags": {
      "contact:addr": "Kornhausplatz 11, 3011 Bern",
      "contact:email": "hallo@bread-a-porter.ch",
      "contact:phone": "+41 31 3111377",
      "craft": "bakery",
      "name": "Bread \u00e0 porter",
      "note": "Hauptgesch\u00e0ft M\u00fcnstergasse 74, 3011 Bern",
      "opening_hours": "Mo-Fr 06:15-19:00; Sa 07:00-17:00; Su off; PH off",
      "shop": "bakery",
      "website": "https://www.bread-a-porter.ch/",
      "wheelchair": "limited"
    },
    "distance_to_station": 253.8787281982068
  },
  {
    "feature_type": "shops",
    "lat": 46.9476458,
    "lon": 7.4512638,
    "tags": {
      "alt_name": "Palette \u2013 Unverpackt Einkaufen",
      "bulk_purchase": "only",
      "contact:addr": "M\u00fcnstergasse 18 , 3011 Bern",
      "contact:email": "info@palette-bern.ch",
      "contact:facebook": "https://www.facebook.com/paletteBern",
      "contact:instagram": "https://www.instagram.com/paletteBern",
      "name": "Palette",
      "note": "Angebot an unverpackten, biologischen Lebensmitteln, Hygiene- und Pflegeprodukte",
      "opening_hours": "Tu 08:00-13:00; Th 15:00-20:00; Fr 15:00-19:00; Sa 09:00-15:00; PH off",
      "operator": "Genossenschaft Zukunftswerkstatt",
      "organic": "yes",
      "shop": "convenience",
      "website": "https://palette-bern.ch/",
      "zero_waste": "yes"
    },
    "distance_to_station": 289.0059726600197
  },
  {
    "feature_type": "shops",
    "lat": 46.9473624,
    "lon": 7.4497108,
    "tags": {
      "contact:addr": "Herrengasse 47, 3011 Bern",
      "contact:email": "mail@hautnah-lesdessous.ch",
      "contact:facebook": "https://www.facebook.com/Hautnah-les-Dessous-726340164052325",
      "contact:phone": "+41 31 3121401",
      "name": "Hautnah Les Dessous",
      "opening_hours": "Mo off; Tu-Fr 10:00-13:00, 14:00-18:30; Sa 10:00-17:00; Su off; PH off",
      "operator": "Hautnah Les Dessous GmbH",
      "shop": "clothes",
      "source": "survey and website",
      "website": "https://www.hautnah-lesdessous.ch"
    },
    "distance_to_station": 177.92642999249676
  },
  {
    "feature_type": "shops",
    "lat": 46.9475908,
    "lon": 7.450339,
    "tags": {
      "alt_name": "HolzArt Engel&So",
      "contact:addr": "M\u00fcnstergasse 36, 3011 Bern",
      "contact:email": "info@holz-art-bern.ch",
      "contact:mobile": "+41 79 6032323",
      "contact:phone": "+41 31 3126666",
      "contact:website": "http://holz-art-bern.ch/kontakt/",
      "name": "HolzArt",
      "opening_hours:url": "http://holz-art-bern.ch/oeffnungszeiten/",
      "shop": "gift",
      "source": "survey and website",
      "website": "https://www.holz-art-bern.ch/"
    },
    "distance_to_station": 229.7910272930005
  },
  {
    "feature_type": "shops",
    "lat": 46.9481707,
    "lon": 7.4422852,
    "tags": {
      "name": "Falconeri",
      "shop": "clothes"
    },
    "distance_to_station": 492.80058634600533
  },
  {
    "feature_type": "shops",
    "lat": 46.9482054,
    "lon": 7.4425169,
    "tags": {
      "brand": "Levi's",
      "brand:wikidata": "Q127962",
      "clothes": "denim;men;women",
      "name": "Levi's",
      "opening_hours": "Mo-We,Fr 09:00-19:00; Th 09:00-20:00; Sa 09:00-18:00; Su,PH closed",
      "opening_hours:url": "https://locations.levi.com/de-ch/ch-be/bern/denim_bern_ch-be_6037.html",
      "phone": "+41 31 311 31 31",
      "shop": "clothes",
      "website": "https://www.levi.com/"
    },
    "distance_to_station": 478.89523338564413
  },
  {
    "feature_type": "shops",
    "lat": 46.9478064,
    "lon": 7.4459847,
    "tags": {
      "brand": "Calida",
      "brand:wikidata": "Q693344",
      "clothes": "underwear",
      "name": "Calida",
      "opening_hours": "Mo-We,Fr 09:00-18:30; Th 09:00-20:00; Sa,PH - 1 day 09:00-18:00; Su,PH closed",
      "shop": "clothes"
    },
    "distance_to_station": 240.1870771253545
  },
  {
    "feature_type": "shops",
    "lat": 46.9477997,
    "lon": 7.4462039,
    "tags": {
      "brand": "Breitling",
      "brand:wikidata": "Q665740",
      "check_date": "2025-07-11",
      "name": "Breitling",
      "shop": "watches"
    },
    "distance_to_station": 228.81747523808724
  },
  {
    "feature_type": "shops",
    "lat": 46.9477959,
    "lon": 7.4463066,
    "tags": {
      "brand": "Pandora",
      "brand:wikidata": "Q2241604",
      "brand:wikipedia": "en:Pandora (jewelry)",
      "contact:addr": "Marktgasse 19, 3011 Bern",
      "contact:phone": "+41 31 3110239",
      "name": "Pandora",
      "opening_hours": "Mo-We,Fr 09:30-18:30; Th 09:30-20:00; Sa 09:30-17:00; Su,PH off",
      "shop": "jewelry",
      "website": "https://www.pandora.net"
    },
    "distance_to_station": 223.66019888172704
  },
  {
    "feature_type": "shops",
    "lat": 46.9478477,
    "lon": 7.4420453,
    "tags": {
      "brand": "Tezenis",
      "brand:wikidata": "Q28056374",
      "clothes": "underwear",
      "levels": "1",
      "name": "Tezenis",
      "shop": "clothes",
      "website": "https://www.tezenis.com/"
    },
    "distance_to_station": 494.78383325755243
  },
  {
    "feature_type": "shops",
    "lat": 46.947996,
    "lon": 7.4444015,
    "tags": {
      "brand": "Butlers",
      "brand:wikidata": "Q1017972",
      "name": "Butlers",
      "opening_hours": "Mo-We,Fr 09:00-19:00; Th 09:00-21:00; Sa 09:00-17:00",
      "phone": "+41 31 311 28 02",
      "shop": "interior_decoration",
      "website": "https://www.butlers.ch/",
      "wheelchair": "yes"
    },
    "distance_to_station": 344.535126789859
  },
  {
    "feature_type": "shops",
    "lat": 46.9479528,
    "lon": 7.4446442,
    "tags": {
      "brand": "Blue Tomato",
      "brand:wikidata": "Q107637238",
      "check_date": "2024-05-16",
      "contact:addr": "Marktgasse 55, 3011 Bern",
      "contact:phone": "+41 31 3342030",
      "name": "Blue Tomato",
      "opening_hours": "Mo-We,Fr 10:00-19:00; Th 10:00-21:00; Sa 09:00-17:00",
      "shop": "clothes",
      "website": "https://www.blue-tomato.com/de-DE/shop/bern/"
    },
    "distance_to_station": 326.8081983191246
  },
  {
    "feature_type": "shops",
    "lat": 46.9479378,
    "lon": 7.4447731,
    "tags": {
      "check_date": "2023-09-01",
      "contact:addr": "Marktgasse 51, 3011 Bern",
      "contact:email": "mode@ciolina.ch",
      "contact:facebook": "https://www.facebook.com/ciolina.mode",
      "contact:instagram": "https://www.instagram.com/ciolinabern",
      "contact:phone": "+41 31 3286464",
      "name": "Ciolina",
      "opening_hours": "Mo-We,Fr 09:30-18:30; Th 09:30-20:00; Sa 10:00-17:00",
      "operator": "Ciolina AG",
      "shop": "clothes",
      "website": "https://www.ciolina.ch"
    },
    "distance_to_station": 317.991050623337
  },
  {
    "feature_type": "shops",
    "lat": 46.9482857,
    "lon": 7.4430519,
    "tags": {
      "alt_name": "Swatch Store Bern",
      "brand": "Swatch",
      "brand:wikidata": "Q573422",
      "brand:wikipedia": "en:Swatch",
      "check_date": "2024-05-16",
      "contact:addr": "Spitalgasse 4, 3011 Bern",
      "contact:email": "berne.store@swatchretail.com",
      "contact:phone": "+41 31 3119161",
      "level": "0",
      "name": "Swatch",
      "shop": "watches"
    },
    "distance_to_station": 447.91543124549224
  },
  {
    "feature_type": "shops",
    "lat": 46.9478103,
    "lon": 7.4469724,
    "tags": {
      "brand": "Omega",
      "brand:wikidata": "Q659224",
      "name": "Omega",
      "opening_hours": "Mo-Fr 10:00-19:00; Sa 10:00-17:00",
      "shop": "watches",
      "website": "https://www.omegawatches.com/"
    },
    "distance_to_station": 198.46450963241782
  },
  {
    "feature_type": "shops",
    "lat": 46.9477894,
    "lon": 7.4465056,
    "tags": {
      "name": "Gamelife",
      "shop": "video_games"
    },
    "distance_to_station": 214.20339259647042
  },
  {
    "feature_type": "shops",
    "lat": 46.948088,
    "lon": 7.4463464,
    "tags": {
      "brand": "Tally Weijl",
      "brand:wikidata": "Q689695",
      "clothes": "women",
      "name": "Tally Weijl",
      "opening_hours": "Mo-Fr 09:30-18:30; Sa 09:30-17:00; Su,PH closed",
      "operator": "TALLY WEiJL Trading AG",
      "phone": "+41 31 311 67 38",
      "shop": "clothes",
      "wheelchair": "yes"
    },
    "distance_to_station": 248.58162565543955
  },
  {
    "feature_type": "shops",
    "lat": 46.9480941,
    "lon": 7.4458419,
    "tags": {
      "brand": "Vero Moda",
      "brand:wikidata": "Q640418",
      "brand:wikipedia": "en:Bestseller (company)",
      "clothes": "women",
      "name": "Vero Moda",
      "opening_hours": "Mo-Fr 09:00-18:30, Th 09:00-20:00, Sa 09:00-17:00; Su,PH off",
      "operator": "Bestesller",
      "shop": "clothes",
      "wheelchair": "yes"
    },
    "distance_to_station": 271.5518167527715
  },
  {
    "feature_type": "shops",
    "lat": 46.9481085,
    "lon": 7.445634,
    "tags": {
      "brand": "Import Parfumerie",
      "brand:wikidata": "Q1660352",
      "check_date": "2025-02-28",
      "name": "Import Parfumerie",
      "opening_hours": "Mo-We 09:00-19:00; Th 09:00-21:00; Fr 09:00-20:00; Sa 09:00-17:00",
      "shop": "perfumery",
      "website": "https://www.impo.ch/"
    },
    "distance_to_station": 282.9784347611694
  },
  {
    "feature_type": "shops",
    "lat": 46.9481208,
    "lon": 7.445542,
    "tags": {
      "brand": "BONITA",
      "brand:wikidata": "Q892598",
      "brand:wikipedia": "de:Bonita (Unternehmen)",
      "check_date": "2024-05-22",
      "clothes": "women",
      "name": "BONITA",
      "shop": "clothes"
    },
    "distance_to_station": 288.65641361245827
  },
  {
    "feature_type": "shops",
    "lat": 46.9482424,
    "lon": 7.4447184,
    "tags": {
      "brand": "claire's",
      "brand:wikidata": "Q2974996",
      "brand:wikipedia": "en:Claire's",
      "check_date": "2022-12-23",
      "name": "claire's",
      "opening_hours": "Mo-Fr 09:00-18:30; Sa 09:00-17:00",
      "shop": "fashion_accessories",
      "website": "https://stores.claires.com/ch-be/bern/1099.html"
    },
    "distance_to_station": 342.73796595117227
  },
  {
    "feature_type": "shops",
    "lat": 46.9482952,
    "lon": 7.4431301,
    "tags": {
      "branch": "Bern Spitalgasse",
      "brand": "k kiosk",
      "brand:wikidata": "Q60381703",
      "brand:wikipedia": "it:K Kiosk",
      "cash_withdrawal": "yes",
      "cash_withdrawal:fee": "no",
      "cash_withdrawal:operator": "sonect",
      "cash_withdrawal:purchase_required": "no",
      "cash_withdrawal:type": "checkout",
      "name": "k kiosk",
      "shop": "newsagent",
      "website": "https://www.kkiosk.ch/",
      "wheelchair": "yes"
    },
    "distance_to_station": 443.40173208346187
  },
  {
    "feature_type": "shops",
    "lat": 46.948238,
    "lon": 7.4423601,
    "tags": {
      "contact:addr": "Spitalgasse 26, 3011 Bern",
      "contact:email": "spiess-idea@bluewin.ch",
      "contact:phone": "+41 31 3117704",
      "level": "-1",
      "name": "Spiess-Idea",
      "opening_hours": "Mo-We,Fr 09:00-18:30; Th 09:00-20:00; Sa 09:00-17:00",
      "operator": "Hesse IDEA GmbH",
      "shop": "craft",
      "website": "https://www.spiess-idea.ch"
    },
    "distance_to_station": 491.12212597139916
  },
  {
    "feature_type": "shops",
    "lat": 46.9485113,
    "lon": 7.4477868,
    "tags": {
      "brand": "k kiosk",
      "brand:wikidata": "Q60381703",
      "brand:wikipedia": "it:K Kiosk",
      "cash_withdrawal": "yes",
      "cash_withdrawal:fee": "no",
      "cash_withdrawal:operator": "sonect",
      "cash_withdrawal:purchase_required": "no",
      "cash_withdrawal:type": "checkout",
      "check_date": "2025-07-19",
      "name": "k kiosk",
      "operator": "Valora",
      "shop": "newsagent",
      "wheelchair": "limited"
    },
    "distance_to_station": 258.1021650945656
  },
  {
    "feature_type": "shops",
    "lat": 46.9485461,
    "lon": 7.4457942,
    "tags": {
      "alt_name": "Sch\u00e4r-Reisen Bern City",
      "contact:addr": "Marktgass-Passage 1-3, 3011 Bern",
      "contact:email": "city@schaer-reisen.ch",
      "contact:phone": "+41 31 3185757",
      "name": "Sch\u00e4r-Reisen",
      "opening_hours": "Mo-Fr 09:00-18:00; Sa 10:00-15:00; Su off; PH off",
      "shop": "travel_agency",
      "website": "https://www.schaerreisenag.ch/filialen/sch%C3%A4r-reisen-city/"
    },
    "distance_to_station": 314.1522612910779
  },
  {
    "feature_type": "shops",
    "lat": 46.9484312,
    "lon": 7.4455796,
    "tags": {
      "beauty": "nails",
      "check_date": "2022-10-21",
      "name": "New York Nails",
      "opening_hours": "Mo-Sa 09:00-19:00",
      "shop": "beauty"
    },
    "distance_to_station": 313.3000228352811
  },
  {
    "feature_type": "shops",
    "lat": 46.9483522,
    "lon": 7.4455763,
    "tags": {
      "check_date": "2025-02-28",
      "name": "Flora Style",
      "shop": "jewelry"
    },
    "distance_to_station": 306.54731124601597
  },
  {
    "feature_type": "shops",
    "lat": 46.9482836,
    "lon": 7.445569,
    "tags": {
      "addr:street": "Zeughauspassage",
      "check_date": "2022-10-21",
      "name": "Ciolina Fundgrube",
      "opening_hours": "Tu-Fr 10:00-18:30; Sa 10:00-17:00",
      "phone": "+41 31 318 86 35",
      "shop": "clothes",
      "website": "https://www.ciolina.ch/"
    },
    "distance_to_station": 300.9836441489832
  },
  {
    "feature_type": "shops",
    "lat": 46.9482746,
    "lon": 7.4456875,
    "tags": {
      "check_date": "2024-05-22",
      "clothes": "children",
      "name": "Claudine et Pierre",
      "opening_hours": "Mo 10:00-18:30; Tu, We, Fr 09:00-18:30; Th 09:00-20:00; Sa 09:00-17:00",
      "shop": "clothes",
      "website": "https://www.claudine-et-pierre.com/#!"
    },
    "distance_to_station": 294.53841152036335
  },
  {
    "feature_type": "shops",
    "lat": 46.9484595,
    "lon": 7.4426616,
    "tags": {
      "addr:full": "Spitalgass-Passage 16, 3011 Bern",
      "name": "magicX",
      "opening_hours": "Mo-We, Fr 09:30-18:30; Th 09:30-21:00; Sa 09:00-17:00",
      "phone": "+41 313115010",
      "shop": "erotic",
      "website": "https://www.magic-x.com/"
    },
    "distance_to_station": 483.2695254654092
  },
  {
    "feature_type": "shops",
    "lat": 46.9489575,
    "lon": 7.4430396,
    "tags": {
      "addr:full": "Neuengass-Passage 2, 3011 Bern",
      "brand": "Phase Eight",
      "brand:wikidata": "Q17020730",
      "clothes": "women",
      "name": "Phase Eight",
      "opening_hours": "Mo-We, Fr 10:00-19:00; Th 10:00-21:00; Sa 10:00-17:00",
      "phone": "+41 313114306",
      "shop": "clothes",
      "website": "https://www.phase-eight.com/"
    },
    "distance_to_station": 491.49986654692873
  },
  {
    "feature_type": "shops",
    "lat": 46.9491383,
    "lon": 7.4432555,
    "tags": {
      "name": "Coiffeur Trend",
      "shop": "hairdresser"
    },
    "distance_to_station": 491.9168292190814
  },
  {
    "feature_type": "shops",
    "lat": 46.9495193,
    "lon": 7.4446832,
    "tags": {
      "contact:addr": "N\u00e4geligasse 13, Waisenhausplatz, 3011 Bern",
      "contact:email": "bern-naegeligasse@officeworld.ch",
      "contact:phone": "+41 58 1226400",
      "name": "Office World",
      "opening_hours": "Mo-We 09:00-18:30; Th 09:00-21:00; Fr 09:00-18:30; Sa 09:00-17:00; Su off; PH off",
      "payment:cash": "yes",
      "payment:mastercard": "yes",
      "payment:visa": "yes",
      "shop": "stationery",
      "website": "https://www.officeworld.ch"
    },
    "distance_to_station": 451.106534644487
  },
  {
    "feature_type": "shops",
    "lat": 46.9478589,
    "lon": 7.4482692,
    "tags": {
      "addr:full": "Kramgasse 85, 3011 Bern",
      "brand": "Lacoste",
      "brand:wikidata": "Q309031",
      "check_date": "2025-07-20",
      "clothes": "luxury",
      "name": "Lacoste",
      "opening_hours": "Mo-Fr 09:00-18:30; Sa 09:00-17:00",
      "phone": "+41 313185533",
      "shop": "clothes",
      "website": "https://www.lacoste.com/"
    },
    "distance_to_station": 184.90788265495956
  },
  {
    "feature_type": "shops",
    "lat": 46.9478547,
    "lon": 7.4484571,
    "tags": {
      "brand": "Marc Cain",
      "brand:wikidata": "Q63342543",
      "clothes": "luxury;women",
      "name": "Marc Cain",
      "opening_hours": "Mo-We, Fr 09:00-18:30; Th 09:00-20:00; Sa 09:00-17:00",
      "operator": "Mode Bayard",
      "phone": "+41 313034780",
      "shop": "clothes",
      "website": "https://www.marc-cain.com/"
    },
    "distance_to_station": 185.98036179813735
  },
  {
    "feature_type": "shops",
    "lat": 46.9478534,
    "lon": 7.448908,
    "tags": {
      "contact:addr": "Kramgasse 69, 3011 Bern",
      "contact:phone": "+41 31",
      "gift": "souvenir",
      "name": "Zytglogge Boutique",
      "shop": "gift"
    },
    "distance_to_station": 193.81103446890756
  },
  {
    "feature_type": "shops",
    "lat": 46.9478594,
    "lon": 7.4490722,
    "tags": {
      "brand": "Ecco",
      "brand:wikidata": "Q1280255",
      "check_date": "2024-04-27",
      "contact:addr": "Kramgasse 65, 3011 Bern",
      "contact:phone": "+41 31 3117660",
      "name": "Ecco",
      "opening_hours": "Mo-We, Fr 09:00-18:30; Th 09:00-20:00; Sa 09:00-17:00",
      "shop": "shoes",
      "website": "https://global.ecco.com"
    },
    "distance_to_station": 198.7280931301094
  },
  {
    "feature_type": "shops",
    "lat": 46.9480745,
    "lon": 7.4466449,
    "tags": {
      "alt_name": "Manor Bern",
      "branch": "Bern",
      "brand": "Manor",
      "brand:wikidata": "Q382686",
      "cash_withdrawal": "postfinance_card",
      "cash_withdrawal:fee": "no",
      "cash_withdrawal:purchase_required": "no",
      "cash_withdrawal:type": "checkout",
      "contact:addr": "Marktgasse 10, 3011 Bern",
      "contact:fax": "+41 31 3005698",
      "contact:phone": "+41 31 3005699",
      "internet_access": "wlan",
      "internet_access:fee": "no",
      "name": "Manor",
      "opening_hours": "Mo-We 09:00-19:00; Th 09:00-21:00; Fr 09:00-20:00; Sa 08:00-17:00",
      "operator": "Manor",
      "shop": "department_store",
      "start_date": "2019-04-25",
      "toilets:wheelchair": "yes",
      "website": "https://www.manor.ch/de/store-finder/store/BER",
      "wheelchair": "yes"
    },
    "distance_to_station": 235.8933964958317
  },
  {
    "feature_type": "shops",
    "lat": 46.948841,
    "lon": 7.4435317,
    "tags": {
      "branch": "Bern Waisenhausplatz",
      "brand": "Sunrise",
      "brand:wikidata": "Q112573820",
      "check_date:opening_hours": "2022-06-14",
      "full_name": "Sunrise Shop Bern Waisenhausplatz",
      "name": "Sunrise",
      "opening_hours": "Mo-We, Fr 09:00-19:00; Th 09:00-21:00; Sa 09:00-17:00",
      "operator": "Sunrise UPC GmbH",
      "operator:wikidata": "Q112573820",
      "shop": "telecommunication",
      "website": "https://www.sunrise.ch/"
    },
    "distance_to_station": 454.41526795946805
  },
  {
    "feature_type": "shops",
    "lat": 46.9476558,
    "lon": 7.4472285,
    "tags": {
      "check_date": "2024-05-16",
      "name": "Chat Noir",
      "opening_hours": "Mo-Fr 10:00-18:30; Sa 10:00-17:00",
      "shop": "gift",
      "website": "https://www.chat-noir.ch/"
    },
    "distance_to_station": 174.87399441947457
  },
  {
    "feature_type": "shops",
    "lat": 46.9485294,
    "lon": 7.447893,
    "tags": {
      "check_date": "2024-05-15",
      "name": "Adrianos Kaffeeladen",
      "opening_hours": "Mo-Fr 09:00-19:00; Sa 09:00-17:00",
      "operator": "Adriano\u2019s B&C AG",
      "shop": "coffee",
      "wheelchair": "yes"
    },
    "distance_to_station": 259.49364539051527
  },
  {
    "feature_type": "shops",
    "lat": 46.9481911,
    "lon": 7.4496947,
    "tags": {
      "contact:addr": "Kramgasse 54, 3011 Bern",
      "contact:email": "info@eschmann-contactlinsen.ch",
      "contact:fax": "+41 31 3123717",
      "contact:phone": "+41 31 3117313",
      "contact_lenses": "only",
      "name": "Eschmann - Contactlinsen",
      "opening_hours": "Mo 13:30-18:00; Tu-Fr 08:30-12:30,13:30-18:00; Sa 08:30-12:30; Su off; PH off",
      "shop": "optician",
      "website": "https://www.eschmann-contactlinsen.ch"
    },
    "distance_to_station": 252.3329612985616
  },
  {
    "feature_type": "shops",
    "lat": 46.9438395,
    "lon": 7.4438112,
    "tags": {
      "contact:addr": "Marzilistrasse 15, 3005 Bern",
      "contact:phone": "+41 31 3110373",
      "name": "Haarige Zeiten",
      "shop": "hairdresser"
    },
    "distance_to_station": 418.2012672315537
  },
  {
    "feature_type": "shops",
    "lat": 46.9476981,
    "lon": 7.4463752,
    "tags": {
      "contact:addr": "Marktgasse 19, 3011 Bern",
      "contact:mobile": "+41 79 8522867",
      "massage": "thai",
      "name": "Stressfrei",
      "opening_hours": "Tu-Fr 10:00-19:30; Sa 10:00-18:30",
      "shop": "massage",
      "website": "http://www.stressfrei-massage.ch"
    },
    "distance_to_station": 211.87692554308214
  },
  {
    "feature_type": "shops",
    "lat": 46.9483019,
    "lon": 7.4431843,
    "tags": {
      "check_date:opening_hours": "2024-02-29",
      "contact:city": "Bern",
      "contact:housenumber": "4",
      "contact:postcode": "3011",
      "contact:street": "Spitalgasse",
      "email": "bernspitalgasse@mcoptic.ch",
      "level": "0",
      "name": "McOptic",
      "opening_hours": "Mo-We,Fr 09:00-18:30; Th 09:00-20:00; Sa 09:00-17:00; Su,PH closed",
      "opening_hours:url": "https://www.mcoptic.ch/de/filialen/bern-spitalgasse",
      "phone": "+41 31 306 62 50",
      "shop": "optician",
      "website": "https://www.mcoptic.ch/"
    },
    "distance_to_station": 440.30143086272494
  },
  {
    "feature_type": "shops",
    "lat": 46.9472026,
    "lon": 7.4492768,
    "tags": {
      "alt_name": "Maison Art",
      "contact:addr": "Herrengasse 36, 3011 Bern",
      "contact:email": "info@maisonart.ch",
      "contact:instagram": "https://instagram.com/maison_art",
      "contact:phone": "+41 31 3115959",
      "name": "MAISONART",
      "operator": "MAISONART concept store GmbH",
      "shop": "concept_store",
      "website": "https://maisonart.ch"
    },
    "distance_to_station": 142.8592873205815
  },
  {
    "feature_type": "shops",
    "lat": 46.947171,
    "lon": 7.4494839,
    "tags": {
      "addr:city": "Bern",
      "addr:housenumber": "30",
      "addr:postcode": "3011",
      "addr:street": "Herrengasse",
      "alt_name": "Buchhandlung Weyermann",
      "contact:addr": "Herrengasse 30, 3011 Bern",
      "contact:email": "info@vitabuch.ch",
      "contact:facebook": "http://www.facebook.com/vitabuch.ch",
      "contact:fax": "+41 31 3115935",
      "contact:instagram": "https://www.instagram.com/vitabuch.ch",
      "contact:phone": "+41 31 3115959",
      "name": "Buchhandlung Weyermann",
      "operator": "Buchhandlung H. Weyermann Nachf. C. Gyr Reiss (Einzelunternehmen)",
      "shop": "books",
      "website": "https://www.vitabuch.ch"
    },
    "distance_to_station": 150.64390581729012
  },
  {
    "feature_type": "shops",
    "lat": 46.9481074,
    "lon": 7.4497207,
    "tags": {
      "alt_name": "VOI Kramgasse",
      "branch": "Bern Kramgasse",
      "brand": "VOI",
      "brand:wikidata": "Q110277616",
      "check_date": "2025-07-17",
      "contact:addr": "Kramgasse 54, 3011 Bern",
      "contact:phone": "+41 58 5674940",
      "name": "VOI",
      "opening_hours": "Mo-Fr 08:00-20:00; Sa 08:00-17:00; Su off; PH off",
      "operator": "Fatime und Fatmire Kamili",
      "shop": "supermarket",
      "website": "https://www.voi-migrospartner.ch/de-CH/filialen#voi-voi-bern-kramgasse"
    },
    "distance_to_station": 245.19205917361046
  },
  {
    "feature_type": "shops",
    "lat": 46.9463841,
    "lon": 7.4542186,
    "tags": {
      "name": "Aurelia Haaratelier",
      "shop": "hairdresser"
    },
    "distance_to_station": 464.91966746855974
  },
  {
    "feature_type": "shops",
    "lat": 46.9462485,
    "lon": 7.4530625,
    "tags": {
      "hairdresser": "barber",
      "male": "yes",
      "name": "Pompadour",
      "opening_hours": "Tu 10:00-13:00, 14:00-18:30; We, Fr 10:00-13:00, 14:00-19:00; Th 10:00-13:00, 14:00-20:00; Sa 09:00-16:00",
      "phone": "+41 797423114",
      "shop": "hairdresser",
      "website": "https://www.pompadourbarber.ch"
    },
    "distance_to_station": 376.74719062141935
  },
  {
    "feature_type": "shops",
    "lat": 46.9477325,
    "lon": 7.4476147,
    "tags": {
      "alt_name": "IQOS Bern",
      "branch": "Bern",
      "brand": "IQOS",
      "brand:wikidata": "Q48744311",
      "contact:addr": "Theaterplatz 3, 3011 Bern",
      "name": "IQOS",
      "operator": "Philip Morris International",
      "shop": "e-cigarette",
      "website": "https://ch.iqos.com/"
    },
    "distance_to_station": 174.34277295340198
  },
  {
    "feature_type": "shops",
    "lat": 46.94753,
    "lon": 7.448363,
    "tags": {
      "check_date": "2025-07-20",
      "name": "Coiffeur Elisa",
      "opening_hours": "Mo,Fr 09:00-18:30; Tu 08:00-11:30,13:30-18:30; Sa 08:00-12:00",
      "operator": "Elisa Igenito",
      "shop": "hairdresser",
      "wheelchair": "yes"
    },
    "distance_to_station": 149.23071718742884
  },
  {
    "feature_type": "shops",
    "lat": 46.9478015,
    "lon": 7.450243,
    "tags": {
      "contact:addr": "Kramgasse 41, 3011 Bern",
      "contact:email": "info@shopviu.com",
      "contact:phone": "+44 5087905",
      "name": "VIU",
      "opening_hours": "Mo-We, Fr 10:00-19:00; Th 10:00-20:00; Sa 09:00-17:00",
      "shop": "optician",
      "website": "https://shopviu.com"
    },
    "distance_to_station": 241.19530953034842
  },
  {
    "feature_type": "shops",
    "lat": 46.9480367,
    "lon": 7.4535295,
    "tags": {
      "alt_name": "TOKU & erfolg shop",
      "contact:addr": "Gerechtigkeitsgasse 53, 3011 Bern",
      "contact:email": "mail@toku-store.ch",
      "contact:facebook": "https://www.facebook.com/TOKU.swiss.labels/",
      "contact:phone": "+41 31 3117200",
      "name": "TOKU",
      "shop": "clothes",
      "website": "https://www.toku-store.ch"
    },
    "distance_to_station": 459.9782650613461
  },
  {
    "feature_type": "shops",
    "lat": 46.9475709,
    "lon": 7.449552,
    "tags": {
      "alt_name": "Goldschmiedeatelier Denise Boutellier",
      "check_date": "2025-07-27",
      "contact:addr": "M\u00fcnstergasse 52, 3011 Bern",
      "contact:email": "info@denise-boutellier.ch",
      "contact:mobile": "+41 79 5527212",
      "contact:phone": "+41 31 3115340",
      "craft": "jeweller",
      "name": "Denise Boutellier",
      "opening_hours": "Mo-We off; Th-Fr 11:00-18:30; Sa 10:00-16:00; Su off; PH off",
      "operator": "Denise Boutellier",
      "shop": "jewelry",
      "website": "https://www.denise-boutellier.ch"
    },
    "distance_to_station": 188.11127737583755
  },
  {
    "feature_type": "shops",
    "lat": 46.9478312,
    "lon": 7.4506389,
    "tags": {
      "alt_name": "Galerie Christine Br\u00fcgger",
      "check_date:opening_hours": "2023-01-09",
      "contact:addr": "Kramgasse 31, 3011 Bern",
      "contact:email": "galerie@christinebruegger.ch",
      "contact:mobile": "+41 79 7494651",
      "contact:phone": "+41 31 3119021",
      "name": "Christine Br\u00fcgger",
      "opening_hours": "Mo-Tu off; We-Fr 14:00-18:30; Sa 11:00-16:00; Su off; PH off",
      "operator": "Christine Br\u00fcgger",
      "shop": "art",
      "website": "https://www.christinebruegger.ch"
    },
    "distance_to_station": 264.6565698877033
  },
  {
    "feature_type": "shops",
    "lat": 46.9480994,
    "lon": 7.4491276,
    "tags": {
      "alt_name": "BREE Bern",
      "branch": "Bern",
      "contact:addr": "Kramgasse 68, 3011 Bern",
      "contact:email": "bern@bree.ch",
      "contact:phone": "+41 31 5563851",
      "name": "BREE",
      "opening_hours": "Mo-Fr 10:00-18:30; Sa 10:00-17:00; Su off; PH off",
      "shop": "bag",
      "website": "https://bree.com/de/StoreLocator"
    },
    "distance_to_station": 225.14825180633972
  },
  {
    "feature_type": "shops",
    "lat": 46.9472166,
    "lon": 7.4468498,
    "tags": {
      "branch": "Bern",
      "brand": "Cachet",
      "contact:addr": "Amthausgasse 1, 3011 Bern",
      "contact:phone": "+41 31 3118466",
      "name": "Cachet",
      "operator": "Cachet AG",
      "shop": "interior_decoration",
      "website": "https://www.cachet.ch/"
    },
    "distance_to_station": 147.59681398159066
  },
  {
    "feature_type": "shops",
    "lat": 46.9483312,
    "lon": 7.4448565,
    "tags": {
      "addr:city": "Bern",
      "addr:housenumber": "46",
      "addr:postcode": "3011",
      "addr:street": "Marktgasse",
      "alt_name": "Hotelplan Bern",
      "branch": "Bern Marktgasse",
      "brand": "Hotelplan",
      "brand:wikidata": "Q1631145",
      "level": "1",
      "name": "Hotelplan",
      "operator": "Hotelplan Suisse",
      "shop": "travel_agency",
      "website": "https://www.hotelplan.ch/hotelplan-bern-marktgasse"
    },
    "distance_to_station": 341.7302523305723
  },
  {
    "feature_type": "shops",
    "lat": 46.947829,
    "lon": 7.4496459,
    "tags": {
      "alt_name": "Gabbehhaus | Sobhani Wohnkonzepte",
      "contact:addr": "Kramgasse 55, 3011 Bern",
      "contact:email": "info@sobhani.ch",
      "contact:phone": "+41 31 3126365",
      "name": "Sobhani",
      "opening_hours": "Mo 14:00-18:30; Tu-We 10:00-18:30; Th 10:00-19:30; Fr 10:00-18:30; Sa 10:00-17:00; Su off; PH off",
      "shop": "carpet",
      "source": "survey and website",
      "website": "https://gabbehhaus.ch/"
    },
    "distance_to_station": 215.8269447976797
  },
  {
    "feature_type": "shops",
    "lat": 46.9486095,
    "lon": 7.4500883,
    "tags": {
      "books": "antiquarian",
      "contact:addr": "Rathausgasse 32, 3011 Bern",
      "contact:email": "info@buechereule.ch",
      "contact:facebook": "B%C3%BCcher-Eule-Bern-101362989209367",
      "contact:fax": "+41 31 3114470",
      "contact:phone": "+41 31 3114420",
      "name": "B\u00fccher Eule",
      "opening_hours": "Tu-Fr 11:00-18:30; Sa 10:00-16:00; Su off; PH off",
      "operator": "wissenverbindet GmbH",
      "shop": "books",
      "source": "survey and website",
      "website": "https://www.buechereule.ch"
    },
    "distance_to_station": 307.5116487736637
  },
  {
    "feature_type": "shops",
    "lat": 46.9475774,
    "lon": 7.4502248,
    "tags": {
      "addr:housenumber": "38",
      "addr:street": "M\u00fcnstergasse",
      "description": "Bettw\u00e4sche und Heimtextilien",
      "name": "Divina",
      "opening_hours": "Mo-Fr 10:00-18:30; Sa 10:00-17:00",
      "shop": "fabric",
      "website": "https://www.divina.ch/"
    },
    "distance_to_station": 222.4267115624753
  },
  {
    "feature_type": "shops",
    "lat": 46.9481644,
    "lon": 7.4520729,
    "tags": {
      "addr:city": "Bern",
      "addr:housenumber": "4",
      "addr:postcode": "3011",
      "addr:street": "Kramgasse",
      "name": "Teppiche 1001",
      "operator": "Hassan Akbarzadeh",
      "shop": "carpet"
    },
    "distance_to_station": 372.37576514288577
  },
  {
    "feature_type": "shops",
    "lat": 46.9473512,
    "lon": 7.4492294,
    "tags": {
      "contact:addr": "M\u00fcnstergasse 59, 3011 Bern",
      "contact:email": "info@probst-schliesstechnik.ch",
      "contact:fax": "+41 31 3113171",
      "contact:phone": "+41 31 3113172",
      "name": "Probst Schliesstechnik",
      "opening_hours": "Mo-Th 07:15-12:00, 13:30-17:30; Fr 07:15-12:00, 13:30-16:45; Sa-Su off; PH off",
      "operator": "Probst Schliesstechnik AG",
      "shop": "locksmith",
      "website": "https://www.probst-schliesstechnik.ch"
    },
    "distance_to_station": 154.06525481716923
  },
  {
    "feature_type": "shops",
    "lat": 46.9469703,
    "lon": 7.4496218,
    "tags": {
      "contact:addr": "Herrengasse 19, 3011 Bern",
      "name": "N\u00e4hatelier Vizlo",
      "shop": "tailor"
    },
    "distance_to_station": 143.81076574965434
  },
  {
    "feature_type": "shops",
    "lat": 46.9481421,
    "lon": 7.4498298,
    "tags": {
      "alt_name": "LE CREUSET Bern",
      "branch": "Bern",
      "brand": "Le Creuset",
      "brand:wikidata": "Q555861",
      "brand:wikipedia": "en:Le Creuset",
      "contact:addr": "Kramgasse 52, 3011 Bern",
      "contact:email": "bern.store.ch@lecreuset.com",
      "contact:phone": "+41 31 3110888",
      "name": "Le Creuset",
      "operator": "Le Creuset Swiss AG",
      "shop": "houseware",
      "source": "survey and website",
      "website": "https://www.lecreuset.ch/de_CH/store-finder/cop004.html#CH"
    },
    "distance_to_station": 252.7391429864168
  },
  {
    "feature_type": "shops",
    "lat": 46.9483194,
    "lon": 7.4521615,
    "tags": {
      "check_date": "2025-03-07",
      "name": "Amulett",
      "shop": "jewelry"
    },
    "distance_to_station": 388.0615622343693
  },
  {
    "feature_type": "shops",
    "lat": 46.9468771,
    "lon": 7.4416898,
    "tags": {
      "amenity": "cafe",
      "changing_table": "yes",
      "changing_table:location": "room",
      "indoor_seating": "yes",
      "name": "R\u00f6sterei",
      "opening_hours": "Mo-We 06:30-19:00; Th 06:30-21:00; Fr 06:30-20:00; Sa 08:00-17:00",
      "outdoor_seating": "yes",
      "shop": "coffee",
      "toilets:wheelchair": "no",
      "wheelchair": "no"
    },
    "distance_to_station": 492.39238417685993
  },
  {
    "feature_type": "shops",
    "lat": 46.9478784,
    "lon": 7.4520952,
    "tags": {
      "addr:housenumber": "3",
      "addr:postcode": "3011",
      "addr:street": "Kramgasse",
      "name": "rytz",
      "shop": "clothes"
    },
    "distance_to_station": 356.09893201484726
  },
  {
    "feature_type": "shops",
    "lat": 46.9486948,
    "lon": 7.4433222,
    "tags": {
      "addr:city": "Bern",
      "addr:housenumber": "1",
      "addr:postcode": "3011",
      "addr:street": "Neuengasse",
      "email": "bern@elizza.ch",
      "name": "Elizza",
      "opening_hours": "Mo-We,Fr 10:00-18:30, Th 10:00-20:00; Sa 09:00-17:00; Su,PH closed",
      "phone": "+41 313113111",
      "shop": "jewelry",
      "website": "https://www.elizza.ch"
    },
    "distance_to_station": 456.6095189308932
  },
  {
    "feature_type": "shops",
    "lat": 46.9482526,
    "lon": 7.4446534,
    "tags": {
      "brand": "Marc O'Polo",
      "brand:wikidata": "Q1892752",
      "check_date": "2022-12-23",
      "name": "Marc O'Polo",
      "opening_hours": "Mo-We,Fr 09:00-18:30; Th 09:30-20:00; Sa 09:00-17:00",
      "shop": "clothes"
    },
    "distance_to_station": 347.19336414609245
  },
  {
    "feature_type": "shops",
    "lat": 46.9492033,
    "lon": 7.4449578,
    "tags": {
      "alt_name": "Coiffeur Likova",
      "check_date": "2025-07-19",
      "contact:addr": "Zeughausgasse 24, 3011 Bern",
      "contact:facebook": "https://www.facebook.com/Coiffeur-Likova-148170821922490/",
      "contact:phone": "+41 31 3110652",
      "name": "Likova",
      "opening_hours": "Mo-We,Fr 08:30-19:00; We 08:30-20:00; Sa 08:00-17:00; Su,PH off",
      "shop": "hairdresser",
      "website": "https://coiffeur-likova.ch"
    },
    "distance_to_station": 410.38528041073715
  },
  {
    "feature_type": "shops",
    "lat": 46.9492194,
    "lon": 7.4448593,
    "tags": {
      "check_date": "2023-09-22",
      "name": "Ballaloon",
      "opening_hours": "Mo 13:00-18:30; Tu-Fr 10:00-18:30; Sa 10:00-17:00",
      "shop": "party"
    },
    "distance_to_station": 416.21837735403636
  },
  {
    "feature_type": "shops",
    "lat": 46.9482017,
    "lon": 7.4449753,
    "tags": {
      "brand": "Flying Tiger Copenhagen",
      "brand:wikidata": "Q2786319",
      "check_date": "2022-10-21",
      "name": "Flying Tiger Copenhagen",
      "opening_hours": "Mo-We,Fr 09:00-19:00; Th 09:00-21:00; Sa 09:00-17:00",
      "shop": "variety_store",
      "short_name": "Flying Tiger"
    },
    "distance_to_station": 325.273417567113
  },
  {
    "feature_type": "shops",
    "lat": 46.9472102,
    "lon": 7.4466682,
    "tags": {
      "brand": "Marina Rinaldi",
      "brand:wikidata": "Q2349550",
      "clothes": "oversize;women",
      "name": "Marina Rinaldi",
      "shop": "clothes"
    },
    "distance_to_station": 156.3042314094111
  },
  {
    "feature_type": "shops",
    "lat": 46.9472063,
    "lon": 7.4465949,
    "tags": {
      "female": "yes",
      "male": "yes",
      "name": "Coiffeur Monica",
      "shop": "hairdresser"
    },
    "distance_to_station": 159.91958087755475
  },
  {
    "feature_type": "shops",
    "lat": 46.9478438,
    "lon": 7.4462032,
    "tags": {
      "alt_name": "Wohnzauber Puce et plus",
      "contact:addr": "Marktgasse-Passage 1, 3011 Bern",
      "contact:email": "info@puce-et-plus.ch",
      "contact:mobile": "+41 79 3307934",
      "name": "Puce et plus",
      "opening_hours": "Mo-Tu off; We-Fr 10:00-18:00; Sa 10:00-17:00; Su off",
      "operator": "Susanne Kramer",
      "shop": "furniture",
      "source": "survey and website",
      "website": "https://www.puce-et-plus.ch"
    },
    "distance_to_station": 232.6828093656555
  },
  {
    "feature_type": "shops",
    "lat": 46.9483679,
    "lon": 7.4477304,
    "tags": {
      "brand": "ALDI",
      "brand:wikidata": "Q41171672",
      "check_date": "2025-02-05",
      "name": "ALDI",
      "opening_hours": "Mo-Fr 08:00-20:00; Sa 07:30-18:00; Su,PH off",
      "phone": "+41 31 372 96 37",
      "shop": "supermarket",
      "website": "https://www.aldi-suisse.ch/",
      "wheelchair": "yes"
    },
    "distance_to_station": 242.68667500488758
  },
  {
    "feature_type": "shops",
    "lat": 46.949237,
    "lon": 7.4437741,
    "tags": {
      "name": "Bico",
      "opening_hours": "Tu-Fr 09:30-18:30; Sa 09:30-17:00",
      "shop": "bed"
    },
    "distance_to_station": 471.0311958426237
  },
  {
    "feature_type": "shops",
    "lat": 46.9489834,
    "lon": 7.4436348,
    "tags": {
      "brand": "Le Mouton",
      "name": "Le Mouton",
      "shop": "clothes"
    },
    "distance_to_station": 458.9955301129835
  },
  {
    "feature_type": "shops",
    "lat": 46.9489242,
    "lon": 7.4436021,
    "tags": {
      "shop": "vacant"
    },
    "distance_to_station": 456.43674631254214
  },
  {
    "feature_type": "shops",
    "lat": 46.9483652,
    "lon": 7.443024,
    "tags": {
      "check_date:opening_hours": "2024-02-29",
      "contact:city": "Bern",
      "contact:housenumber": "4",
      "contact:postcode": "3011",
      "contact:street": "Spitalgasse",
      "level": "1",
      "name": "doodah",
      "opening_hours": "Mo-Fr 10:00-19:00; Sa 09:00-18:00; Su,PH closed",
      "opening_hours:url": "https://doodah.ch/de/store/bern/doodah-bern",
      "phone": "+41 31 311 60 20",
      "shop": "sports",
      "sport": "skateboard;snowboard",
      "website": "https://doodah.ch/"
    },
    "distance_to_station": 454.3502103064417
  },
  {
    "feature_type": "shops",
    "lat": 46.9485283,
    "lon": 7.442661,
    "tags": {
      "brand": "Amplifon",
      "brand:wikidata": "Q477222",
      "email": "be.spitalgasse@amplifon.com",
      "name": "Amplifon",
      "opening_hours": "Mo-Fr 08:30-12:00,13:00-17:30; Sa \"nach Vereinbarung\"; Su,PH closed",
      "phone": "+41 31 311 04 08",
      "shop": "hearing_aids",
      "website": "https://www.amplifon.com/de-ch/filiale-finden/hoergeraete-bern/amplifon-bern-s550"
    },
    "distance_to_station": 487.3289457613457
  },
  {
    "feature_type": "shops",
    "lat": 46.9488088,
    "lon": 7.4443135,
    "tags": {
      "check_date:opening_hours": "2021-12-01",
      "email": "info@studiosounds.ch",
      "name": "studiosounds",
      "opening_hours": "Tu-Fr 10:00-18:30; Sa 10:00-17:00; Mo,Su,PH closed",
      "phone": "+41 31 311 49 49",
      "shop": "musical_instrument",
      "website": "https://studiosounds.ch/"
    },
    "distance_to_station": 408.3695438958684
  },
  {
    "feature_type": "shops",
    "lat": 46.9486723,
    "lon": 7.4443341,
    "tags": {
      "check_date:opening_hours": "2021-12-01",
      "email": "mail@aegerter-naehmaschinen.ch",
      "name": "Walter Aegerter",
      "opening_hours": "Mo 13:30-18:30; Tu-Fr 09:00-12:00,13:30-18:30; Sa 09:00-16:00; Su,PH closed",
      "phone": "+41 31 311 20 18",
      "shop": "sewing",
      "website": "http://www.aegerter-naehmaschinen.ch/"
    },
    "distance_to_station": 396.6029419117042
  },
  {
    "feature_type": "shops",
    "lat": 46.9483828,
    "lon": 7.4535004,
    "tags": {
      "addr:city": "Bern",
      "addr:housenumber": "60",
      "addr:postcode": "3011",
      "addr:street": "Gerechtigkeitsgasse",
      "check_date:opening_hours": "2025-02-22",
      "name": "K\u00fcchenladen",
      "opening_hours": "Tu-Fr 10:00-18:30; Sa 10:00-17:00",
      "operator": "maya manz",
      "phone": "+41 31 311 22 79",
      "shop": "houseware",
      "website": "https://www.kuechenladen.ch/"
    },
    "distance_to_station": 476.406894506235
  },
  {
    "feature_type": "shops",
    "lat": 46.9484826,
    "lon": 7.4461918,
    "tags": {
      "name": "TiNail's",
      "phone": "+41 31 311 12 92",
      "shop": "nail_salon",
      "website": "https://www.tinails.ch/"
    },
    "distance_to_station": 292.2378553723524
  },
  {
    "feature_type": "shops",
    "lat": 46.9483777,
    "lon": 7.4438543,
    "tags": {
      "check_date": "2023-03-10",
      "name": "Helen Kirchhofer",
      "opening_hours": "Mo-We,Fr 09:00-18:30; Th 09:00-20:00; Sa 09:00-17:00",
      "shop": "jewelry"
    },
    "distance_to_station": 403.1209743784592
  },
  {
    "feature_type": "shops",
    "lat": 46.9478312,
    "lon": 7.4508238,
    "tags": {
      "brand": "k kiosk",
      "brand:wikidata": "Q60381703",
      "name": "k kiosk",
      "opening_hours": "Mo-Fr 09:00-17:30",
      "shop": "newsagent"
    },
    "distance_to_station": 275.0459173607632
  },
  {
    "feature_type": "shops",
    "lat": 46.9478323,
    "lon": 7.4505608,
    "tags": {
      "brand": "Peter Hahn",
      "brand:wikidata": "Q2075416",
      "clothes": "women",
      "email": "bern@peterhahn.ch",
      "name": "Peter Hahn",
      "opening_hours": "Mo-Fr 10:00-18:00; Sa 10:00-16:00",
      "phone": "+41 31 311 68 58",
      "shop": "clothes",
      "website": "https://www.peterhahn.ch/filiale-bern"
    },
    "distance_to_station": 260.45620632149627
  },
  {
    "feature_type": "shops",
    "lat": 46.9482256,
    "lon": 7.4482651,
    "tags": {
      "check_date": "2022-08-19",
      "male": "yes",
      "name": "Bader Coiffeur",
      "opening_hours": "Mo-We 09:00-19:00; Th 09:00-21:00; Fr 09:00-12:00,13:15-19:00; Sa 09:00-17:00",
      "phone": "+41 76 358 98 18",
      "shop": "hairdresser"
    },
    "distance_to_station": 225.5848478623111
  },
  {
    "feature_type": "shops",
    "lat": 46.9474883,
    "lon": 7.4461579,
    "tags": {
      "check_date": "2022-08-19",
      "name": "FeinesLeben",
      "opening_hours": "Mo 12:30-18:30; Tu-Fr 10:00-12:00,12:30-18:30; Sa 09:00-17:00",
      "shop": "stationery",
      "website": "https://www.feinesleben.ch/"
    },
    "distance_to_station": 205.5612566617684
  },
  {
    "feature_type": "shops",
    "lat": 46.9476653,
    "lon": 7.4460707,
    "tags": {
      "check_date": "2025-07-11",
      "name": "SR Travel Services",
      "opening_hours": "Mo-Fr 09:00-12:00,13:00-17:00",
      "shop": "travel_agency"
    },
    "distance_to_station": 224.22555011685353
  },
  {
    "feature_type": "shops",
    "lat": 46.9486629,
    "lon": 7.4439392,
    "tags": {
      "addr:street": "Waisenhausplatz",
      "description": "Schuhe aus respektvoller Produktion",
      "name": "Companero's",
      "opening_hours": "Tu-Fr 09:30-18:30; Mo 12:00-18:30; Sa 09:30-17:00",
      "phone": "+41313118100",
      "shop": "shoes",
      "website": "https://www.comaneros.ch"
    },
    "distance_to_station": 418.0401320423978
  },
  {
    "feature_type": "shops",
    "lat": 46.9480347,
    "lon": 7.4432913,
    "tags": {
      "brand": "Gerry Weber",
      "brand:wikidata": "Q873447",
      "check_date": "2022-10-21",
      "levels": "1",
      "name": "Gerry Weber",
      "shop": "clothes"
    },
    "distance_to_station": 418.16838183095837
  },
  {
    "feature_type": "shops",
    "lat": 46.9480833,
    "lon": 7.4452975,
    "tags": {
      "email": "bluetenwerk@blumenbergmann.ch",
      "level": "-1",
      "name": "Blumen Bergmann",
      "opening_hours": "Mo-Fr 09:00-18:30; Sa 09:00-17:00",
      "phone": "+41 31 311 05 42",
      "shop": "florist",
      "website": "https://www.blumenbergmann.ch/",
      "wheelchair": "no"
    },
    "distance_to_station": 298.51471822572927
  },
  {
    "feature_type": "shops",
    "lat": 46.9480926,
    "lon": 7.4493792,
    "tags": {
      "contact:addr": "Kramgasse 62, 3011 Bern",
      "name": "Little Copenhagen",
      "shop": "clothes"
    },
    "distance_to_station": 231.76991807474465
  },
  {
    "feature_type": "shops",
    "lat": 46.9489751,
    "lon": 7.4497338,
    "tags": {
      "name": "N\u00e4hmaschinen Reparatur Werkstatt Caporali",
      "shop": "sewing"
    },
    "distance_to_station": 332.56702935800627
  },
  {
    "feature_type": "shops",
    "lat": 46.948398,
    "lon": 7.4506608,
    "tags": {
      "alt_name": "Haarundig",
      "female": "yes",
      "level": "1",
      "male": "yes",
      "name": "Haar&Ig",
      "opening_hours": "Mo-Tu,Th 09:00-18:30; We 11:00-20:30; Fr 08:00-17:30; Sa 09:30-15:30",
      "operator": "Soraya R\u00fcfenacht",
      "phone": "+41 76 5613126",
      "shop": "hairdresser",
      "website": "https://www.haarundig.ch/"
    },
    "distance_to_station": 312.28455073470366
  },
  {
    "feature_type": "shops",
    "lat": 46.9486716,
    "lon": 7.4501444,
    "tags": {
      "contact:addr": "Rathausgasse 30, 3011 Bern",
      "contact:phone": "+41 31 311 44 59",
      "name": "B\u00fccher-Brockenhaus Bern",
      "opening_hours": "Tu-Fr 14:00-18:30; Sa 09:00-12:00,14:00-16:00",
      "second_hand": "yes",
      "shop": "books",
      "website": "https://www.buecherbrockenhaus.ch/"
    },
    "distance_to_station": 315.6181657769042
  },
  {
    "feature_type": "shops",
    "lat": 46.9483062,
    "lon": 7.4425937,
    "tags": {
      "description": "Entrance inside Spitalgass-Passage 16/18",
      "level": "3",
      "name": "El Mundo",
      "opening_hours": "Mo 12:00-19:00; Tu-Fr 11:00-19:00; Sa 11:00-17:00",
      "phone": "+41313116114",
      "shop": "tattoo",
      "website": "https://www.el-mundo.ch/"
    },
    "distance_to_station": 479.12123801493175
  },
  {
    "feature_type": "shops",
    "lat": 46.948313,
    "lon": 7.4426716,
    "tags": {
      "beauty": "cosmetics",
      "contact:facebook": "Eden cosmetics bern",
      "level": "3",
      "name": "Eden Cosmetics",
      "phone": "+41 76 280 33 66",
      "shop": "beauty"
    },
    "distance_to_station": 474.3453427923958
  },
  {
    "feature_type": "shops",
    "lat": 46.9484778,
    "lon": 7.4439774,
    "tags": {
      "brand": "Audika",
      "brand:wikidata": "Q2870745",
      "level": "1",
      "name": "Audika",
      "opening_hours": "Mo-Fr 08:30-12:00,13:00-17:30",
      "shop": "hearing_aids"
    },
    "distance_to_station": 402.5976217255567
  },
  {
    "feature_type": "shops",
    "lat": 46.9486401,
    "lon": 7.4440755,
    "tags": {
      "name": "Plantiful",
      "opening_hours": "Th-Fr 12:00-18:00; Sa 11:00-16:00",
      "shop": "gift",
      "website": "https://plantifulbern.com/"
    },
    "distance_to_station": 408.5911635657945
  },
  {
    "feature_type": "shops",
    "lat": 46.9492581,
    "lon": 7.4434604,
    "tags": {
      "addr:housenumber": "5",
      "addr:street": "Aarbergergasse",
      "contact:email": "encore.kinderkleiderboerse@gmail.com",
      "name": "Encore Kinderb\u00f6rse",
      "opening_hours": "Mo-Fr 09:00-18:30; Sa 09:00-17:00",
      "phone": "022 559 87 87",
      "shop": "second_hand",
      "website": "https://www.encore-kinderkleiderboerse.com/"
    },
    "distance_to_station": 489.5573836865324
  },
  {
    "feature_type": "shops",
    "lat": 46.9471587,
    "lon": 7.4494842,
    "tags": {
      "addr:city": "Bern",
      "addr:housenumber": "30",
      "addr:postcode": "3011",
      "addr:street": "Herrengasse",
      "alt_name": "Buchhandlung Weyermann",
      "contact:addr": "Herrengasse 30, 3011 Bern",
      "contact:email": "info@queerbooks.ch",
      "contact:facebook": "https://www.facebook.com/queerbooks.ch/",
      "contact:instagram": "https://www.instagram.com/queerbooks.ch/",
      "contact:phone": "+41 31 3115959",
      "name": "QueerBooks",
      "operator": "Buchhandlung H. Weyermann Nachf. C. Gyr Reiss (Einzelunternehmen)",
      "shop": "books",
      "website": "https://www.queerbooks.ch"
    },
    "distance_to_station": 149.68267563705214
  },
  {
    "feature_type": "shops",
    "lat": 46.9480004,
    "lon": 7.4531497,
    "tags": {
      "addr:city": "Bern",
      "addr:housenumber": "63",
      "addr:postcode": "3011",
      "addr:street": "Gerechtigkeitsgasse",
      "clothes": "outdoor",
      "level": "-1",
      "name": "ST. VIR",
      "opening_hours": "Do 11:00-18:30; Sa 10:00-16:00; PH off",
      "operator": "ST. VIR Mosimann",
      "shop": "clothes",
      "website": "https://www.st-vir.com"
    },
    "distance_to_station": 432.45086282637135
  },
  {
    "feature_type": "shops",
    "lat": 46.9475748,
    "lon": 7.4472189,
    "tags": {
      "check_date": "2024-02-02",
      "name": "van Laack",
      "opening_hours": "Tu-Fr 09:30-18:30; Sa 09:00-17:00",
      "shop": "clothes"
    },
    "distance_to_station": 166.86221768161963
  },
  {
    "feature_type": "shops",
    "lat": 46.948123,
    "lon": 7.4469199,
    "tags": {
      "addr:city": "Bern",
      "addr:housenumber": "6",
      "addr:postcode": "3011",
      "addr:street": "Marktgasse",
      "contact:email": "info@zockbar.ch",
      "contact:instagram": "zockbar.ch",
      "contact:phone": "+41 77 511 22 43",
      "level": "4",
      "name": "Zockbar",
      "opening_hours": "Mo 10:00-12:00, 13:00-17:00; Th 10:00-12:00, 13:00-18:00; Fr 10:00-12:00, 13:00-17:00; ",
      "operator": "Zockbar Gottardi",
      "shop": "video_games",
      "website": "https://zockbar.ch/"
    },
    "distance_to_station": 231.83423737713676
  },
  {
    "feature_type": "shops",
    "lat": 46.947983,
    "lon": 7.4446511,
    "tags": {
      "addr:city": "Bern",
      "addr:housenumber": "55",
      "addr:postcode": "3011",
      "addr:street": "Marktgasse",
      "contact:instagram": "zweiblatt.ch",
      "contact:phone": "+41 31 311 93 50",
      "level": "-1",
      "name": "Zweiblatt Concept Store",
      "opening_hours": "Mo-Fr 09:30-18:30; Sa 09:30-17:00",
      "operator": "Ginkgo World GmbH",
      "shop": "clothes",
      "website": "https://www.zweiblatt.ch/"
    },
    "distance_to_station": 328.40417961879365
  },
  {
    "feature_type": "shops",
    "lat": 46.9478639,
    "lon": 7.4519999,
    "tags": {
      "name": "Modernika",
      "shop": "kitchen"
    },
    "distance_to_station": 349.1012403473426
  },
  {
    "feature_type": "shops",
    "lat": 46.9484255,
    "lon": 7.4518295,
    "tags": {
      "name": "Atelier Irmak",
      "shop": "carpet"
    },
    "distance_to_station": 376.0142900603184
  },
  {
    "feature_type": "shops",
    "lat": 46.948426,
    "lon": 7.4519094,
    "tags": {
      "name": "Feinwerk & Co.",
      "shop": "gift"
    },
    "distance_to_station": 380.6378927708406
  },
  {
    "feature_type": "shops",
    "lat": 46.9484286,
    "lon": 7.4519916,
    "tags": {
      "name": "k\u00fcche & raum",
      "shop": "gift"
    },
    "distance_to_station": 385.58531916433196
  },
  {
    "feature_type": "shops",
    "lat": 46.9483738,
    "lon": 7.4493808,
    "tags": {
      "name": "studio HUS",
      "shop": "clothes"
    },
    "distance_to_station": 260.5361546612368
  },
  {
    "feature_type": "shops",
    "lat": 46.9483647,
    "lon": 7.4439958,
    "tags": {
      "level": "1",
      "name": "Coiffure Italy",
      "shop": "hairdresser",
      "wheelchair": "no"
    },
    "distance_to_station": 393.7008921351858
  },
  {
    "feature_type": "shops",
    "lat": 46.9475783,
    "lon": 7.4476313,
    "tags": {
      "clothes": "luxury",
      "clothes:gender": "men",
      "name": "Pelikamo",
      "shop": "clothes"
    },
    "distance_to_station": 157.33558928932501
  },
  {
    "feature_type": "shops",
    "lat": 46.9491003,
    "lon": 7.4431303,
    "tags": {
      "email": "sales@worldofvape.ch",
      "name": "World of Wape",
      "opening_hours": "Mo-Fr 10:00-19:00; Sa 09:00-17:00; Su,PH closed",
      "operator": "Fourtwenty GmbH",
      "phone": "+41 31 503 43 43",
      "shop": "e-cigarette",
      "website": "https://worldofvape.ch/"
    },
    "distance_to_station": 496.3055933551368
  },
  {
    "feature_type": "shops",
    "lat": 46.9490294,
    "lon": 7.4430868,
    "tags": {
      "name": "Issa",
      "phone": "+41 31 311 41 40",
      "shop": "hairdresser"
    },
    "distance_to_station": 493.7599325645761
  },
  {
    "feature_type": "shops",
    "lat": 46.9478428,
    "lon": 7.4462961,
    "tags": {
      "addr:housenumber": "19",
      "addr:street": "Marktgasse",
      "amenity": "cafe",
      "level": "-1",
      "name": "Friend or Foe Specialty Coffee Market",
      "opening_hours": "Tu-Fr 07:00-16:00; Sa 09:00-17:00",
      "shop": "coffee",
      "wheelchair": "no"
    },
    "distance_to_station": 228.29717038797844
  },
  {
    "feature_type": "shops",
    "lat": 46.9486002,
    "lon": 7.4502099,
    "tags": {
      "name": "Carr\u00e9",
      "opening_hours": "Mo-Fr,Su 10:00-12:30,13:30-18:30; Sa 10:00-17:00",
      "shop": "fabric",
      "wheelchair": "limited"
    },
    "distance_to_station": 311.2586034378361
  },
  {
    "feature_type": "shops",
    "lat": 46.9456297,
    "lon": 7.4446343,
    "tags": {
      "check_date": "2024-10-23",
      "name": "Beauty Bern",
      "shop": "beauty",
      "website": "https://www.beautybern.ch"
    },
    "distance_to_station": 270.62127510653465
  },
  {
    "feature_type": "shops",
    "lat": 46.9485999,
    "lon": 7.4502916,
    "tags": {
      "email": "32tattoo@bluewin.ch",
      "name": "32 Tattoo",
      "opening_hours": "Mo-Fr 12:00-18:30; Sa 12:00-17:00; Su,PH closed",
      "phone": "+41 31 311 00 67",
      "shop": "tattoo",
      "website": "https://32tattoo.com/"
    },
    "distance_to_station": 314.4664531332261
  },
  {
    "feature_type": "shops",
    "lat": 46.948363,
    "lon": 7.4535147,
    "tags": {
      "name": "K\u00fcchenladen",
      "shop": "houseware"
    },
    "distance_to_station": 476.22562827620453
  },
  {
    "feature_type": "shops",
    "lat": 46.9481237,
    "lon": 7.4488705,
    "tags": {
      "name": "feinedinge",
      "opening_hours": "Mo-Fr 10:00-19:00; Sa 09:00-18:00; Su,PH closed",
      "operator": "SF Retail AG",
      "phone": "+41 31 523 79 93",
      "shop": "gift",
      "website": "https://feinedinge.ch/"
    },
    "distance_to_station": 221.7578358006046
  },
  {
    "feature_type": "shops",
    "lat": 46.9478902,
    "lon": 7.4471179,
    "tags": {
      "level": "-1",
      "name": "Royal",
      "shop": "hairdresser",
      "wheelchair": "no"
    },
    "distance_to_station": 202.18787286416256
  },
  {
    "feature_type": "shops",
    "lat": 46.9478825,
    "lon": 7.4470346,
    "tags": {
      "clothes": "shirts",
      "level": "-1",
      "name": "ComeBack",
      "opening_hours": "Mo-Fr 10:00-18:30; Sa 10:00-17:00; Su,PH closed",
      "phone": "+41 31 311 86 00",
      "shop": "clothes",
      "website": "https://www.speziellehemden.ch/",
      "wheelchair": "no"
    },
    "distance_to_station": 203.81766193628323
  },
  {
    "feature_type": "shops",
    "lat": 46.9478637,
    "lon": 7.446824,
    "tags": {
      "level": "-1",
      "name": "Casalucis",
      "shop": "clothes",
      "wheelchair": "no"
    },
    "distance_to_station": 208.8186074158261
  },
  {
    "feature_type": "shops",
    "lat": 46.9481175,
    "lon": 7.447869,
    "tags": {
      "brand": "Jacadi",
      "brand:wikidata": "Q3157058",
      "clothes": "children",
      "name": "Jacadi",
      "opening_hours": "Mo 13:30-18:30; Tu-Fr 10:00-18:30; Sa 09:30-17:00; Su,PH closed",
      "operator": "BOBINO AG",
      "shop": "clothes",
      "website": "https://www.jacadi.ch/"
    },
    "distance_to_station": 213.9361118300568
  },
  {
    "feature_type": "shops",
    "lat": 46.9480497,
    "lon": 7.4493006,
    "tags": {
      "addr:housenumber": "64",
      "addr:street": "Kramgasse",
      "shop": "convenience"
    },
    "distance_to_station": 224.964744629685
  },
  {
    "feature_type": "shops",
    "lat": 46.9482343,
    "lon": 7.4445429,
    "tags": {
      "addr:city": "Bern",
      "addr:housenumber": "52",
      "addr:postcode": "3011",
      "addr:street": "Marktgasse",
      "level": "3",
      "name": "augenwerk",
      "opening_hours": "Mo-Fr 09:00-18:30; Sa 9:00-16:00",
      "operator": "Augenwerk GmbH",
      "shop": "optician",
      "website": "https://www.augenwerk.ch"
    },
    "distance_to_station": 352.2470724379227
  },
  {
    "feature_type": "shops",
    "lat": 46.9428177,
    "lon": 7.4504873,
    "tags": {
      "addr:housenumber": "7",
      "addr:postcode": "3005",
      "addr:street": "Helvetiastrasse",
      "email": "hello@julesunique.ch",
      "name": "Jules Unique",
      "opening_hours": "Mo-Fr 09:00-12:00, 13:00-18:00; Sa 10:00-16:00",
      "phone": "+41 79 943 51 50",
      "shop": "clothes",
      "website": "https://julesunique.ch/de/pages/laden-in-bern"
    },
    "distance_to_station": 417.4815328608938
  },
  {
    "feature_type": "shops",
    "lat": 46.9474022,
    "lon": 7.4460601,
    "tags": {
      "check_date": "2025-07-11",
      "clothes": "women",
      "name": "Colora",
      "shop": "clothes"
    },
    "distance_to_station": 204.5684555561033
  }
]