[
  {
    "feature_type": "shops",
    "lat": 46.9418883,
    "lon": 7.4313148,
    "tags": {
      "addr:city": "Bern",
      "addr:housenumber": "67",
      "addr:postcode": "3007",
      "addr:street": "Belpstrasse",
      "check_date:opening_hours": "2025-05-25",
      "email": "mail@dieschublade.ch",
      "name": "Schublade",
      "opening_hours": "Tu-Fr 10:00-18:30; Sa 10:00-16:00",
      "outdoor_seating": "yes",
      "phone": "+41 31 974 12 20",
      "shop": "gift",
      "website": "http://www.dieschublade.ch/"
    },
    "distance_to_station": 347.05917650180686
  },
  {
    "feature_type": "shops",
    "lat": 46.9416675,
    "lon": 7.4312027,
    "tags": {
      "alt_name": "Kost\u00fcmverleih H\u00e4xeb\u00e4se",
      "check_date": "2022-09-09",
      "contact:addr": "Belpstrasse 71, 3007 Bern",
      "contact:email": "info@h\u00e4xeb\u00e4se.ch",
      "contact:fax": "+41 31 3713085",
      "contact:phone": "+41 31 3713080",
      "name": "H\u00e4xeb\u00e4se",
      "opening_hours": "We-Fr 14:00-18:00; Sa 11:00-14:00",
      "operator": "Janine Chevalier & Manuela Pieren",
      "shop": "clothes",
      "source": "website and survey",
      "website": "https://www.haexebaese.ch/"
    },
    "distance_to_station": 364.80692171843384
  },
  {
    "feature_type": "shops",
    "lat": 46.9414543,
    "lon": 7.4311601,
    "tags": {
      "contact:addr": "Belpstrasse 71, 3007 Bern",
      "contact:email": "info@hairness-coiffeur.ch",
      "contact:phone": "+41 31 3710080",
      "name": "Hairness",
      "opening_hours": "Mo off; Tu-Fr 09:00-18:00; Sa 08:00-13:00; Su off",
      "operator": "Hairness Bern GmbH",
      "shop": "hairdresser",
      "source": "survey and website",
      "website": "http://www.hairness-coiffeur.ch"
    },
    "distance_to_station": 384.8614391736923
  },
  {
    "feature_type": "shops",
    "lat": 46.9410386,
    "lon": 7.4306277,
    "tags": {
      "addr:city": "Bern",
      "addr:country": "CH",
      "addr:housenumber": "1",
      "addr:postcode": "3007",
      "addr:street": "Tscharnerstrasse",
      "contact:email": "info@reproexpress.ch",
      "contact:fax": "+41 31 3711716",
      "contact:phone": "+41 31 3717060",
      "contact:website": "http://www.reproexpress.ch/kontakt",
      "name": "repro express",
      "opening_hours": "Mo-Fr 07:30-12:00,13:30-17:30, Sa-Su off",
      "operator": "repro express gmbh",
      "shop": "stationery",
      "website": "http://www.reproexpress.ch"
    },
    "distance_to_station": 414.14210426941935
  },
  {
    "feature_type": "shops",
    "lat": 46.9414294,
    "lon": 7.43059,
    "tags": {
      "addr:city": "Bern",
      "addr:country": "CH",
      "addr:housenumber": "2",
      "addr:postcode": "3007",
      "addr:street": "Eigerplatz",
      "alt_name": "L\u00f6wen Garage",
      "contact:email": "info.eigerplatz@loewen-garage.ch",
      "contact:fax": "+41 31 3720803",
      "contact:phone": "+41 31 3874242",
      "name": "L\u00f6wen-Garage",
      "opening_hours": "Mo-Fr 07:00-12:00, 13:00-18:00; Sa-Su off",
      "operator": "L\u00f6wen-Garage AG",
      "shop": "car_repair",
      "source": "website",
      "website": "http://www.loewen-garage.ch/eigerplatz"
    },
    "distance_to_station": 371.79657501307014
  },
  {
    "feature_type": "shops",
    "lat": 46.9410888,
    "lon": 7.4313753,
    "tags": {
      "brand": "Coop",
      "brand:wikidata": "Q432564",
      "check_date:opening_hours": "2021-08-25",
      "contact:addr": "Eigerplatz 5a, 3007 Bern",
      "contact:phone": "+41 31 370 1130",
      "level": "1",
      "name": "Coop",
      "opening_hours": "Mo-Fr 07:00-20:00; Sa 07:00-17:00; Su off; PH off",
      "shop": "supermarket",
      "wheelchair": "yes"
    },
    "distance_to_station": 428.6295583157958
  },
  {
    "feature_type": "shops",
    "lat": 46.9412958,
    "lon": 7.4317429,
    "tags": {
      "addr:city": "Bern",
      "addr:housenumber": "61",
      "addr:postcode": "3007",
      "addr:street": "M\u00fchlemattstrasse",
      "name": "Bikeline",
      "opening_hours": "Mar-Oct: Tu-Fr 08:00-12:00,13:30-18:30; Mar-Oct: Sa 09:00-16:00; Nov-Feb: Tu-Fr 09:00-12:00,13:30-18:30; Nov-Feb: Sa 09:00-14:00",
      "phone": "+41 31 376 10 76",
      "service:bicycle:pump": "yes",
      "service:bicycle:repair": "yes",
      "service:bicycle:retail": "yes",
      "shop": "bicycle",
      "website": "https://bikeline.ch"
    },
    "distance_to_station": 420.4340048844927
  },
  {
    "feature_type": "shops",
    "lat": 46.9417176,
    "lon": 7.4321487,
    "tags": {
      "alt_name": "Coiffure Hair Looks",
      "contact:addr": "M\u00fchlemattstrasse 53, 3007 Bern",
      "contact:email": "hairlooks@gmx.ch",
      "contact:mobile": "+41 76 5707228",
      "contact:phone": "+41 31 3715129",
      "name": "Hair Looks",
      "operator": "Brigitte Scaglia",
      "shop": "hairdresser",
      "website": "http://www.hairlooks.ch"
    },
    "distance_to_station": 397.2918448059255
  },
  {
    "feature_type": "shops",
    "lat": 46.9420189,
    "lon": 7.4315957,
    "tags": {
      "addr:city": "Bern",
      "addr:housenumber": "5",
      "addr:postcode": "3007",
      "addr:street": "Philosophenweg",
      "check_date": "2025-05-26",
      "check_date:opening_hours": "2025-05-26",
      "contact:addr": "Philosophenweg 5, 3007 Bern",
      "name": "Trallala",
      "opening_hours": "Tu-Fr 11:30-19:30; Sa 11:00-17:00",
      "shop": "wine",
      "source": "survey"
    },
    "distance_to_station": 345.8106666756303
  },
  {
    "feature_type": "shops",
    "lat": 46.9410319,
    "lon": 7.431745,
    "tags": {
      "name": "Pana Ammata",
      "shop": "clothes"
    },
    "distance_to_station": 446.4425247661645
  },
  {
    "feature_type": "shops",
    "lat": 46.9410252,
    "lon": 7.4273346,
    "tags": {
      "alt_name": "Bluewave Hair-& Nail Design",
      "contact:addr": "C\u00e4cilienstrasse 17, 3007 Bern",
      "contact:instagram": "https://www.instagram.com/bluewave_hairdesign/",
      "contact:phone": "+41 31 3721626",
      "name": "Blue Wave",
      "operator": "Stefanie Schneider",
      "shop": "hairdresser",
      "website": "https://www.bluewavebern.ch"
    },
    "distance_to_station": 419.78508732711134
  },
  {
    "feature_type": "shops",
    "lat": 46.9408777,
    "lon": 7.4276979,
    "tags": {
      "name": "Wiafol",
      "shop": "hairdresser"
    },
    "distance_to_station": 427.82810066234055
  },
  {
    "feature_type": "shops",
    "lat": 46.9408258,
    "lon": 7.4287046,
    "tags": {
      "clothes": "maternity",
      "contact:addr": "Hopfenweg 30, 3007 Bern",
      "contact:phone": "+41 31 371 11 10",
      "name": "9months",
      "opening_hours": "Tu-Fr 10:00-12:30,13:30-18:30; Sa 10:00-16:00",
      "shop": "clothes",
      "website": "https://www.9months.ch/bern/"
    },
    "distance_to_station": 421.5836461657295
  },
  {
    "feature_type": "shops",
    "lat": 46.9417183,
    "lon": 7.4255085,
    "tags": {
      "check_date": "2022-09-09",
      "contact:addr": "Brunnmattstrasse 57, 3007 Bern",
      "name": "LOLA im Mattenhof",
      "opening_hours": "Mo,Tu,Th,Fr 08:00-13:00,15:00-19:00; We 15:00-19:00; Sa 08:00-17:00; Su 08:30-12:30",
      "operator": "CONTACT, Stiftung f\u00fcr Suchthilfe",
      "payment:mastercard": "yes",
      "payment:visa": "yes",
      "phone": "+41 31 371 97 22",
      "shop": "convenience",
      "source:opening_hours": "https://i.imgur.com/Y6g7f1d.jpg",
      "website": "http://lorraineladen.ch",
      "wheelchair": "yes"
    },
    "distance_to_station": 420.19670177161834
  },
  {
    "feature_type": "shops",
    "lat": 46.9428189,
    "lon": 7.4262431,
    "tags": {
      "check_date": "2025-05-10",
      "name": "Anas Coiffeur",
      "shop": "hairdresser"
    },
    "distance_to_station": 292.9055812813174
  },
  {
    "feature_type": "shops",
    "lat": 46.9428474,
    "lon": 7.4262711,
    "tags": {
      "check_date": "2023-04-28",
      "contact:addr": "Brunnmattstrasse 48, 3007 Bern",
      "contact:facebook": "https://www.facebook.com/PinkCostura-1541804862739785/",
      "contact:mobile": "+41 77 9707189",
      "name": "Pink Costura",
      "opening_hours": "Mo 14:00-18:00; Tu-Fr 10:00-12:00,13:30-18:00",
      "operator": "Pink Costura Inh. do Carmo Santa Barbara (Einzelunternehmen)",
      "shop": "tailor",
      "website": "https://pinkcostura.business.site"
    },
    "distance_to_station": 289.1940065791554
  },
  {
    "feature_type": "shops",
    "lat": 46.9429555,
    "lon": 7.426345,
    "tags": {
      "check_date": "2023-04-28",
      "contact:addr": "Brunnmattstrasse 46, 3007 Bern",
      "name": "Lusolatinos",
      "opening_hours": "Tu-Fr 16:00-19:00; Sa 09:00-17:00; Su 09:00-14:00",
      "operator": "Lusolatinos 2.0 GmbH",
      "shop": "convenience"
    },
    "distance_to_station": 276.9714384690746
  },
  {
    "feature_type": "shops",
    "lat": 46.9429294,
    "lon": 7.4305267,
    "tags": {
      "name": "Bo Asian GmbH",
      "opening_hours": "Mo 11:00-19:00; Tu-Th 09:00-19:00; Fr 09:00-20:00; Sa 09:00-17:00; Su 10:00-17:00",
      "payment:american_express": "yes",
      "payment:maestro": "yes",
      "payment:twint": "yes",
      "payment:visa": "yes",
      "shop": "convenience",
      "wheelchair": "limited"
    },
    "distance_to_station": 216.8771400756743
  },
  {
    "feature_type": "shops",
    "lat": 46.9430855,
    "lon": 7.4316449,
    "tags": {
      "alt_name": "Coiffure Hair",
      "check_date": "2024-12-04",
      "contact:addr": "Belpstrasse 40, 3007 Bern",
      "contact:phone": "+41 31 3817170",
      "name": "Hair",
      "opening_hours": "Mo 14:00-18:00; Tu-Th 09:00-18:00; Fr 09:00-13:00",
      "operator": "Regula Gilgen",
      "shop": "hairdresser",
      "source": "survey"
    },
    "distance_to_station": 258.4266660765146
  },
  {
    "feature_type": "shops",
    "lat": 46.9437231,
    "lon": 7.431094,
    "tags": {
      "contact:addr": "Belpstrasse 30a, 3007 Bern",
      "contact:email": "info@autograedelag.ch",
      "contact:fax": "+41 31 3320925",
      "contact:phone": "+41 31 3318824",
      "craft": "car_repair",
      "name": "Gr\u00e4del",
      "opening_hours": "Mo-Th 07:30-12:00, 13:15-17:30; Fr 07:30-12:00, 13:15-16:15; Sa-Su off; PH off",
      "operator": "Auto Gr\u00e4del AG",
      "shop": "car",
      "source": "Survey and website",
      "website": "http://www.autograedelag.ch"
    },
    "distance_to_station": 182.25464215115173
  },
  {
    "feature_type": "shops",
    "lat": 46.9435908,
    "lon": 7.4319498,
    "tags": {
      "check_date": "2025-05-02",
      "contact:addr": "Belpstrasse 28, 3007 Bern",
      "contact:email": "info.lebread@gmail.com",
      "contact:instagram": "https://www.instagram.com/lebreadsourdough",
      "description:en": "Sourdough Bakery & Coffee",
      "name": "le bread",
      "opening_hours": "Mo-Sa 08:30-16:30; Su 08:30-14:30",
      "shop": "bakery",
      "website": "https://www.lebread.ch"
    },
    "distance_to_station": 245.92194587260423
  },
  {
    "feature_type": "shops",
    "lat": 46.944952,
    "lon": 7.426814,
    "tags": {
      "addr:city": "Bern",
      "addr:housenumber": "22-24",
      "addr:street": "Brunnmattstrasse",
      "atm": "no",
      "brand": "Denner",
      "brand:wikidata": "Q379911",
      "brand:wikipedia": "en:Denner (supermarket)",
      "cash_withdrawal": "migros_bank;postfinance_card",
      "cash_withdrawal:fee": "no",
      "cash_withdrawal:purchase_required": "no",
      "cash_withdrawal:type": "checkout",
      "check_date": "2022-08-17",
      "name": "Denner",
      "opening_hours": "Mo-Fr 07:00-20:00; Sa 08:00-17:00",
      "payment:american_express": "yes",
      "payment:contactless": "yes",
      "payment:diners_club": "yes",
      "payment:jcb": "yes",
      "payment:maestro": "yes",
      "payment:mastercard": "yes",
      "payment:postfinance_card": "yes",
      "payment:visa": "yes",
      "shop": "supermarket",
      "source": "Website",
      "wheelchair": "yes"
    },
    "distance_to_station": 175.7492836556452
  },
  {
    "feature_type": "shops",
    "lat": 46.9455689,
    "lon": 7.4277055,
    "tags": {
      "check_date": "2025-05-10",
      "shop": "vacant"
    },
    "distance_to_station": 148.9568613730582
  },
  {
    "feature_type": "shops",
    "lat": 46.9455578,
    "lon": 7.4275497,
    "tags": {
      "check_date": "2023-01-04",
      "name": "Haute Couture M. Schneeberger",
      "opening_hours": "Mo-Fr 08:30-12:00,13:30-18:30; Sa 09:00-12:00",
      "shop": "clothes"
    },
    "distance_to_station": 156.598884796097
  },
  {
    "feature_type": "shops",
    "lat": 46.9456436,
    "lon": 7.4287466,
    "tags": {
      "shop": "vacant"
    },
    "distance_to_station": 117.71650253110258
  },
  {
    "feature_type": "shops",
    "lat": 46.9456298,
    "lon": 7.4285551,
    "tags": {
      "alt_name": "Verwandelbar Hairstyle & Make-up",
      "contact:addr": "Effingerstrasse 55, 3008 Bern",
      "contact:phone": "+41 31 3827282",
      "name": "Verwandelbar",
      "opening_hours": "Mo,Th 08:00-18:00; Tu 09:00-20:00; We 11:00-20:00; Fr 08:00-20:00; Sa 08:00-16:00",
      "operator": "Verwandelbar GmbH",
      "shop": "hairdresser",
      "website": "https://www.verwandelbar.ch/"
    },
    "distance_to_station": 120.16706232461702
  },
  {
    "feature_type": "shops",
    "lat": 46.9457299,
    "lon": 7.4305133,
    "tags": {
      "alt_name": "Brechb\u00fchl Bern Inhaber Thomas Vogel",
      "brand": "Vespa;Piaggio;Gilera",
      "check_date": "2025-04-13",
      "check_date:opening_hours": "2025-04-13",
      "contact:addr": "Effingerstrasse 41, 3008 Bern",
      "contact:email": "info@motosvogel.ch",
      "contact:phone": "+41 31 3817525",
      "craft": "motorcycle_repair",
      "name": "Piaggio-Center",
      "opening_hours": "Mo-Fr 08:00-12:00, Mo,Tu,Th,Fr 13:00-18:00",
      "shop": "motorcycle",
      "website": "https://www.motosvogel.ch/"
    },
    "distance_to_station": 165.770572398512
  },
  {
    "feature_type": "shops",
    "lat": 46.9457741,
    "lon": 7.4313873,
    "tags": {
      "alt_name": "Ortho Team",
      "check_date:opening_hours": "2025-04-13",
      "contact:addr": "Effingerstrasse 37, 3008 Bern",
      "contact:facebook": "https://www.facebook.com/ORTHOTEAMS/",
      "contact:instagram": "https://www.instagram.com/ortho_team_gruppe/",
      "email": "info@ortho-team.ch",
      "name": "Ortho-Team",
      "opening_hours": "Mo-Fr 08:00-18:00",
      "operator": "Ortho-Team AG",
      "phone": "+41 31 3888989",
      "shop": "medical_supply",
      "website": "https://www.ortho-team.ch/standorte/bern/",
      "wheelchair": "yes"
    },
    "distance_to_station": 218.244772798127
  },
  {
    "feature_type": "shops",
    "lat": 46.9458017,
    "lon": 7.4273669,
    "tags": {
      "contact:addr:full": "Brunnmattstrasse 17, 3007 Bern",
      "contact:email": "info@jovis-gf-baeckerei.com",
      "diet:gluten_free": "only",
      "name": "Jovi's glutenfreie B\u00e4ckerei",
      "opening_hours": "Tu-Fr 07:30-17:30; Sa 08:00-14:00",
      "phone": "+41 31 381 17 46",
      "shop": "bakery",
      "website": "https://www.jovis-glutenfreiebaeckerei.ch",
      "wheelchair": "no"
    },
    "distance_to_station": 185.43517036067834
  },
  {
    "feature_type": "shops",
    "lat": 46.9457975,
    "lon": 7.4274818,
    "tags": {
      "name": "Ivano Melena",
      "shop": "hairdresser"
    },
    "distance_to_station": 179.10353737494114
  },
  {
    "feature_type": "shops",
    "lat": 46.9458293,
    "lon": 7.4279324,
    "tags": {
      "contact:addr": "Effingerstrasse 88, 3008 Bern",
      "contact:email": "info@loosli-reisen.ch",
      "contact:facebook": "http://www.facebook.com/pages/Loosli-Reisen-Bern/155186414503131",
      "contact:fax": "+41 31 3822610",
      "contact:phone": "+41 31 3811931",
      "name": "Loosli Reisen",
      "opening_hours": "Mo-Fr 08:30-18:00; Sa-Su off",
      "operator": "Loosli Reisen (Einzelunternehmen)",
      "shop": "travel_agency",
      "source": "survey and website",
      "website": "https://www.loosli-reisen.ch/"
    },
    "distance_to_station": 161.01882100315956
  },
  {
    "feature_type": "shops",
    "lat": 46.9444705,
    "lon": 7.4236567,
    "tags": {
      "addr:housenumber": "115 A",
      "addr:street": "Schwarztorstrasse",
      "check_date": "2023-08-05",
      "contact:facebook": "blaukreuzbrocki.bern",
      "contact:instagram": "blaukreuzbrocki.bern",
      "email": "bern@blaukreuz-brocki.ch",
      "name": "BrockiShop",
      "opening_hours": "Mo-Fr 10:00-18:00; Sa 10:00-17:00",
      "operator": "Blaues Kreuz",
      "phone": "+41 31 382 62 63",
      "second_hand": "only",
      "shop": "second_hand",
      "website": "https://www.blaukreuz-brocki.ch/standorte/blaukreuz-brocki-bern"
    },
    "distance_to_station": 411.5257204894954
  },
  {
    "feature_type": "shops",
    "lat": 46.9447627,
    "lon": 7.4226359,
    "tags": {
      "addr:city": "Bern",
      "addr:country": "CH",
      "addr:housenumber": "111",
      "addr:postcode": "3008",
      "addr:street": "Effingerstrasse",
      "brand": "Matratzen Concord",
      "brand:wikidata": "Q18629057",
      "brand:wikipedia": "de:Matratzen Concord",
      "check_date": "2023-08-05",
      "contact:fax": "+41 31 3811730",
      "contact:phone": "+41 31 3811730",
      "name": "Matratzen Concord",
      "opening_hours": "Mo-Fr 09:00-12:00, 13:00-18:30; Sa 09:00-17:00; Su off",
      "operator": "Matratzen Concord (Schweiz) AG",
      "shop": "bed",
      "source": "survey and website",
      "website": "https://www.matratzen-concord.ch"
    },
    "distance_to_station": 489.02890435242335
  },
  {
    "feature_type": "shops",
    "lat": 46.9452633,
    "lon": 7.423602,
    "tags": {
      "addr:city": "Bern",
      "addr:housenumber": "103",
      "addr:postcode": "3008",
      "addr:street": "Effingerstrasse",
      "alt_name": "Krea Velo",
      "check_date": "2023-09-27",
      "contact:addr": "Effingerstrasse 103, 3008 Bern",
      "contact:email": "info@velokrea.ch",
      "contact:mobile": "+41 77 418 77 46",
      "contact:phone": "+41 31 381 19 00",
      "contact:website": "https://www.velokrea.ch/",
      "email": "info@velokrea.ch",
      "name": "VeloKrea",
      "opening_hours": "Tu-Fr 08:00-12:00,14:00-18:00",
      "service:bicycle:repair": "yes",
      "service:bicycle:retail": "yes",
      "shop": "bicycle"
    },
    "distance_to_station": 421.71486098371554
  },
  {
    "feature_type": "shops",
    "lat": 46.9440505,
    "lon": 7.4233375,
    "tags": {
      "name": "Garage El Cid",
      "opening_hours": "Mo-Fr 08:00-12:00,13:30-18:00",
      "shop": "car_repair"
    },
    "distance_to_station": 439.8743290976835
  },
  {
    "feature_type": "shops",
    "lat": 46.9439319,
    "lon": 7.4234026,
    "tags": {
      "name": "Garage Rohrbach",
      "shop": "car_repair"
    },
    "distance_to_station": 437.05992535886975
  },
  {
    "feature_type": "shops",
    "lat": 46.9481823,
    "lon": 7.4275991,
    "tags": {
      "brand": "k kiosk",
      "brand:wikidata": "Q60381703",
      "cash_withdrawal": "yes",
      "cash_withdrawal:fee": "no",
      "cash_withdrawal:operator": "sonect",
      "cash_withdrawal:purchase_required": "no",
      "cash_withdrawal:type": "checkout",
      "name": "k kiosk",
      "operator": "Valora Schweiz AG",
      "shop": "newsagent"
    },
    "distance_to_station": 412.82512551005635
  },
  {
    "feature_type": "shops",
    "lat": 46.9483062,
    "lon": 7.4272695,
    "tags": {
      "check_date": "2023-03-14",
      "name": "Frischmarket Panini Express",
      "opening_hours": "Mo-Fr 07:00-17:00",
      "phone": "+41 31 381 07 18",
      "shop": "convenience"
    },
    "distance_to_station": 433.3489441014265
  },
  {
    "feature_type": "shops",
    "lat": 46.9482631,
    "lon": 7.4273942,
    "tags": {
      "contact:addr": "Murtenstrasse 1, 3008 Bern",
      "contact:phone": "+41 31 3815484",
      "name": "Cutwalk Coiffeur",
      "opening_hours": "Mo off; Tu-Fr 09:00-18:00; Sa 10:00-14:00; Su off",
      "shop": "hairdresser"
    },
    "distance_to_station": 425.8755634852251
  },
  {
    "feature_type": "shops",
    "lat": 46.9456756,
    "lon": 7.4354711,
    "tags": {
      "contact:addr": "Effingerstrasse 13, 3011 Bern",
      "shop": "vacant"
    },
    "distance_to_station": 499.90589272469606
  },
  {
    "feature_type": "shops",
    "lat": 46.9456424,
    "lon": 7.4354701,
    "tags": {
      "alt_name": "Wax Inn Studio Bern",
      "contact:addr": "Effingerstrasse 13, 3011 Bern",
      "contact:email": "studiobern@wax-inn.ch",
      "contact:phone": "+41 31 3813929",
      "name": "Wax Inn",
      "old_name": "cinema&sound",
      "opening_hours": "Tu-Fr 10:00-19:00; Sa 09:00-17:00; Mo off; Su off",
      "operator": "Wax Inn GmbH",
      "shop": "cosmetics",
      "source": "survey and website",
      "website": "https://www.wax-inn.ch/de/studio-bern"
    },
    "distance_to_station": 498.9690561540043
  },
  {
    "feature_type": "shops",
    "lat": 46.9413753,
    "lon": 7.4318474,
    "tags": {
      "alt_name": "Coiffeur Lord",
      "contact:addr": "M\u00fchlemattstrasse 59, 3007 Bern",
      "contact:phone": "+41 31 3719066",
      "name": "Lord",
      "shop": "hairdresser"
    },
    "distance_to_station": 416.6623163432798
  },
  {
    "feature_type": "shops",
    "lat": 46.9415601,
    "lon": 7.4315832,
    "tags": {
      "check_date": "2025-04-08",
      "email": "info@eigerplatzbrocki.ch",
      "name": "Brocki am Eigerplatz",
      "opening_hours": "Mo-Fr 08:00-18:30; Sa 09:00-16:00",
      "phone": "+41 31 371 30 00",
      "shop": "second_hand",
      "website": "https://www.eigerplatzbrocki.ch/",
      "wheelchair": "no"
    },
    "distance_to_station": 388.85632296885774
  },
  {
    "feature_type": "shops",
    "lat": 46.9414404,
    "lon": 7.4318905,
    "tags": {
      "check_date": "2022-11-11",
      "clothes": "children",
      "name": "lou & mou",
      "opening_hours": "Th-Fr 11:00-17:00; Sa 10:00-14:00",
      "second_hand": "only",
      "shop": "clothes"
    },
    "distance_to_station": 412.12010018592235
  },
  {
    "feature_type": "shops",
    "lat": 46.941637,
    "lon": 7.4316345,
    "tags": {
      "check_date": "2025-04-08",
      "fax": "+41 31 3116201",
      "name": "Take Five",
      "opening_hours": "Th-Fr 12:00-18:30; Sa 10:00-16:00; PH off",
      "operator": "Umberto Eleganti",
      "phone": "+41 31 311 61 60",
      "shop": "music",
      "website": "https://www.takefive.ch/",
      "wheelchair": "no"
    },
    "distance_to_station": 383.38455618603
  },
  {
    "feature_type": "shops",
    "lat": 46.9429504,
    "lon": 7.4319617,
    "tags": {
      "contact:addr": "Belpstrasse 45, 3007 Bern",
      "contact:email": "shop@natelspycher.ch",
      "contact:fax": "+41 31 3817021",
      "contact:phone": "+41 31 3817060",
      "name": "Natel Spycher",
      "opening_hours": "Mo-Fr 08:00-12:00, 13:00-18:00; Sa 09:00-12:00; Su off",
      "shop": "mobile_phone",
      "source": "website",
      "website": "http://www.natelspycher.ch"
    },
    "distance_to_station": 286.47070395356513
  },
  {
    "feature_type": "shops",
    "lat": 46.940883,
    "lon": 7.4317507,
    "tags": {
      "addr:city": "Bern",
      "addr:housenumber": "5",
      "addr:postcode": "3007",
      "addr:street": "Eigerplatz",
      "contact:email": "info@bestattungsdienst-mueller.ch",
      "contact:mobile": "+41 79 4570658",
      "contact:phone": "+41 31 8390039",
      "name": "Thomas M\u00fcller Bestattungsdienst",
      "opening_hours:phone": "24/7",
      "operator": "Thomas M\u00fcller Bestattungsdienst GmbH",
      "shop": "funeral_directors",
      "website": "http://bestattungsdienst-m\u00fcller.ch"
    },
    "distance_to_station": 461.4448286812412
  },
  {
    "feature_type": "shops",
    "lat": 46.9452523,
    "lon": 7.4234697,
    "tags": {
      "alt_name": "Tattoo Connection Bern",
      "contact:addr": "Effingerstrasse 103, 3008 Bern",
      "contact:facebook": "https://de-de.facebook.com/pages/category/Tattoo---Piercing-Shop/Tattoo-Connection-Bern-282185931796260/",
      "contact:info": "info@tattooconnectionbern.ch",
      "contact:phone": "+41 31 5568470",
      "name": "Tattoo Connection",
      "opening_hours": "Mo-Fr 13:00-20:00; Sa 11:00-16:00; Su off",
      "shop": "tattoo",
      "source": "survey and website",
      "website": "http://www.tattooconnectionbern.ch"
    },
    "distance_to_station": 431.406415231046
  },
  {
    "feature_type": "shops",
    "lat": 46.9455239,
    "lon": 7.4293223,
    "tags": {
      "alt_name": "Krompholz Musik",
      "check_date": "2023-04-18",
      "contact:addr": "Effingerstrasse 51, 3008 Bern",
      "contact:email": "info@krompholz.ch",
      "contact:phone": "+41 31 3285211",
      "contact:website": "https://www.krompholz.ch/",
      "name": "Krompholz",
      "opening_hours": "Tu-Fr 10:00-18:30; Sa 10:00-16:00",
      "operator": "Krompholz Musik AG",
      "shop": "musical_instrument"
    },
    "distance_to_station": 103.48695225582964
  },
  {
    "feature_type": "shops",
    "lat": 46.945398,
    "lon": 7.4268297,
    "tags": {
      "addr:city": "Bern",
      "addr:housenumber": "20",
      "addr:postcode": "3007",
      "addr:street": "Brunnmattstrasse",
      "branch": "Bern Brunnmatt",
      "brand": "Coop",
      "brand:wikidata": "Q432564",
      "check_date": "2022-08-17",
      "name": "Coop",
      "opening_hours": "Mo-Fr 07:00-20:00; Sa 07:00-17:00; Su off",
      "payment:american_express": "yes",
      "payment:contactless": "yes",
      "payment:diners_club": "yes",
      "payment:jcb": "yes",
      "payment:maestro": "yes",
      "payment:mastercard": "yes",
      "payment:postfinance_card": "yes",
      "payment:visa": "yes",
      "phone": "+41 31 313 27 40",
      "shop": "supermarket",
      "website": "https://www.coop.ch/"
    },
    "distance_to_station": 191.6367835358841
  },
  {
    "feature_type": "shops",
    "lat": 46.9410743,
    "lon": 7.433045,
    "tags": {
      "alt_name": "Praxis f\u00fcr Massage und Therapie Ursula + Marc Plaschy",
      "contact:addr": "Eigerstrasse 19, 3007 Bern",
      "contact:email": "info@praxismassagetherapie.ch",
      "contact:facebook": "https://www.facebook.com/praxismassagetherapie.ch",
      "contact:phone": "+41 31 3826336",
      "massage": "therapeutic",
      "name": "Praxis f\u00fcr Massage und Therapie",
      "opening_hours": "Mo-Fr 07:30-19:30; Sa-Su off; PH off",
      "operator": "Praxis f\u00fcr Massage und Therapie GmbH",
      "shop": "massage",
      "source": "survey and website",
      "website": "https://www.praxismassagetherapie.ch"
    },
    "distance_to_station": 495.3254781206358
  },
  {
    "feature_type": "shops",
    "lat": 46.9476856,
    "lon": 7.425795,
    "tags": {
      "check_date:opening_hours": "2022-02-01",
      "contact:phone": "+41 316322621",
      "contact:website": "https://www.coiffurekaufmann.ch/",
      "level": "1",
      "level:ref": "A",
      "name": "Coiffure Kaufmann",
      "opening_hours": "Tu,We,Fr 08:00-17:30; Th 08:00-18:00; Sa 08:00-15:00; Mo,Su,PH closed",
      "shop": "hairdresser"
    },
    "distance_to_station": 423.0874119211352
  },
  {
    "feature_type": "shops",
    "lat": 46.947561,
    "lon": 7.4255332,
    "tags": {
      "alt_name": "Blumeninsel by Blumenstall",
      "level": "1",
      "level:ref": "A",
      "name": "Blumeninsel",
      "opening_hours": "07:30-17:00",
      "phone": "+41 31 839 07 51",
      "self_service": "only",
      "shop": "florist"
    },
    "distance_to_station": 424.2677211296213
  },
  {
    "feature_type": "shops",
    "lat": 46.9429391,
    "lon": 7.4260182,
    "tags": {
      "beauty": "nails",
      "contact:addr": "Wagnerstrasse 35, 3007 Bern",
      "contact:mobile": "+41 76 434 63 90",
      "contact:phone": "+41 31 5368666",
      "name": "Knetbank",
      "opening_hours": "Mo 14:00-20:00; Tu-Th 09:00-20:00; Fr 09:00-16:00; Sa 10:00-16:00",
      "operator": "Muskelkneter GmbH",
      "shop": "beauty",
      "website": "https://knetbank.ch"
    },
    "distance_to_station": 297.12195663997
  },
  {
    "feature_type": "shops",
    "lat": 46.9435163,
    "lon": 7.4319078,
    "tags": {
      "buying": "yes",
      "check_date": "2025-05-02",
      "contact:facebook": "https://www.facebook.com/The-New-New-Bern-567488620329112",
      "contact:instagram": "https://www.instagram.com/thenewnew_bern",
      "email": "hello@thenewnewbern.ch",
      "name": "The New New Bern",
      "opening_hours": "Mo-Fr 11:00-18:30; Sa 11:00-17:00",
      "phone": "+41 31 3027777",
      "second_hand": "only",
      "shop": "clothes",
      "website": "http://www.thenewnewbern.ch"
    },
    "distance_to_station": 247.0621689966152
  },
  {
    "feature_type": "shops",
    "lat": 46.943688,
    "lon": 7.4263302,
    "tags": {
      "check_date": "2024-10-26",
      "name": "33 Coiffeur",
      "opening_hours": "Tu,Th 09:00-14:30; Fr 09:00-18:00; Sa 09:00-13:00",
      "phone": "+41 79 815 70 94",
      "shop": "hairdresser",
      "website": "https://coiffeur33.ch"
    },
    "distance_to_station": 232.09070938666332
  },
  {
    "feature_type": "shops",
    "lat": 46.9427783,
    "lon": 7.4314078,
    "tags": {
      "name": "Schulverlag Plus",
      "shop": "books"
    },
    "distance_to_station": 269.8540817511758
  },
  {
    "feature_type": "shops",
    "lat": 46.9430988,
    "lon": 7.4313674,
    "tags": {
      "check_date": "2022-11-25",
      "email": "info@autosommer.ch",
      "name": "Auto Sommer Bern",
      "phone": "+41 31 381 20 60",
      "shop": "car_repair"
    },
    "distance_to_station": 241.88025221199433
  },
  {
    "feature_type": "shops",
    "lat": 46.9425636,
    "lon": 7.4317088,
    "tags": {
      "check_date": "2024-11-27",
      "name": "Coiffeur Charisma",
      "opening_hours": "Tu-Fr 08:00-18:30; Sa 08:00-16:00",
      "phone": "+41 31 381 38 35",
      "shop": "hairdresser"
    },
    "distance_to_station": 302.86817254101743
  },
  {
    "feature_type": "shops",
    "lat": 46.9442726,
    "lon": 7.4317656,
    "tags": {
      "fax": "+41 31 381 07 36",
      "level": "0",
      "name": "Fabrizio Razzini AG",
      "opening_hours": "Mo-Th 08:00-12:00,13:15-17:30; Fr 08:00-12:00,13:15-17:00",
      "phone": "+41 31 381 07 95",
      "shop": "furniture",
      "website": "https://www.razzini.ch"
    },
    "distance_to_station": 207.72814678653285
  },
  {
    "feature_type": "shops",
    "lat": 46.9408746,
    "lon": 7.4315642,
    "tags": {
      "amenity": "fast_food",
      "name": "Coop Take-Away",
      "opening_hours": "Mo-Fr 07:00-19:00; Sa 08:00-17:00",
      "shop": "convenience",
      "takeaway": "only"
    },
    "distance_to_station": 456.2371185300675
  },
  {
    "feature_type": "shops",
    "lat": 46.9450417,
    "lon": 7.4230074,
    "tags": {
      "contact:addr": "Effingerstrasse 107, 3008 Bern",
      "contact:mobile": "+41 79 8307113",
      "contact:phone": "+41 31 5346394",
      "level": "-1",
      "massage": "foot",
      "name": "Massage Zyt",
      "opening_hours": "Mo-Fr 09:00-19:00",
      "operator": "Ren\u00e9 Teichert",
      "payment:cash": "yes",
      "payment:twint": "yes",
      "shop": "massage",
      "website": "https://www.massage-zyt.ch/"
    },
    "distance_to_station": 463.035301335869
  },
  {
    "feature_type": "shops",
    "lat": 46.9431688,
    "lon": 7.4264813,
    "tags": {
      "addr:housenumber": "44",
      "addr:street": "Brunnmattstrasse",
      "name": "Buchstaben Nacht",
      "opening_hours": "Mo-Th 08:15-12:00,13:30-17:00; Fr 08:15-12:00,13:30-16:00",
      "shop": "craft",
      "website": "https://www.buchstaben-nacht.ch"
    },
    "distance_to_station": 253.72230494420674
  },
  {
    "feature_type": "shops",
    "lat": 46.9417502,
    "lon": 7.4312315,
    "tags": {
      "name": "Hairness Coiffeur Studio",
      "opening_hours": "Tu-Fr 09:00-18:00; Th \"zus\u00e4tzlich Abendverkauf nach Voranmeldung\"; Sa 08:00-13:00; \"UND weitere Termine nach Absprache\"",
      "operator": "Hairness Bern GmbH",
      "payment:cash": "yes",
      "payment:maestro": "yes",
      "payment:postfinance_card": "yes",
      "payment:twint": "yes",
      "phone": "+41 31 371 00 80",
      "shop": "hairdresser",
      "short_name": "Hairness",
      "website": "http://www.hairness-coiffeur.ch/"
    },
    "distance_to_station": 357.58206978297136
  },
  {
    "feature_type": "shops",
    "lat": 46.9453203,
    "lon": 7.4294139,
    "tags": {
      "alt_name": "Bestattungsdienst Hedy Linder-Walther AG",
      "check_date": "2023-04-28",
      "contact:addr": "Zieglerstrasse 26, 3007 Bern",
      "email": "info@hedylinder.ch",
      "fax": "+41 31 3808023",
      "name": "Hedy Linder-Walther",
      "opening_hours": "Mo-Fr 08:00-12:00,13:30-17:15",
      "operator": "Hedy Linder-Walther AG",
      "phone": "+41 31 3808020",
      "shop": "funeral_directors",
      "start_date": "1938",
      "website": "https://hedylinder.ch"
    },
    "distance_to_station": 83.21891768944155
  },
  {
    "feature_type": "shops",
    "lat": 46.9457408,
    "lon": 7.4308895,
    "tags": {
      "addr:city": "Bern",
      "addr:housenumber": "39",
      "addr:postcode": "3008",
      "addr:street": "Effingerstrasse",
      "email": "be@newcopystore.ch",
      "name": "Newcopystore AG",
      "opening_hours": "Mo-Fr 08:00-17:30",
      "phone": "+41 31 381 36 15",
      "shop": "copyshop"
    },
    "distance_to_station": 186.65517461857806
  },
  {
    "feature_type": "shops",
    "lat": 46.9419567,
    "lon": 7.4272551,
    "tags": {
      "addr:city": "Bern",
      "addr:housenumber": "15",
      "addr:postcode": "3007",
      "addr:street": "Hopfenweg",
      "contact:addr": "Hopfenweg 15, 3006 Bern",
      "name": "Richard Schwab",
      "operator": "Richard Schwab",
      "second_hand": "yes",
      "service:bicycle:repair": "yes",
      "service:bicycle:retail": "yes",
      "shop": "bicycle"
    },
    "distance_to_station": 325.62347139191434
  },
  {
    "feature_type": "shops",
    "lat": 46.940829,
    "lon": 7.4305194,
    "tags": {
      "name": "Da Rina Vinoteca",
      "opening_hours": "Mo off; Tu-Fr 16:00-22:00",
      "shop": "alcohol"
    },
    "distance_to_station": 434.3842314435664
  },
  {
    "feature_type": "shops",
    "lat": 46.9428709,
    "lon": 7.4346776,
    "tags": {
      "name": "Haar-Schneiderei",
      "shop": "hairdresser"
    },
    "distance_to_station": 467.2378103921258
  },
  {
    "feature_type": "shops",
    "lat": 46.9482103,
    "lon": 7.427552,
    "tags": {
      "addr:city": "Bern",
      "addr:housenumber": "1",
      "addr:postcode": "3008",
      "addr:street": "Murtenstrasse",
      "check_date": "2022-11-29",
      "name": "Pistache Bike",
      "opening_hours": "Mo,We-Fr 08:00-12:30,14:00-18:15; Tu 08:00-12:30,14:00-17:45",
      "phone": "+41 31 304 02 33",
      "shop": "bicycle",
      "website": "https://pistachebike.ch"
    },
    "distance_to_station": 416.7995994811242
  },
  {
    "feature_type": "shops",
    "lat": 46.9434183,
    "lon": 7.4317211,
    "tags": {
      "addr:city": "Bern",
      "addr:housenumber": "34",
      "addr:postcode": "3007",
      "addr:street": "Belpstrasse",
      "level": "3",
      "name": "Goldhand Massagepraxis Thomas L\u00fcthi",
      "payment:cash": "yes",
      "shop": "massage",
      "source": "local knowledge",
      "website": "http://www.goldhand.ch/",
      "wheelchair": "no"
    },
    "distance_to_station": 240.6423761012217
  },
  {
    "feature_type": "shops",
    "lat": 46.9464275,
    "lon": 7.4346612,
    "tags": {
      "contact:facebook": "GoldenMarketRasiah",
      "contact:phone": "+41 76 382 85 68",
      "level": "0",
      "name": "Golden Market",
      "name:ta": "\u0b95\u0bcb\u0bb2\u0bcd\u0b9f\u0ba9\u0bcd \u0bae\u0bbe\u0bb0\u0bcd\u0b95\u0bc6\u0b9f\u0bcd",
      "opening_hours": "Mo-Fr 10:00-19:00; Sa 09:00-17:00",
      "shop": "clothes"
    },
    "distance_to_station": 469.8879552758525
  },
  {
    "feature_type": "shops",
    "lat": 46.9454179,
    "lon": 7.4326832,
    "tags": {
      "addr:city": "Bern",
      "addr:country": "CH",
      "addr:housenumber": "14",
      "addr:postcode": "3007",
      "addr:street": "Belpstrasse",
      "branch": "Bern",
      "brand": "Veloplus;Trek;Specialized;Cube;Riese & M\u00fcller;Diamant;Flizzi",
      "check_date:opening_hours": "2025-05-26",
      "name": "Veloplus",
      "opening_hours": "Mo-Fr 09:00-18:30; Sa 09:00-17:00",
      "operator": "Veloplus",
      "phone": "0840 444 777",
      "service:bicycle:repair": "yes",
      "shop": "bicycle",
      "website": "https://www.veloplus.ch/"
    },
    "distance_to_station": 288.3848096366086
  },
  {
    "feature_type": "shops",
    "lat": 46.9442087,
    "lon": 7.4323298,
    "tags": {
      "addr:city": "Bern",
      "addr:housenumber": "24",
      "addr:postcode": "3007",
      "addr:street": "Belpstrasse",
      "contact:phone": "+41 31 55 22 333",
      "contact:website": "https://oreia.ch/",
      "description": "Professionelle H\u00f6rberatung f\u00fcr Menschen mit einer H\u00f6rminderung",
      "email": "beratung@oreia.ch",
      "healthcare:speciality": "audiology",
      "name": "Oreia H\u00f6rberatung",
      "operator": "Oreia GmbH",
      "shop": "hearing_aids"
    },
    "distance_to_station": 251.13918555884266
  },
  {
    "feature_type": "shops",
    "lat": 46.9427843,
    "lon": 7.4322781,
    "tags": {
      "check_date": "2022-05-19",
      "name": "Benson + Gascon",
      "shop": "tattoo",
      "website": "https://bensongascon.ch/"
    },
    "distance_to_station": 316.7440324433132
  },
  {
    "feature_type": "shops",
    "lat": 46.9450296,
    "lon": 7.434873,
    "tags": {
      "addr:city": "Bern",
      "addr:housenumber": "18",
      "addr:postcode": "3011",
      "addr:street": "Kapellenstrasse",
      "name": "Gm\u00fcesgarte",
      "opening_hours": "Tu-Fr 09:00-19:00; Sa 09:00-17:00",
      "operator": "gm\u00fces.lokal GmbH",
      "payment:cash": "yes",
      "payment:twint": "yes",
      "phone": "+41315034774",
      "shop": "greengrocer",
      "website": "https://www.gm\u00fcesgarte.ch"
    },
    "distance_to_station": 442.7069946160918
  },
  {
    "feature_type": "shops",
    "lat": 46.9415924,
    "lon": 7.4285129,
    "tags": {
      "contact:addr": "Tscharnerstrasse 20, 3007 Bern",
      "contact:email": "info@gueter.be",
      "description": "Laden f\u00fcr Mitglieder der G\u00fcter Genossenschaft.",
      "membership": "only",
      "name": "G\u00fcter",
      "opening_hours": "Mo 17:00-19:00; Tu,We 18:00-20:00; Th 15:30-20:00; Sa 15:30-17:00,10:00-12:30; Fr 09:00-11:30,18:00-20:00",
      "operator": "Genossenschaft G\u00fcter Foodcoop",
      "operator:governance": "volunteers",
      "operator:type": "cooperative",
      "shop": "convenience",
      "website": "https://gueter.be"
    },
    "distance_to_station": 338.1014148306215
  },
  {
    "feature_type": "shops",
    "lat": 46.9425827,
    "lon": 7.4317151,
    "tags": {
      "addr:housenumber": "49",
      "addr:street": "Belpstrasse",
      "check_date": "2024-05-24",
      "name": "Lello Coiffeur",
      "opening_hours": "Tu-Fr 08:00-18:30; Sa 08:00-16:00",
      "phone": "+41 31 381 37 60",
      "shop": "hairdresser",
      "website": "https://lello-coiffeur.digitalone.site/"
    },
    "distance_to_station": 301.59443757042135
  },
  {
    "feature_type": "shops",
    "lat": 46.9484127,
    "lon": 7.4270031,
    "tags": {
      "addr:housenumber": "7",
      "addr:street": "Murtenstrasse",
      "check_date": "2022-11-29",
      "name": "Paris",
      "opening_hours": "Tu-Fr 09:30-18:00; Sa 09:30-14:00",
      "shop": "hairdresser"
    },
    "distance_to_station": 451.24032972930723
  },
  {
    "feature_type": "shops",
    "lat": 46.9483814,
    "lon": 7.4270864,
    "tags": {
      "check_date": "2024-03-19",
      "name": "Abbetti",
      "opening_hours": "Mo-Fr 08:00-12:00,13:30-17:00",
      "phone": "+41 31 381 90 60",
      "shop": "funeral_directors",
      "website": "https://abbetti.ch/"
    },
    "distance_to_station": 445.80006243843167
  },
  {
    "feature_type": "shops",
    "lat": 46.9429804,
    "lon": 7.4268287,
    "tags": {
      "name": "Garage Labi GmbH",
      "shop": "car_repair",
      "website": "https://www.garagelabi.ch/"
    },
    "distance_to_station": 248.670812211636
  },
  {
    "feature_type": "shops",
    "lat": 46.9471424,
    "lon": 7.4242081,
    "tags": {
      "level": "1",
      "level:ref": "A",
      "name": "Piazza",
      "opening_hours": "Mo-Fr 07:00-20:00",
      "shop": "kiosk"
    },
    "distance_to_station": 464.54558600397996
  },
  {
    "feature_type": "shops",
    "lat": 46.9476436,
    "lon": 7.4255829,
    "tags": {
      "brand": "R\u00fcedu",
      "brand:wikidata": "Q112913831",
      "level": "1",
      "level:ref": "A",
      "name": "R\u00fcedu",
      "self_service": "only",
      "shop": "convenience"
    },
    "distance_to_station": 429.07296376392395
  },
  {
    "feature_type": "shops",
    "lat": 46.9480264,
    "lon": 7.4275112,
    "tags": {
      "branch": "Bern Inselplatz",
      "brand": "Coop",
      "brand:wikidata": "Q432564",
      "name": "Coop",
      "opening_hours": "Mo-Fr 06:00-20:00; Sa 06:00-17:00; Su,PH closed",
      "phone": "+41 31 303 51 00",
      "shop": "convenience",
      "website": "https://www.coop.ch/de/standorte/coop-supermarkt-bern-inselplatz/6634_POS"
    },
    "distance_to_station": 398.1044589249404
  },
  {
    "feature_type": "shops",
    "lat": 46.9465801,
    "lon": 7.4344827,
    "tags": {
      "addr:city": "Bern",
      "addr:country": "CH",
      "addr:housenumber": "8",
      "addr:postcode": "3011",
      "addr:street": "Seilerstrasse",
      "check_date": "2024-07-04",
      "description": "Self-storage that can be booked online, accessible for unlocking via App.",
      "level": "0",
      "name": "placeB",
      "opening_hours": "24/7",
      "operator": "placeB",
      "shop": "storage_rental",
      "website": "https://www.placeb.ch/lagerraum-mieten/bern/monbijou-seilerstrasse/"
    },
    "distance_to_station": 465.439821823318
  },
  {
    "feature_type": "shops",
    "lat": 46.9446743,
    "lon": 7.4330427,
    "tags": {
      "branch": "Bern Hasler",
      "brand": "Coop",
      "brand:wikidata": "Q432564",
      "name": "Coop",
      "opening_hours": "Mo-Fr 07:00-19:00; Sa 08:00-17:00; Su,PH closed",
      "shop": "convenience",
      "wheelchair": "yes"
    },
    "distance_to_station": 301.3727064182596
  },
  {
    "feature_type": "shops",
    "lat": 46.9457167,
    "lon": 7.4346024,
    "tags": {
      "check_date": "2025-01-04",
      "name": "newcopystore",
      "shop": "copyshop"
    },
    "distance_to_station": 437.38991457538395
  },
  {
    "feature_type": "shops",
    "lat": 46.9416822,
    "lon": 7.4316673,
    "tags": {
      "name": "Cake Central Bern",
      "shop": "pastry",
      "wheelchair": "no"
    },
    "distance_to_station": 380.34396678032783
  }
]