[
  {
    "feature_type": "offices",
    "lat": 46.9408309,
    "lon": 7.4589608,
    "tags": {
      "check_date": "2025-06-10",
      "contact:addr": "Thunstrasse 59, 3006 Bern",
      "name": "ASP Architekten AG",
      "office": "architect",
      "source": "survey and website",
      "website": "https://www.asp-architekten.ch"
    },
    "distance_to_station": 333.20292767646805
  },
  {
    "feature_type": "offices",
    "lat": 46.9411254,
    "lon": 7.4615206,
    "tags": {
      "addr:city": "Bern",
      "addr:country": "CH",
      "addr:housenumber": "73",
      "addr:postcode": "3006",
      "addr:street": "Thunstrasse",
      "alt_name": "Embaixada da Republica de Angola",
      "contact:email": "sectorconsular@ambassadeangola.ch",
      "contact:fax": "+41 31 3518586",
      "contact:phone": "+41 31 3518585",
      "country": "AO",
      "diplomatic": "embassy",
      "embassy": "yes",
      "name": "Botschaft Angola",
      "name:en": "Embassy Angola",
      "name:es": "Embajada Angola",
      "name:fr": "Ambassade Angola",
      "name:it": "Ambasciata Angola",
      "office": "diplomatic",
      "opening_hours": "Mo-Fr 09:00-12:00, 14:00-16:00; Sa-Su off",
      "source": "http://www.eda.admin.ch/eda/de/home/reps/forrep/hidden/c_237.html",
      "target": "CH",
      "website": "http://ambassadeangola.ch",
      "wikidata": "Q26979963"
    },
    "distance_to_station": 138.57531617863597
  },
  {
    "feature_type": "offices",
    "lat": 46.9431047,
    "lon": 7.4604765,
    "tags": {
      "addr:city": "Bern",
      "addr:housenumber": "5",
      "addr:postcode": "3006",
      "addr:street": "Seminarstrasse",
      "alt_name": "Botschaft Serbien - Konsulat",
      "consulate": "yes",
      "contact:email": "consul@ambasadasrbije.ch",
      "contact:fax": "+41 31 3514474",
      "contact:phone": "+41 31 3526353",
      "country": "RS",
      "diplomatic": "consulate",
      "name": "Konsulat Serbien",
      "name:de": "Konsulat Serbien",
      "name:en": "Consulate Serbia",
      "name:es": "Consulado Serbia",
      "name:fr": "Consulat Serbie",
      "name:it": "Consolato Serbia",
      "office": "diplomatic",
      "opening_hours": "Mo-Fr 09:00-13:00; Sa-Su off",
      "source": "http://www.eda.admin.ch/eda/de/home/reps/forrep/hidden/c_232.html",
      "target": "CH",
      "website": "http://www.berne.mfa.gov.rs/consularservices.php"
    },
    "distance_to_station": 263.82193101444443
  },
  {
    "feature_type": "offices",
    "lat": 46.9412876,
    "lon": 7.4626307,
    "tags": {
      "contact:addr": "Thunstrasse 91, 3006 Bern",
      "contact:email": "info@sigmaplan.ch",
      "contact:fax": "+41 31 3566560",
      "contact:phone": "+41 31 3566565",
      "name": "Sigmaplan",
      "office": "company",
      "operator": "Sigmaplan AG",
      "source": "website and survey",
      "website": "https://www.sigmaplan.ch/"
    },
    "distance_to_station": 56.81875518874954
  },
  {
    "feature_type": "offices",
    "lat": 46.9391036,
    "lon": 7.4648638,
    "tags": {
      "addr:city": "Bern",
      "addr:country": "CH",
      "addr:housename": "Villa Bomonti",
      "addr:housenumber": "12",
      "addr:postcode": "3006",
      "addr:street": "Kalcheggweg",
      "country": "CN",
      "diplomatic": "embassy",
      "embassy": "residence",
      "name": "Residenz China",
      "office": "diplomatic",
      "source": "survey",
      "target": "CH"
    },
    "distance_to_station": 307.7193654962615
  },
  {
    "feature_type": "offices",
    "lat": 46.9423557,
    "lon": 7.4667311,
    "tags": {
      "contact:addr": "Segantinistrasse 26a, 3006 Bern",
      "contact:email": "bruderklaus.bern@kathbern.ch",
      "contact:fax": "+41 31 3501416",
      "contact:phone": "+41 31 3501414",
      "name": "Pfarrei Bruder Klaus",
      "office": "administration",
      "website": "https://www.kathbern.ch/pfarreien-seelsorge/pfarreien/bern-bruder-klaus"
    },
    "distance_to_station": 280.6324548023655
  },
  {
    "feature_type": "offices",
    "lat": 46.9416818,
    "lon": 7.4619797,
    "tags": {
      "contact:addr": "Steinerstrasse 28, 3006 Bern",
      "contact:email": "info@ticketpro.ch",
      "contact:phone": "+41 31 5081434",
      "name": "Ticketpro",
      "office": "it",
      "operator": "Ticketpro GmbH",
      "source": "Survey and website",
      "website": "https://ticketpro.ch"
    },
    "distance_to_station": 92.32020999490487
  },
  {
    "feature_type": "offices",
    "lat": 46.9403323,
    "lon": 7.462364,
    "tags": {
      "alt_name": "Rast Architekten",
      "contact:addr": "Beatusstrasse 19, 3006 Bern",
      "contact:email": "admin@rastarchitekten.ch",
      "contact:fax": "+41 31 3565450",
      "contact:phone": "+41 31 3565454",
      "name": "rastarchitekten",
      "office": "architect",
      "operator": "R. Rast Architekten AG",
      "source": "Survey and website",
      "website": "http://www.rastarchitekten.ch"
    },
    "distance_to_station": 156.9028772600279
  },
  {
    "feature_type": "offices",
    "lat": 46.9426234,
    "lon": 7.4580378,
    "tags": {
      "alt_name": "Geiger AG Bern",
      "contact:addr": "Habsburgstrasse 19, 3006 Bern",
      "name": "Geiger",
      "note": "Immobilienfirma, vormals Druckerei",
      "office": "company",
      "owner": "Geiger AG Bern"
    },
    "distance_to_station": 406.80356159598034
  },
  {
    "feature_type": "offices",
    "lat": 46.94082,
    "lon": 7.4593207,
    "tags": {
      "contact:addr": "Thunstrasse 61, 3006 Bern",
      "name": "TCS Kontakstelle",
      "office": "association"
    },
    "distance_to_station": 307.292844299227
  },
  {
    "feature_type": "offices",
    "lat": 46.9423367,
    "lon": 7.4575984,
    "tags": {
      "contact:addr": "Alpenstrasse 26, 3006 Bern",
      "contact:email": "info@aso.ch",
      "contact:fax": "+41 31 3566101",
      "contact:phone": "+41 31 3566100",
      "name": "Auslandschweizer-Organisation",
      "office": "ngo",
      "opening_hours": "Mo-Th 08:00-12:00; 13:30-17:00; Fr 08:00-12:00; Sa-Su off; PH off",
      "operator": "Auslandschweizer-Organisation (Stiftung)",
      "short_name": "ASO",
      "source": "survey and website",
      "website": "https://www.aso.ch"
    },
    "distance_to_station": 432.02998178260805
  },
  {
    "feature_type": "offices",
    "lat": 46.9429008,
    "lon": 7.4578088,
    "tags": {
      "contact:addr": "Gryphenh\u00fcbeliweg 30, 3006 Bern",
      "contact:email": "info@otif.org",
      "contact:fax": "+41 31 3591011",
      "contact:phone": "+41 31 3591010",
      "name": "Zwischenstaatliche Organisation f\u00fcr internationalen Eisenbahnverkehr OTIF",
      "name:de": "Zwischenstaatliche Organisation f\u00fcr internationalen Eisenbahnverkehr OTIF",
      "name:en": "Intergovernmental Organisation for International Carriage by Rail",
      "name:fr": "Organisation intergouvernementale pour les transports internationaux ferroviaires",
      "name:it": "Organizzazione intergovernativa per il trasporto internazionale per ferrovia",
      "name:ru": "\u041c\u0435\u0436\u043f\u0440\u0430\u0432\u0438\u0442\u0435\u043b\u044c\u0441\u0442\u0432\u0435\u043d\u043d\u0430\u044f \u043e\u0440\u0433\u0430\u043d\u0438\u0437\u0430\u0446\u0438\u044f \u043f\u043e \u043c\u0435\u0436\u0434\u0443\u043d\u0430\u0440\u043e\u0434\u043d\u044b\u043c \u0436\u0435\u043b\u0435\u0437\u043d\u043e\u0434\u043e\u0440\u043e\u0436\u043d\u044b\u043c \u043f\u0435\u0440\u0435\u0432\u043e\u0437\u043a\u0430\u043c",
      "office": "ngo",
      "short_name": "OTIF",
      "short_name:de": "OTIF",
      "source": "survey and website",
      "website": "http://www.otif.org",
      "wikidata": "Q2333216",
      "wikimedia_commons": "Category:Intergovernmental Organisation for International Carriage by Rail",
      "wikipedia": "de:Zwischenstaatliche Organisation f\u00fcr den internationalen Eisenbahnverkehr"
    },
    "distance_to_station": 432.6648894094252
  },
  {
    "feature_type": "offices",
    "lat": 46.9416745,
    "lon": 7.4578166,
    "tags": {
      "addr:city": "Bern",
      "addr:housenumber": "29",
      "addr:postcode": "3006",
      "addr:street": "Alpenstrasse",
      "alt_name": "S\u00fcdafrikanische Botschaft",
      "contact:addr": "Alpenstrasse 29, 3006 Bern",
      "contact:email": "bern.embassy@dirco.gov.za",
      "contact:fax": "+41 31 3513945",
      "contact:phone": "+41 31 3501313",
      "country": "ZA",
      "diplomatic": "embassy",
      "embassy": "yes",
      "name": "Botschaft S\u00fcdafrika",
      "name:de": "Botschaft S\u00fcdafrika",
      "name:en": "Embassy of South Africa",
      "name:fr": "Ambassade d'Afrique du Sud",
      "office": "diplomatic",
      "opening_hours": "Mo-Th 08:00-12:30; 13:15-17:15; Fr 08:00-14:00; Sa-Su off; PH off",
      "source": "survey and https://www.eda.admin.ch/eda/de/home/vertretungen-und-reisehinweise/suedafrika/suedafrika-vertretunginderschweiz.html",
      "target": "CH",
      "website": "https://www.southafrica.ch",
      "wikidata": "Q26979971"
    },
    "distance_to_station": 408.1927198682847
  },
  {
    "feature_type": "offices",
    "lat": 46.9415096,
    "lon": 7.4586685,
    "tags": {
      "addr:city": "Bern",
      "addr:housenumber": "30",
      "addr:postcode": "3006",
      "addr:street": "Seminarstrasse",
      "alt_name": "Botschaft Venezuela - Residenz",
      "contact:addr:full": "Seminarstrasse 30, 3006 Bern",
      "country": "VE",
      "diplomatic": "embassy",
      "embassy": "residence",
      "name": "Residenz Venezuela",
      "name:de": "Residenz Venezuela",
      "name:es": "Residencia del Republica Bolivariana de Venezuela",
      "office": "diplomatic",
      "target": "CH"
    },
    "distance_to_station": 343.7210274166729
  },
  {
    "feature_type": "offices",
    "lat": 46.9412259,
    "lon": 7.4583787,
    "tags": {
      "addr:city": "Bern",
      "addr:housenumber": "35",
      "addr:postcode": "3006",
      "addr:street": "Alpenstrasse",
      "alt_name": "Botschaft Belgien - Residenz",
      "contact:addr:full": "Alpenstrasse 35, 3006 Bern",
      "country": "BE",
      "diplomatic": "embassy",
      "embassy": "residence",
      "name": "Residenz Belgien",
      "name:de": "Residenz Belgien",
      "office": "diplomatic",
      "target": "CH"
    },
    "distance_to_station": 368.16677781924494
  },
  {
    "feature_type": "offices",
    "lat": 46.941719,
    "lon": 7.458417,
    "tags": {
      "addr:city": "Bern",
      "addr:housenumber": "32",
      "addr:postcode": "3006",
      "addr:street": "Alpenstrasse",
      "alt_name": "\u05e9\u05d2\u05e8\u05d9\u05e8\u05d5\u05ea \u05d9\u05e9\u05e8\u05d0\u05dc",
      "contact:addr:full": "Alpenstrasse 32, 3006 Bern",
      "contact:email": "ambassador-sec@bern.mfa.gov.il",
      "contact:fax": "+41 31 3563556",
      "contact:phone": "+41 31 3563500",
      "contact:website": "https://embassies.gov.il/bern/AboutTheEmbassy/Pages/contact-us.aspx",
      "country": "IL",
      "diplomatic": "embassy",
      "embassy": "yes",
      "name": "Botschaft Israel",
      "name:de": "Botschaft Israel",
      "name:en": "Embassy of Israel",
      "name:fr": "Ambassade d\u2019Isra\u00ebl",
      "name:he": "\u05e9\u05d2\u05e8\u05d9\u05e8\u05d5\u05ea \u05d9\u05e9\u05e8\u05d0\u05dc",
      "name:it": "Ambasciata di Israele",
      "office": "diplomatic",
      "opening_hours": "Mo-Th 09:00-17:00; Fr 09:00-14:00; Sa-Su off",
      "source": "survey and https://www.eda.admin.ch/eda/de/home/vertretungen-und-reisehinweise/israel/israel-vertretunginderschweiz.html",
      "target": "CH",
      "website": "https://embassies.gov.il/bern",
      "wikidata": "Q26979895"
    },
    "distance_to_station": 362.7253676927619
  },
  {
    "feature_type": "offices",
    "lat": 46.9411449,
    "lon": 7.4591477,
    "tags": {
      "addr:city": "Bern",
      "addr:housenumber": "48",
      "addr:postcode": "3006",
      "addr:street": "Ensingerstrasse",
      "alt_name": "Botschaft Belgien - Residenz",
      "contact:addr:full": "Ensingerstrasse 48, 3006 Bern",
      "country": "AO",
      "diplomatic": "embassy",
      "embassy": "residence",
      "name": "Residenz Angola",
      "name:de": "Residenz Angola",
      "office": "diplomatic",
      "target": "CH"
    },
    "distance_to_station": 311.70671762724317
  },
  {
    "feature_type": "offices",
    "lat": 46.9429941,
    "lon": 7.465002,
    "tags": {
      "addr:city": "Bern",
      "addr:housenumber": "31",
      "addr:postcode": "3006",
      "addr:street": "Muristrasse",
      "alt_name": "Ungarische Botschaft",
      "contact:addr:full": "Muristrasse 31, 3006 Bern",
      "contact:email": "mission.brn@mfa.gov.hu",
      "contact:fax": "+41 31 3512001",
      "contact:phone": "+41 31 3528572",
      "country": "HU",
      "diplomatic": "embassy",
      "embassy": "yes",
      "name": "Botschaft Ungarn",
      "name:de": "Botschaft Ungarn",
      "name:en": "Embassy of Hungary",
      "name:es": "Embajada Hungr\u00eda",
      "name:fr": "Ambassade de Hongrie",
      "name:it": "Ambasciata Ungheria",
      "office": "diplomatic",
      "opening_hours": "Mo-Th 08:30-16:30; Fr 08:30-14:00; Sa-Su off",
      "source": "survey and https://www.eda.admin.ch/eda/de/home/vertretungen-und-reisehinweise/ungarn/ungarn-vertretunginderschweiz.html",
      "target": "CH",
      "website": "https://bern.mfa.gov.hu/",
      "wikidata": "Q26980203"
    },
    "distance_to_station": 205.04135377619372
  },
  {
    "feature_type": "offices",
    "lat": 46.9417222,
    "lon": 7.4610723,
    "tags": {
      "contact:addr": "Steinerstrasse 35, 3006 Bern",
      "contact:email": "info@sev-online.ch",
      "contact:facebook": "https://www.facebook.com/pages/SEV-Gewerkschaft-des-Verkehrspersonals/216636771699155",
      "contact:fax": "+41 31 3575758",
      "contact:phone": "+41 31 3575757",
      "contact:website": "https://sev-online.ch/de/kontakt/",
      "contact:youtube": "http://www.youtube.com/user/Verkehrsgewerkschaft",
      "name": "Gewerkschaft Verkehrspersonal SEV",
      "name:de": "Gewerkschaft Verkehrspersonal SEV",
      "office": "union",
      "opening_hours": "Mo-Th 08:30-12:00, 13:30-17:00; Fr 08:30-12:00, 13:30-16:00; Sa-Su off",
      "short_name": "SEV",
      "source": "survey and website",
      "website": "https://sev-online.ch"
    },
    "distance_to_station": 161.35380011941615
  },
  {
    "feature_type": "offices",
    "lat": 46.9407489,
    "lon": 7.4616936,
    "tags": {
      "contact:addr": "Thunstrasse 82, 3006 Bern",
      "contact:email": "bern@mepartners.ch",
      "contact:fax": "+41 31 3510065",
      "contact:phone": "+41 31 3562121",
      "name": "Markwalder Emmenegger",
      "office": "lawyer",
      "website": "http://www.mepartners.ch"
    },
    "distance_to_station": 149.81325982336008
  },
  {
    "feature_type": "offices",
    "lat": 46.9419855,
    "lon": 7.4674494,
    "tags": {
      "alt_name": "durchzwei \u2014 Atelier f\u00fcr Gestaltung",
      "contact:addr": "Ostring 6, 3006 Bern",
      "contact:email": "tim@durchzwei.ch",
      "contact:facebook": "https://www.facebook.com/pages/durchzwei/122760571073669",
      "contact:mobile": "+41 76 3797077",
      "name": "durchzwei",
      "office": "company",
      "operator": "Tim Engel",
      "website": "https://durchzwei.ch/"
    },
    "distance_to_station": 325.62025788346375
  },
  {
    "feature_type": "offices",
    "lat": 46.9381411,
    "lon": 7.4624781,
    "tags": {
      "addr:city": "Bern",
      "addr:housenumber": "20a",
      "addr:postcode": "3006",
      "addr:street": "Elfenstrasse",
      "alt_name": "Konsulat der Botschaft der Republik Polen",
      "consulate": "yes",
      "contact:addr:full": "Elfenstrasse 20a, 3006 Bern",
      "contact:email": "berno.amb.wk@msz.gov.pl",
      "contact:fax": "+41 31 3580216",
      "contact:phone": "+41 31 3580213",
      "contact:twitter": "https://twitter.com/PLinSwitzerland",
      "country": "PL",
      "diplomatic": "consulate",
      "image": "https://upload.wikimedia.org/wikipedia/commons/thumb/f/ff/Bern_Elfenstrasse_20A_Embassy_of_Poland_in_Switzerland_Consular_Service_DSC01371.jpg/800px-Bern_Elfenstrasse_20A_Embassy_of_Poland_in_Switzerland_Consular_Service_DSC01371.jpg",
      "name": "Konsulat Polen",
      "office": "diplomatic",
      "opening_hours": "Mo-Fr 09:00-14:00; Sa-Su off; PH off",
      "source": "website, survey and https://www.eda.admin.ch/eda/de/home/vertretungen-und-reisehinweise/polen/polen-vertretunginderschweiz.html",
      "target": "CH",
      "website": "https://www.gov.pl/web/schweiz/botschaft",
      "wikidata": "Q23047062",
      "wikimedia_commons": "Category:Polish Embassy, Bern"
    },
    "distance_to_station": 391.1635564373809
  },
  {
    "feature_type": "offices",
    "lat": 46.9399195,
    "lon": 7.4613588,
    "tags": {
      "addr:city": "Bern",
      "addr:housenumber": "9",
      "addr:postcode": "3006",
      "addr:street": "Elfenstrasse",
      "alt_name": "Kanzlei der Botschaft der Republik Polen",
      "contact:addr": "Elfenstrasse 9, 3006 Bern",
      "contact:email": "berno.amb.sekretariat@msz.gov.pl",
      "contact:facebook": "https://www.facebook.com/Embassy-of-Poland-in-Bern-106404387743965",
      "contact:fax": "+41 31 3580216",
      "contact:phone": "+41 31 3580240",
      "contact:twitter": "https://twitter.com/PLinSwitzerland",
      "country": "PL",
      "diplomatic": "embassy",
      "embassy": "yes",
      "image": "https://upload.wikimedia.org/wikipedia/commons/thumb/b/b8/Bern_Elfenstrasse_9_Embassy_of_Poland_in_Switzerland_Service_de_la_Promotion_du_Commerce_et_des_Investissements_DSC01368.jpg/800px-Bern_Elfenstrasse_9_Embassy_of_Poland_in_Switzerland_Service_de_la",
      "name": "Botschaft Polen",
      "name:fr": "Ambassade de Pologne",
      "office": "diplomatic",
      "opening_hours": "Mo-Fr 08:15-16:15; Sa-Su off; PH off",
      "source": "website, survey and https://www.eda.admin.ch/eda/de/home/vertretungen-und-reisehinweise/polen/polen-vertretunginderschweiz.html",
      "target": "CH",
      "website": "https://www.gov.pl/web/schweiz/botschaft",
      "wikidata": "Q23047062",
      "wikimedia_commons": "Category:Polish Embassy, Bern"
    },
    "distance_to_station": 235.26313451906685
  },
  {
    "feature_type": "offices",
    "lat": 46.9386139,
    "lon": 7.4625225,
    "tags": {
      "addr:city": "Bern",
      "addr:full": "Elfenstrasse 20, 3006 Bern",
      "addr:housenumber": "20",
      "addr:postcode": "3006",
      "addr:street": "Elfenstrasse",
      "alt_name": "Residenz der Botschaft der Republik Polen",
      "country": "PL",
      "diplomatic": "embassy",
      "embassy": "residence",
      "image": "https://upload.wikimedia.org/wikipedia/commons/thumb/d/da/Bern_Elfenstrasse_20_Embassy_of_Poland_in_Switzerland_Residence_DSC01366.jpg/800px-Bern_Elfenstrasse_20_Embassy_of_Poland_in_Switzerland_Residence_DSC01366.jpg",
      "name": "Residenz Polen",
      "name:de": "Residenz Polen",
      "name:en": "Residence Poland",
      "name:es": "Residencia Polonia",
      "name:fr": "R\u00e9sidence Pologne",
      "name:it": "Residenza Polonia",
      "office": "diplomatic",
      "source": "survey",
      "target": "CH",
      "wikidata": "Q23047062",
      "wikimedia_commons": "Category:Polish Embassy, Bern"
    },
    "distance_to_station": 338.65440659550626
  },
  {
    "feature_type": "offices",
    "lat": 46.9441865,
    "lon": 7.4606077,
    "tags": {
      "alt_name": "Stiftung Lindenhof Bern",
      "contact:addr": "Muristrasse 12, 3006 Bern",
      "contact:email": "gs@stiftunglindenhof.ch",
      "contact:phone": "+41 31 3007590",
      "name": "Stiftung Lindenhof",
      "office": "foundation",
      "short_name": "SLB",
      "website": "https://www.stiftunglindenhof.ch"
    },
    "distance_to_station": 345.90323218805884
  },
  {
    "feature_type": "offices",
    "lat": 46.9402119,
    "lon": 7.4581507,
    "tags": {
      "contact:addr:full": "Thunstrasse 52, 3005 Bern",
      "country": "LU",
      "diplomatic": "embassy",
      "embassy": "residence",
      "name": "Residenz des Botschafters/der Botschafterin des Grossherzogtums Luxemburg",
      "name:de": "Residenz des Botschafters/der Botschafterin des Grossherzogtums Luxemburg",
      "name:en": "Residence of the Luxembourg ambassador",
      "name:fr": "R\u00e9sidence de l'ambassadeur.rice du Grand-Duch\u00e9 de Luxembourg",
      "name:nl": "Residentie van de ambassadeur/-rice van het Groothertogdom Luxemburg",
      "office": "diplomatic",
      "target": "CH"
    },
    "distance_to_station": 413.7867414408444
  },
  {
    "feature_type": "offices",
    "lat": 46.940842,
    "lon": 7.4680772,
    "tags": {
      "name": "Advokatur, Notariat, Verwaltung",
      "office": "lawyer"
    },
    "distance_to_station": 380.8887685680388
  },
  {
    "feature_type": "offices",
    "lat": 46.9409378,
    "lon": 7.4602989,
    "tags": {
      "addr:city": "Bern",
      "addr:housenumber": "67",
      "addr:postcode": "3006",
      "addr:street": "Thunstrasse",
      "alt_name": "Katarische Botschaft",
      "contact:addr:full": "Thunstrasse 67, 3006 Bern",
      "contact:email": "bern@mofa.gov.qa",
      "contact:fax": "+41 31 3137300",
      "contact:phone": "+41 31 3260662",
      "country": "QA",
      "diplomatic": "embassy",
      "embassy": "yes",
      "name": "Botschaft Katar",
      "office": "diplomatic",
      "source": "survey and https://www.eda.admin.ch/eda/de/home/vertretungen-und-reisehinweise/katar/katar-vertretunginderschweiz.html",
      "target": "CH",
      "website": "https://bern.embassy.qa/en"
    },
    "distance_to_station": 232.61207580772958
  },
  {
    "feature_type": "offices",
    "lat": 46.9405095,
    "lon": 7.4604585,
    "tags": {
      "addr:city": "Bern",
      "addr:housenumber": "68",
      "addr:postcode": "3006",
      "addr:street": "Thunstrasse",
      "alt_name": "Iranische Botschaft",
      "alt_name:ar": "\u0627\u0644\u0633\u0641\u0627\u0631\u0629 \u0627\u0644\u0625\u064a\u0631\u0627\u0646\u064a\u0629",
      "contact:addr:full": "Thunstrasse 68, 3006 Bern",
      "contact:email": "secretariat@iranembassy.ch",
      "contact:phone": "+41 31 3501089",
      "country": "IR",
      "diplomatic": "embassy",
      "embassy": "yes",
      "name": "Botschaft Iran",
      "name:ar": "\u0633\u0641\u0627\u0631\u0629 \u0625\u064a\u0631\u0627\u0646",
      "name:fr": "Ambassade d'Iran",
      "office": "diplomatic",
      "source": "survey and https://www.eda.admin.ch/eda/de/home/vertretungen-und-reisehinweise/iran/iran-vertretung-inderschweiz.html",
      "target": "CH",
      "website": "https://switzerland.mfa.gov.ir/en",
      "wikidata": "Q26979894"
    },
    "distance_to_station": 241.8196598562773
  },
  {
    "feature_type": "offices",
    "lat": 46.9428164,
    "lon": 7.4643554,
    "tags": {
      "description": "Ihr Immobiliendienstleister in der Stadt Bern. Spezialisiert auf Bewertungen, Verkauf und Bewirtschaftung von Immobilien in und um Bern.",
      "name": "Bodinvest Immobilien",
      "office": "estate_agent",
      "website": "https://www.bodinvest.ch/"
    },
    "distance_to_station": 159.1913845924412
  },
  {
    "feature_type": "offices",
    "lat": 46.9414709,
    "lon": 7.4633771,
    "tags": {
      "addr:city": "Bern",
      "addr:country": "CH",
      "addr:housenumber": "95",
      "addr:postcode": "3006",
      "addr:street": "Thunstrasse",
      "building": "yes",
      "contact:email": "brnamb@um.dk",
      "contact:fax": "+41 31 3505464",
      "contact:phone": "+41 31 3505454",
      "country": "DK",
      "diplomatic": "embassy",
      "embassy": "yes",
      "name": "Botschaft D\u00e4nemark",
      "name:da": "Ambassade Danmark",
      "name:de": "Botschaft D\u00e4nemark",
      "name:en": "Embassy Denmark",
      "name:es": "Embajada Dinamarca",
      "name:fr": "Ambassade Danemark",
      "name:it": "Ambasciata Danimarca",
      "office": "diplomatic",
      "opening_hours": "Mo-Th 09:00-13:00; Fr-Su off",
      "source": "survey and https://www.eda.admin.ch/eda/en/fdfa/representations-and-travel-advice/denmark/denmark-representation-in-ch.html",
      "target": "CH",
      "website": "http://schweiz.um.dk"
    },
    "distance_to_station": 22.10848952391611
  },
  {
    "feature_type": "offices",
    "lat": 46.9417032,
    "lon": 7.4630228,
    "tags": {
      "addr:city": "Bern",
      "addr:country": "CH",
      "addr:housenumber": "20",
      "addr:postcode": "3006",
      "addr:street": "Brunnadernstrasse",
      "alt_name": "Botschaft Rum\u00e4nien - Konsulat",
      "building": "yes",
      "consulate": "yes",
      "country": "RO",
      "diplomatic": "consulate",
      "name": "Konsulat Rum\u00e4nien",
      "office": "diplomatic",
      "target": "CH",
      "website": "http://berna.mae.ro/"
    },
    "distance_to_station": 15.574482914369703
  },
  {
    "feature_type": "offices",
    "lat": 46.9431883,
    "lon": 7.4604502,
    "tags": {
      "addr:city": "Bern",
      "addr:country": "CH",
      "addr:housenumber": "5",
      "addr:postcode": "3006",
      "addr:street": "Seminarstrasse",
      "building": "yes",
      "contact:email": "info@ambasadasrbije.ch",
      "contact:fax": "+41 31 3514474",
      "contact:phone": "+41 31 3524996",
      "country": "RS",
      "diplomatic": "embassy",
      "embassy": "yes",
      "name": "Botschaft Serbien",
      "name:de": "Botschaft Serbien",
      "name:en": "Embassy Serbia",
      "name:es": "Embajada Serbia",
      "name:fr": "Ambassade de Serbie",
      "name:it": "Ambasciata Serbia",
      "office": "diplomatic",
      "opening_hours": "Mo-Fr 08:30-16:30; Sa-Su off",
      "source": "http://www.eda.admin.ch/eda/de/home/reps/forrep/hidden/c_232.html",
      "target": "CH",
      "website": "http://www.berne.mfa.gov.rs",
      "wikidata": "Q26980156"
    },
    "distance_to_station": 271.2471779115931
  },
  {
    "feature_type": "offices",
    "lat": 46.9381872,
    "lon": 7.4631805,
    "tags": {
      "addr:city": "Bern",
      "addr:housenumber": "24",
      "addr:postcode": "3000",
      "addr:street": "Kalcheggweg",
      "alt_name:ar": "\u0627\u0644\u0633\u0641\u0627\u0631\u0629 \u0627\u0644\u0625\u0633\u0628\u0627\u0646\u064a\u0629",
      "building": "office",
      "contact:addr": "Kalcheggweg 24, Postfach 1333, 3000 Bern 16",
      "country": "ES",
      "diplomatic": "embassy",
      "email": "emb.berna@\u200bmaec.es",
      "embassy": "yes",
      "fax": "+41 31 350 52 55",
      "name": "Botschaft von Spanien",
      "name:ar": "\u0633\u0641\u0627\u0631\u0629 \u0625\u0633\u0628\u0627\u0646\u064a\u0627",
      "name:en": "Embassy of Spain",
      "name:es": "Embajada de Espa\u00f1a",
      "name:fr": "Ambassade d'Espagne",
      "name:it": "Ambasciata di Spagna",
      "office": "diplomatic",
      "opening_hours": "Mo-Fr 08:00-15:30; Sa-Su off",
      "phone": "+41 31 350 52 52",
      "target": "CH",
      "website": "http://www.exteriores.gob.es/Embajadas/BERNA",
      "wikidata": "Q26980176"
    },
    "distance_to_station": 382.2559585631649
  },
  {
    "feature_type": "offices",
    "lat": 46.9387266,
    "lon": 7.4642414,
    "tags": {
      "addr:city": "Bern",
      "addr:housenumber": "18",
      "addr:postcode": "3006",
      "addr:street": "Kalcheggweg",
      "building": "embassy",
      "country": "TR",
      "diplomatic": "embassy",
      "embassy": "residence",
      "name": "Residenz T\u00fcrkei",
      "name:ar": "\u0625\u0642\u0627\u0645\u0629 \u062a\u0631\u0643\u064a\u0627",
      "office": "diplomatic",
      "source": "Orthofotos Bern",
      "target": "CH"
    },
    "distance_to_station": 331.9614744188207
  },
  {
    "feature_type": "offices",
    "lat": 46.9389848,
    "lon": 7.4645927,
    "tags": {
      "addr:city": "Bern",
      "addr:housenumber": "14",
      "addr:postcode": "3006",
      "addr:street": "Kalcheggweg",
      "building": "embassy",
      "country": "BR",
      "diplomatic": "embassy",
      "embassy": "residence",
      "name": "Residenz Brasilien",
      "office": "diplomatic",
      "source": "Orthofotos Bern",
      "target": "CH"
    },
    "distance_to_station": 312.2091952796925
  },
  {
    "feature_type": "offices",
    "lat": 46.9394391,
    "lon": 7.4653912,
    "tags": {
      "addr:city": "Bern",
      "addr:country": "CH",
      "addr:housenumber": "10",
      "addr:postcode": "3006",
      "addr:street": "Kalcheggweg",
      "building": "embassy",
      "contact:email": "china-embassy@bluewin.ch",
      "contact:fax": "+41 31 3514573",
      "contact:phone": "+41 31 3527332",
      "country": "CN",
      "diplomatic": "embassy",
      "embassy": "yes",
      "name": "Botschaft der Volksrepublik China in Schweiz",
      "name:en": "Chinese Embassy in Switzerland",
      "name:es": "Embajada China",
      "name:fr": "Ambassade Chine",
      "name:it": "Ambasciata Cina",
      "name:zh": "\u4e2d\u56fd\u9a7b\u745e\u58eb\u5927\u4f7f\u9986",
      "office": "diplomatic",
      "opening_hours": "Mo-Fr 08:30-12:00, 14:00-17:30; Sa-Su off",
      "source": "Orthofotos Bern",
      "target": "CH",
      "website": "http://www.china-embassy.ch",
      "wikidata": "Q26979600"
    },
    "distance_to_station": 294.8330299612453
  },
  {
    "feature_type": "offices",
    "lat": 46.9392318,
    "lon": 7.4615694,
    "tags": {
      "addr:city": "Bern",
      "addr:country": "CH",
      "addr:housenumber": "14",
      "addr:postcode": "3005",
      "addr:street": "Elfenstrasse",
      "alt_name:ar": "\u0627\u0644\u0633\u0641\u0627\u0631\u0629 \u0627\u0644\u0625\u064a\u0637\u0627\u0644\u064a\u0629",
      "building": "yes",
      "contact:email": "ambasciata.berna@esteri.it",
      "contact:fax": "+41 31 3500711",
      "contact:phone": "+41 31 3500777",
      "country": "IT",
      "diplomatic": "embassy",
      "embassy": "yes",
      "name": "Botschaft Italien",
      "name:ar": "\u0633\u0641\u0627\u0631\u0629 \u0625\u064a\u0637\u0627\u0644\u064a\u0627",
      "name:de": "Botchaft Italien",
      "name:en": "Embassy Italy",
      "name:es": "Embajada Italia",
      "name:fr": "Ambassade Italie",
      "name:it": "Ambasciata Italia",
      "office": "diplomatic",
      "opening_hours": "Mo-Th 09:00-13:00, 14:00-17:00; Fr 08:30-13:00, 13:30-16:30; Sa-Su off",
      "source": "Orthofotos Bern",
      "target": "CH",
      "website": "http://www.ambberna.esteri.it",
      "wikidata": "Q26980137"
    },
    "distance_to_station": 293.25977724576154
  },
  {
    "feature_type": "offices",
    "lat": 46.9395203,
    "lon": 7.4610636,
    "tags": {
      "addr:full": "Elfenstrasse 10, 3006 Bern",
      "building": "embassy",
      "country": "IT",
      "diplomatic": "embassy",
      "embassy": "residence",
      "image": "https://upload.wikimedia.org/wikipedia/commons/thumb/5/57/Italienische_Botschaft_in_Bern.jpg/800px-Italienische_Botschaft_in_Bern.jpg",
      "name": "Residenz Italien",
      "name:ar": "\u0625\u0642\u0627\u0645\u0629 \u0625\u064a\u0637\u0627\u0644\u064a\u0627",
      "name:en": "Residence Italy",
      "name:es": "Residencia Italia",
      "name:fr": "R\u00e9sidence Italie",
      "name:it": "Residenza Italia",
      "office": "diplomatic",
      "source": "Orthofotos Bern",
      "target": "CH",
      "wikidata": "Q117451497",
      "wikimedia_commons": "Category:Villa (Elfenstrasse 10, Bern)"
    },
    "distance_to_station": 284.42559827984155
  },
  {
    "feature_type": "offices",
    "lat": 46.9398498,
    "lon": 7.4605223,
    "tags": {
      "addr:city": "Bern",
      "addr:housenumber": "6",
      "addr:postcode": "3006",
      "addr:street": "Elfenstrasse",
      "alt_name:ar": "\u0627\u0644\u0633\u0641\u0627\u0631\u0629 \u0627\u0644\u0639\u0631\u0627\u0642\u064a\u0629",
      "building": "embassy",
      "country": "IQ",
      "diplomatic": "embassy",
      "embassy": "yes",
      "name": "Botschaft Irak",
      "name:ar": "\u0633\u0641\u0627\u0631\u0629 \u0627\u0644\u0639\u0631\u0627\u0642",
      "office": "diplomatic",
      "target": "CH"
    },
    "distance_to_station": 282.96075293270695
  },
  {
    "feature_type": "offices",
    "lat": 46.9402961,
    "lon": 7.4596163,
    "tags": {
      "addr:city": "Bern",
      "addr:housenumber": "60",
      "addr:postcode": "3006",
      "addr:street": "Thunstrasse",
      "building": "embassy",
      "country": "VA",
      "diplomatic": "embassy",
      "embassy": "nunciature",
      "name": "Botschaft Vatikan",
      "office": "diplomatic",
      "target": "CH"
    },
    "distance_to_station": 309.1284689298057
  },
  {
    "feature_type": "offices",
    "lat": 46.9405977,
    "lon": 7.4608124,
    "tags": {
      "building": "yes",
      "country": "KURDISTAN",
      "diplomatic": "liaison",
      "liaison": "liaison_office",
      "name": "Repr\u00e4sentanz Kurdistan",
      "name:ar": "\u0645\u0643\u062a\u0628 \u062a\u0645\u062b\u064a\u0644 \u0643\u0631\u062f\u0633\u062a\u0627\u0646",
      "office": "diplomatic",
      "source": "Orthofotos Bern",
      "target": "CH"
    },
    "distance_to_station": 213.79211207254892
  },
  {
    "feature_type": "offices",
    "lat": 46.9396736,
    "lon": 7.461748,
    "tags": {
      "addr:city": "Bern",
      "addr:housenumber": "24",
      "addr:postcode": "3006",
      "addr:street": "Beatusstrasse",
      "alt_name": "Botschaft Irland - Residenz",
      "building": "yes",
      "country": "IE",
      "diplomatic": "embassy",
      "embassy": "residence",
      "name": "Residenz Irland",
      "office": "diplomatic",
      "source": "Orthofotos Bern",
      "target": "CH"
    },
    "distance_to_station": 243.1276662956097
  },
  {
    "feature_type": "offices",
    "lat": 46.9401947,
    "lon": 7.4577058,
    "tags": {
      "addr:city": "Bern",
      "addr:housenumber": "90",
      "addr:postcode": "3005",
      "addr:street": "Kirchenfeldstrasse",
      "building": "embassy",
      "contact:addr:full": "Kirchenfeldstrasse 90, 3005 Bern",
      "country": "NO",
      "diplomatic": "embassy",
      "embassy": "residence",
      "name": "Residenz Norwegen",
      "office": "diplomatic",
      "target": "CH"
    },
    "distance_to_station": 445.896643985387
  },
  {
    "feature_type": "offices",
    "lat": 46.9401498,
    "lon": 7.4573328,
    "tags": {
      "addr:city": "Bern",
      "addr:housenumber": "88",
      "addr:postcode": "3005",
      "addr:street": "Kirchenfeldstrasse",
      "alt_name": "Kanadische Botschaft",
      "building": "embassy",
      "contact:addr:full": "Kirchenfeldstrasse 88, 3005 Bern",
      "contact:email": "bern@international.gc.ca",
      "contact:fax": "+41 31 3573210",
      "contact:phone": "+41 31 3573200",
      "country": "CA",
      "diplomatic": "embassy",
      "embassy": "yes",
      "name": "Botschaft Kanada",
      "name:de": "Botschaft Kanada",
      "name:en": "Embassy Canada",
      "name:fr": "Ambassade du Canada",
      "office": "diplomatic",
      "opening_hours": "Mo-Th 08:00-12:00, 13:00-17:00; Fr 08:00-13:00; Sa-Su off; PH off",
      "source": "survey and https://www.eda.admin.ch/eda/de/home/vertretungen-und-reisehinweise/kanada/kanada-vertretunginderschweiz.html",
      "target": "CH",
      "website": "https://www.canadainternational.gc.ca/switzerland-suisse",
      "wikidata": "Q26979975"
    },
    "distance_to_station": 474.16398696463455
  },
  {
    "feature_type": "offices",
    "lat": 46.9378676,
    "lon": 7.4628667,
    "tags": {
      "addr:city": "Bern",
      "addr:housenumber": "43",
      "addr:postcode": "3006",
      "addr:street": "Brunnadernstrasse",
      "building": "house",
      "country": "ES",
      "diplomatic": "embassy",
      "embassy": "residence",
      "name": "Residenz Spanien",
      "name:ar": "\u0625\u0642\u0627\u0645\u0629 \u0625\u0633\u0628\u0627\u0646\u064a\u0627",
      "name:es": "Residencia de la Embajada de Espa\u00f1a",
      "office": "diplomatic",
      "source": "Orthofotos Bern",
      "target": "CH"
    },
    "distance_to_station": 418.5260477029878
  },
  {
    "feature_type": "offices",
    "lat": 46.9382348,
    "lon": 7.4648775,
    "tags": {
      "addr:city": "Bern",
      "addr:country": "CH",
      "addr:housenumber": "33",
      "addr:postcode": "3006",
      "addr:street": "Lombachweg",
      "alt_name:ar": "\u0627\u0644\u0633\u0641\u0627\u0631\u0629 \u0627\u0644\u062a\u0631\u0643\u064a\u0629",
      "building": "embassy",
      "contact:email": "botschaft.bern@mfa.gov.tr",
      "contact:fax": "+41 31 352 88 19",
      "contact:phone": "+41 31 359 70 70",
      "contact:website": "https://bern-be.mfa.gov.tr/",
      "country": "TR",
      "diplomatic": "embassy",
      "embassy": "yes",
      "name": "Botschaft T\u00fcrkei",
      "name:ar": "\u0633\u0641\u0627\u0631\u0629 \u062a\u0631\u0643\u064a\u0627",
      "name:en": "Turkish Embassy",
      "name:tr": "T\u00fcrkiye Ba\u015fkonsoloslu\u011fu",
      "office": "diplomatic",
      "official_name:tr": "T\u00fcrkiye Cumhuriyeti Bern B\u00fcy\u00fckel\u00e7ili\u011fi",
      "opening_hours": "Mo-Fr 09:00-12:30; 14:00-17:30",
      "source": "Orthofotos Bern",
      "target": "CH;LI",
      "wikidata": "Q2464725"
    },
    "distance_to_station": 398.0670391699796
  },
  {
    "feature_type": "offices",
    "lat": 46.9386974,
    "lon": 7.4655756,
    "tags": {
      "addr:city": "Bern",
      "addr:housenumber": "27",
      "addr:postcode": "3006",
      "addr:street": "Lombachweg",
      "building": "embassy",
      "country": "SA",
      "diplomatic": "embassy",
      "embassy": "residence",
      "name": "Residenz Saudi-Arabien",
      "name:ar": "\u0625\u0642\u0627\u0645\u0629 \u0627\u0644\u0645\u0645\u0644\u0643\u0629 \u0627\u0644\u0639\u0631\u0628\u064a\u0629 \u0627\u0644\u0633\u0639\u0648\u062f\u064a\u0629",
      "office": "diplomatic",
      "source": "Orthofotos Bern",
      "target": "CH"
    },
    "distance_to_station": 372.40819978853415
  },
  {
    "feature_type": "offices",
    "lat": 46.9391036,
    "lon": 7.4660116,
    "tags": {
      "addr:city": "Bern",
      "addr:country": "CH",
      "addr:housenumber": "23",
      "addr:postcode": "3006",
      "addr:street": "Lombachweg",
      "building": "embassy",
      "consulate": "yes",
      "contact:email": "visastelle@bluewin.ch",
      "contact:fax": "+41 31 3518256",
      "contact:phone": "+41 31 3514593",
      "country": "CN",
      "diplomatic": "consulate",
      "name": "Konsulat China",
      "name:en": "Consulate China",
      "name:es": "Consulado China",
      "name:fr": "Consulat Chine",
      "name:it": "Consolato Cina",
      "name:zh": "\u9886\u4e8b\u9986\u4e2d\u56fd",
      "name_alt": "Botschaft China - Konsulat",
      "office": "diplomatic",
      "opening_hours": "Mo-Fr 09:00-12:00; Sa-Su off",
      "source": "Orthofotos Bern",
      "target": "CH",
      "website": "http://www.china-embassy.ch"
    },
    "distance_to_station": 352.69355945256706
  },
  {
    "feature_type": "offices",
    "lat": 46.9428483,
    "lon": 7.4606366,
    "tags": {
      "addr:city": "Bern",
      "addr:country": "CH",
      "addr:housenumber": "10",
      "addr:postcode": "3006",
      "addr:street": "Kramburgstrasse",
      "building": "yes",
      "contact:email": "bern@mission.mfa.gov.az",
      "contact:fax": "+41 31 3505041",
      "contact:phone": "+41 31 3505040",
      "country": "AZ",
      "diplomatic": "embassy",
      "embassy": "yes",
      "name": "Botschaft Aserbaidschan",
      "name:de": "Botschaft Aserbaidschan",
      "name:en": "Embassy Azerbaijan",
      "name:es": "Embajada Azerbaiy\u00e1n",
      "name:fr": "Ambassade d'Azerba\u00efdjan",
      "name:it": "Ambasciata Azerbaigian",
      "office": "diplomatic",
      "opening_hours": "Mo-Fr 09:00-18:00; Sa-Su off",
      "source": "http://www.eda.admin.ch/eda/de/home/reps/forrep/hidden/c_238.html",
      "target": "CH",
      "website": "http://www.azembassy.ch",
      "wikidata": "Q12836562"
    },
    "distance_to_station": 236.99646086649244
  },
  {
    "feature_type": "offices",
    "lat": 46.9417628,
    "lon": 7.4683041,
    "tags": {
      "addr:city": "Bern",
      "addr:country": "CH",
      "addr:housenumber": "53",
      "addr:postcode": "3006",
      "addr:street": "Muristrasse",
      "building": "embassy",
      "contact:email": "bern@embassy.mzv.cz",
      "contact:fax": "+41 31 3504098",
      "contact:phone": "+41 31 3504070",
      "country": "CZ",
      "diplomatic": "embassy",
      "embassy": "yes",
      "name": "Botschaft Tschechien",
      "name:cs": "Velvyslanectv\u00ed \u010cesk\u00e9 republiky",
      "name:en": "Embassy Czech Republic",
      "name:es": "Embajada Rep\u00fablica Checa",
      "name:fr": "Ambassade de Tch\u00e9quie",
      "name:it": "Ambasciata Repubblica Ceca",
      "name:sk": "Ve\u013evyslanectvo \u010ceskej republiky",
      "office": "diplomatic",
      "opening_hours": "Mo-Fr 10:00-12:00",
      "source": "Parzellenplan + Orthofotos Bern",
      "target": "CH",
      "website": "https://www.mzv.cz/bern",
      "wikidata": "Q26980196"
    },
    "distance_to_station": 388.33225408302764
  },
  {
    "feature_type": "offices",
    "lat": 46.9406392,
    "lon": 7.4571458,
    "tags": {
      "addr:city": "Bern",
      "addr:housenumber": "50",
      "addr:postcode": "3005",
      "addr:street": "Thunstrasse",
      "alt_name": "Britische Botschaft",
      "building": "embassy",
      "contact:addr:full": "Thunstrasse 50, 3005 Bern",
      "contact:email": "info.berne@fcdo.gov.uk",
      "contact:facebook": "https://www.facebook.com/britishembassyberne/",
      "contact:fax": "+41 31 359 77 01",
      "contact:twitter": "https://twitter.com/UKEmbassyBerne",
      "contact:website": "https://www.gov.uk/world/organisations/british-embassy-berne",
      "country": "GB",
      "diplomatic": "embassy",
      "embassy": "yes",
      "emergency:phone": "+41 31 359 77 00",
      "name": "Botschaft Grossbritannien",
      "name:en": "British Embassy",
      "name:es": "Embajada Reino Unido",
      "name:fr": "Ambassade du Royaume-Uni",
      "name:it": "Ambasciata Regno Unito",
      "name:tr": "Birle\u015fik Krall\u0131k B\u00fcy\u00fckel\u00e7ili\u011fi",
      "office": "diplomatic",
      "opening_hours": "open \"By appointment only\";PH off",
      "source": "survey and https://www.eda.admin.ch/eda/en/fdfa/representations-and-travel-advice/great-britain/great-britain-representation-in-ch.html",
      "target": "CH;LI",
      "wikidata": "Q26980133"
    },
    "distance_to_station": 471.98793247159085
  }
]