[
  {
    "feature_type": "atms",
    "lat": 46.9554404,
    "lon": 7.4471675,
    "tags": {
      "amenity": "atm",
      "cash_in": "no",
      "operator": "PostFinance",
      "wheelchair": "yes"
    },
    "distance_to_station": 653.43094983653
  },
  {
    "feature_type": "atms",
    "lat": 46.9548602,
    "lon": 7.4515599,
    "tags": {
      "amenity": "atm",
      "cash_in": "no",
      "drive_through": "no",
      "operator": "PostFinance",
      "operator:wikidata": "Q449233"
    },
    "distance_to_station": 807.7664875956758
  },
  {
    "feature_type": "atms",
    "lat": 46.960885,
    "lon": 7.4538695,
    "tags": {
      "amenity": "atm",
      "location": "indoor",
      "opening_hours": "24/7",
      "operator": "PostFinance"
    },
    "distance_to_station": 550.1377221229727
  },
  {
    "feature_type": "atms",
    "lat": 46.9567184,
    "lon": 7.4399462,
    "tags": {
      "amenity": "atm",
      "operator": "PostFinance"
    },
    "distance_to_station": 722.5680900537735
  },
  {
    "feature_type": "atms",
    "lat": 46.9582037,
    "lon": 7.4544438,
    "tags": {
      "amenity": "atm",
      "brand": "Valiant",
      "brand:wikidata": "Q2509061",
      "operator": "Valiant",
      "operator:wikidata": "Q2509061"
    },
    "distance_to_station": 685.1253290538797
  }
]