[
  {
    "feature_type": "offices",
    "lat": 46.936092,
    "lon": 7.471385,
    "tags": {
      "addr:postcode": "3006",
      "contact:addr": "Scharnachtalstrasse 12, 3006 Bern",
      "contact:email": "info@changewell.ch",
      "contact:phone": "+41 79 3540782",
      "contact:website": "http://www.changewell.ch/kontakt",
      "designation": "consulting",
      "name": "Changewell",
      "office": "company",
      "opening_hours": "Mo-Fr",
      "operator": "Cornelia Werner",
      "source": "survey and website",
      "website": "http://www.changewell.ch"
    },
    "distance_to_station": 476.2924973254003
  },
  {
    "feature_type": "offices",
    "lat": 46.9367943,
    "lon": 7.4643213,
    "tags": {
      "addr:city": "Bern",
      "addr:housenumber": "53",
      "addr:postcode": "3006",
      "addr:street": "Brunnadernstrasse",
      "building": "yes",
      "consulate": "yes",
      "country": "RU",
      "diplomatic": "consulate",
      "name": "Konsulat Russland",
      "office": "diplomatic",
      "source": "Orthofotos Bern",
      "target": "CH"
    },
    "distance_to_station": 407.7227486639974
  },
  {
    "feature_type": "offices",
    "lat": 46.9369521,
    "lon": 7.4652231,
    "tags": {
      "addr:city": "Bern",
      "addr:housenumber": "40",
      "addr:postcode": "3006",
      "addr:street": "Willadingweg",
      "building": "yes",
      "country": "EG",
      "diplomatic": "embassy",
      "embassy": "residence",
      "name": "Residenz Aegypten",
      "name:ar": "\u0625\u0642\u0627\u0645\u0629 \u0645\u0635\u0631",
      "office": "diplomatic",
      "source": "Orthofotos Bern",
      "target": "CH"
    },
    "distance_to_station": 402.54234067283863
  },
  {
    "feature_type": "offices",
    "lat": 46.9372374,
    "lon": 7.4660423,
    "tags": {
      "addr:city": "Bern",
      "addr:housenumber": "51",
      "addr:postcode": "3006",
      "addr:street": "Elfenauweg",
      "alt_name:ar": "\u0627\u0644\u0633\u0641\u0627\u0631\u0629 \u0627\u0644\u0623\u0646\u062f\u0648\u0646\u064a\u0633\u064a\u0629",
      "building": "yes",
      "country": "ID",
      "diplomatic": "embassy",
      "embassy": "yes",
      "name": "Botschaft Indonesien",
      "name:ar": "\u0633\u0641\u0627\u0631\u0629 \u0625\u0646\u062f\u0648\u0646\u064a\u0633\u064a\u0627",
      "office": "diplomatic",
      "source": "Orthofotos Bern",
      "target": "CH"
    },
    "distance_to_station": 424.2571936357312
  },
  {
    "feature_type": "offices",
    "lat": 46.9369631,
    "lon": 7.4623624,
    "tags": {
      "addr:city": "Bern",
      "addr:housenumber": "38",
      "addr:postcode": "3006",
      "addr:street": "Kalcheggweg",
      "building": "yes",
      "country": "KR",
      "diplomatic": "embassy",
      "embassy": "yes",
      "name": "Botschaft S\u00fcdkorea",
      "name:fr": "Ambassade de Cor\u00e9e du Sud",
      "office": "diplomatic",
      "source": "Orthofotos Bern",
      "target": "CH"
    },
    "distance_to_station": 501.20263101294813
  },
  {
    "feature_type": "offices",
    "lat": 46.9356645,
    "lon": 7.4605644,
    "tags": {
      "addr:city": "Bern",
      "addr:housenumber": "21",
      "addr:postcode": "3006",
      "addr:street": "Brunnadernrain",
      "building": "yes",
      "country": "KR",
      "diplomatic": "embassy",
      "embassy": "residence",
      "name": "Residenz S\u00fcdkorea",
      "office": "diplomatic",
      "target": "CH"
    },
    "distance_to_station": 512.2751595291119
  },
  {
    "feature_type": "offices",
    "lat": 46.9350661,
    "lon": 7.4612777,
    "tags": {
      "addr:city": "Bern",
      "addr:housenumber": "27",
      "addr:postcode": "3006",
      "addr:street": "Brunnadernrain",
      "building": "yes",
      "country": "GH",
      "diplomatic": "embassy",
      "embassy": "residence",
      "name": "Residenz Ghana",
      "office": "diplomatic",
      "source": "Orthofotos Bern",
      "target": "CH"
    },
    "distance_to_station": 433.84595877676645
  },
  {
    "feature_type": "offices",
    "lat": 46.9349438,
    "lon": 7.4615499,
    "tags": {
      "addr:housenumber": "29",
      "addr:street": "Brunnadernrain",
      "building": "yes",
      "country": "CM",
      "diplomatic": "embassy",
      "embassy": "yes",
      "name": "Botschaft Kamerun",
      "name:ar": "\u0633\u0641\u0627\u0631\u0629 \u0627\u0644\u0643\u0627\u0645\u064a\u0631\u0648\u0646",
      "name:en": "Embassy of Cameroon",
      "name:fr": "Ambassade du Cameroun",
      "name:it": "Ambasciata di Camerun",
      "office": "diplomatic",
      "phone": "+41-31-352-47-37",
      "source": "Orthofotos Bern",
      "target": "CH",
      "website": "http://www.ambacamberne.ch",
      "wikidata": "Q26995197"
    },
    "distance_to_station": 409.4008935921898
  },
  {
    "feature_type": "offices",
    "lat": 46.9352753,
    "lon": 7.4621445,
    "tags": {
      "addr:city": "Bern",
      "addr:housenumber": "83",
      "addr:postcode": "3006",
      "addr:street": "Willadingweg",
      "building": "yes",
      "country": "DE",
      "diplomatic": "embassy",
      "embassy": "yes",
      "name": "Botschaft Deutschland",
      "name:fr": "Ambassade d'Allemagne",
      "name:it": "Ambascaita di Germania",
      "office": "diplomatic",
      "official_name": "Botschaft der Bundesrepublik Deutschland",
      "source": "Orthofotos Bern",
      "target": "CH;LI",
      "website": "https://bern.diplo.de/",
      "wikidata": "Q26980117",
      "wikipedia": "de:Deutsche Botschaft Bern"
    },
    "distance_to_station": 386.8842668331135
  },
  {
    "feature_type": "offices",
    "lat": 46.9359947,
    "lon": 7.4630403,
    "tags": {
      "addr:city": "Bern",
      "addr:housenumber": "61",
      "addr:postcode": "3006",
      "addr:street": "Willadingweg",
      "building": "yes",
      "country": "LI",
      "diplomatic": "embassy",
      "embassy": "residence",
      "name": "Residenz Liechtenstein",
      "office": "diplomatic",
      "source": "Orthofotos Bern",
      "target": "CH"
    },
    "distance_to_station": 385.7877788470766
  },
  {
    "feature_type": "offices",
    "lat": 46.9361347,
    "lon": 7.4646868,
    "tags": {
      "addr:city": "Bern",
      "addr:housenumber": "61",
      "addr:postcode": "3006",
      "addr:street": "Elfenauweg",
      "alt_name:ar": "\u0627\u0644\u0633\u0641\u0627\u0631\u0629 \u0627\u0644\u0645\u0635\u0631\u064a\u0629",
      "building": "yes",
      "country": "EG",
      "diplomatic": "embassy",
      "embassy": "yes",
      "name": "Botschaft Aegypten",
      "name:ar": "\u0633\u0641\u0627\u0631\u0629 \u0645\u0635\u0631",
      "name:en": "Embassy of Egypt",
      "name:fr": "Ambassade d'\u00c9gypte",
      "name:it": "Ambasciata d'Egitto",
      "office": "diplomatic",
      "phone": "+41-31-352-80-12",
      "source": "Orthofotos Bern",
      "target": "CH",
      "wikidata": "Q26979961"
    },
    "distance_to_station": 329.42244528471446
  },
  {
    "feature_type": "offices",
    "lat": 46.9350246,
    "lon": 7.4631826,
    "tags": {
      "addr:housenumber": "74",
      "addr:street": "Willadingweg",
      "alt_name:ar": "\u0627\u0644\u0633\u0641\u0627\u0631\u0629 \u0627\u0644\u062c\u0632\u0627\u0626\u0631\u064a\u0629",
      "building": "yes",
      "country": "DZ",
      "diplomatic": "embassy",
      "embassy": "yes",
      "name": "Botschaft Algerien",
      "name:ar": "\u0633\u0641\u0627\u0631\u0629 \u0627\u0644\u062c\u0632\u0627\u0626\u0631",
      "name:en": "Embassy of Algeria",
      "name:fr": "Ambassade d'Alg\u00e9rie",
      "name:it": "Ambasciata d'Algeria",
      "office": "diplomatic",
      "opening_hours:covid19": "Mo-Fr 09:00-12:30",
      "phone": "+41 031 350 10 50",
      "source": "Orthofotos Bern",
      "target": "CH",
      "website": "https://ambassade-algerie.ch/",
      "wikidata": "Q26979962",
      "wikipedia": "fr:Ambassade d'Alg\u00e9rie en Suisse"
    },
    "distance_to_station": 305.79503696395045
  },
  {
    "feature_type": "offices",
    "lat": 46.9349074,
    "lon": 7.4627446,
    "tags": {
      "addr:city": "Bern",
      "addr:housenumber": "78",
      "addr:postcode": "3006",
      "addr:street": "Willadingweg",
      "building": "yes",
      "building:levels": "3",
      "consulate": "yes",
      "country": "DE",
      "diplomatic": "consulate",
      "name": "Konsulat Deutschland",
      "name:en": "German Consulate",
      "office": "diplomatic",
      "opening_hours": "Mo,Tu,Th 08:15-12:30,13:30-16:30; We 09:00-12:30,13:30-16:30; Fr 08:15-12:30",
      "phone": "+41 31 359 43 43",
      "source": "Orthofotos Bern",
      "target": "CH",
      "website": "http://www.bern.diplo.de/",
      "wikidata": "Q26980117"
    },
    "distance_to_station": 326.7425948064778
  },
  {
    "feature_type": "offices",
    "lat": 46.9347371,
    "lon": 7.4620412,
    "tags": {
      "addr:city": "Bern",
      "addr:housenumber": "31",
      "addr:postcode": "3006",
      "addr:street": "Brunnadernrain",
      "building": "yes",
      "country": "DE",
      "diplomatic": "embassy",
      "embassy": "residence",
      "name": "Residenz des deutschen Botschafters",
      "office": "diplomatic",
      "source": "Orthofotos Bern",
      "target": "CH"
    },
    "distance_to_station": 365.99563451547215
  },
  {
    "feature_type": "offices",
    "lat": 46.9340765,
    "lon": 7.4633088,
    "tags": {
      "addr:housenumber": "37",
      "addr:street": "Brunnadernrain",
      "building": "yes",
      "country": "RU",
      "diplomatic": "embassy",
      "embassy": "yes",
      "name": "Botschaft Russland",
      "name:en": "Embassy of Russia",
      "name:fr": "Ambassade de Russie",
      "name:it": "Ambasciata di Russia",
      "name:ru": "\u041f\u043e\u0441\u043e\u043b\u044c\u0441\u0442\u0432\u043e \u0420\u043e\u0441\u0441\u0438\u0438",
      "office": "diplomatic",
      "phone": "+41-31-352-05-66",
      "source": "Orthofotos Bern",
      "target": "CH",
      "website": "https://switzerland.mid.ru",
      "wikidata": "Q16687409"
    },
    "distance_to_station": 250.2460887473315
  },
  {
    "feature_type": "offices",
    "lat": 46.9356628,
    "lon": 7.4629371,
    "tags": {
      "addr:housenumber": "65",
      "addr:street": "Willadingweg",
      "building": "yes",
      "country": "LI",
      "diplomatic": "embassy",
      "embassy": "yes",
      "name": "Botschaft Liechtenstein",
      "name:en": "Embassy of Liechtenstein",
      "name:fr": "Ambassade du Liechtenstein",
      "name:it": "Ambasciata di Liechtenstein",
      "office": "diplomatic",
      "opening_hours": "Mo-Fr 09:00-12:00, 14:00-16:00",
      "phone": "+41 31 / 357 6411",
      "source": "Orthofotos Bern",
      "target": "CH",
      "wikidata": "Q26980142"
    },
    "distance_to_station": 365.1143595876249
  }
]