[
  {
    "feature_type": "parking",
    "lat": 46.9426024,
    "lon": 7.4507673,
    "tags": {
      "addr:city": "Bern",
      "addr:country": "CH",
      "addr:housenumber": "9a",
      "addr:postcode": "3005",
      "addr:street": "Helvetiastrasse",
      "amenity": "parking",
      "layer": "-1",
      "parking": "underground"
    },
    "distance_to_station": 149.68733581835681
  },
  {
    "feature_type": "parking",
    "lat": 46.9422706,
    "lon": 7.4496668,
    "tags": {
      "access": "private",
      "amenity": "parking",
      "capacity": "24",
      "parking": "surface"
    },
    "distance_to_station": 137.76387348138385
  },
  {
    "feature_type": "parking",
    "lat": 46.9437152,
    "lon": 7.450378,
    "tags": {
      "addr:city": "Bern",
      "addr:country": "CH",
      "addr:postcode": "3005",
      "amenity": "parking",
      "capacity": "5",
      "capacity:disabled": "no",
      "capacity:women": "no",
      "fee": "yes",
      "operator": "Stadt Bern",
      "parking": "surface",
      "source": "Orthofoto Bern"
    },
    "distance_to_station": 274.5203800643662
  },
  {
    "feature_type": "parking",
    "lat": 46.9438535,
    "lon": 7.4502349,
    "tags": {
      "access": "yes",
      "amenity": "parking",
      "capacity": "5",
      "capacity:disabled": "0",
      "fee": "yes",
      "operator": "Stadt Bern",
      "parking": "lane",
      "surface": "asphalt"
    },
    "distance_to_station": 290.98290282574567
  },
  {
    "feature_type": "parking",
    "lat": 46.9424444,
    "lon": 7.4539423,
    "tags": {
      "access": "private",
      "amenity": "parking",
      "parking": "surface",
      "surface": "asphalt"
    },
    "distance_to_station": 278.6704487024043
  },
  {
    "feature_type": "parking",
    "lat": 46.9408594,
    "lon": 7.4472471,
    "tags": {
      "access": "customers",
      "amenity": "parking"
    },
    "distance_to_station": 266.5781109231728
  },
  {
    "feature_type": "parking",
    "lat": 46.9376898,
    "lon": 7.4507743,
    "tags": {
      "access": "yes",
      "amenity": "parking",
      "fee": "yes",
      "maxstay:conditional": "6 h @ 07:00-19:00",
      "parking": "surface"
    },
    "distance_to_station": 396.6624373344845
  },
  {
    "feature_type": "parking",
    "lat": 46.9377901,
    "lon": 7.4505728,
    "tags": {
      "access": "yes",
      "amenity": "parking",
      "fee": "yes",
      "maxstay:conditional": "6 h @ 07:00-19:00",
      "parking": "surface"
    },
    "distance_to_station": 385.619954443693
  },
  {
    "feature_type": "parking",
    "lat": 46.9449308,
    "lon": 7.4495318,
    "tags": {
      "access": "customers",
      "amenity": "parking"
    },
    "distance_to_station": 418.20532883495054
  },
  {
    "feature_type": "parking",
    "lat": 46.9442444,
    "lon": 7.4480207,
    "tags": {
      "access": "private",
      "amenity": "parking",
      "capacity": "12",
      "parking": "surface"
    },
    "distance_to_station": 389.9222345617908
  },
  {
    "feature_type": "parking",
    "lat": 46.9428205,
    "lon": 7.450823,
    "tags": {
      "access": "private",
      "amenity": "parking",
      "layer": "4",
      "parking": "surface",
      "source": "Orthofotos Bern"
    },
    "distance_to_station": 174.08737715541045
  },
  {
    "feature_type": "parking",
    "lat": 46.9410529,
    "lon": 7.4463193,
    "tags": {
      "access": "private",
      "amenity": "parking",
      "parking": "surface",
      "source": "survey"
    },
    "distance_to_station": 334.0968214168874
  },
  {
    "feature_type": "parking",
    "lat": 46.9403542,
    "lon": 7.4459671,
    "tags": {
      "access": "private",
      "amenity": "parking",
      "source": "Orthofotos Bern"
    },
    "distance_to_station": 373.7934672854244
  },
  {
    "feature_type": "parking",
    "lat": 46.9406273,
    "lon": 7.446032,
    "tags": {
      "access": "private",
      "amenity": "parking",
      "source": "Orthofotos Bern"
    },
    "distance_to_station": 361.9717705573258
  },
  {
    "feature_type": "parking",
    "lat": 46.9422473,
    "lon": 7.4489069,
    "tags": {
      "access": "private",
      "amenity": "parking",
      "capacity": "6",
      "source": "Orthofotos Bern"
    },
    "distance_to_station": 175.6883105650905
  },
  {
    "feature_type": "parking",
    "lat": 46.9439417,
    "lon": 7.4501491,
    "tags": {
      "access": "yes",
      "amenity": "parking",
      "capacity": "5",
      "capacity:disabled": "0",
      "fee": "yes",
      "operator": "Stadt Bern",
      "parking": "lane",
      "surface": "asphalt"
    },
    "distance_to_station": 301.56756132145887
  },
  {
    "feature_type": "parking",
    "lat": 46.9438125,
    "lon": 7.4484396,
    "tags": {
      "access": "yes",
      "amenity": "parking",
      "capacity": "14",
      "capacity:disabled": "0",
      "fee": "yes",
      "maxstay": "3 hours",
      "maxstay:conditional": "no @ 19:00-07:00",
      "operator": "Stadt Bern",
      "parking": "surface",
      "supervised": "no",
      "surface": "asphalt"
    },
    "distance_to_station": 332.3616030214401
  },
  {
    "feature_type": "parking",
    "lat": 46.9441774,
    "lon": 7.4500086,
    "tags": {
      "access": "yes",
      "amenity": "parking",
      "capacity": "6",
      "capacity:disabled": "0",
      "fee": "yes",
      "operator": "Stadt Bern",
      "parking": "lane",
      "surface": "asphalt"
    },
    "distance_to_station": 329.09099677203767
  },
  {
    "feature_type": "parking",
    "lat": 46.9440976,
    "lon": 7.449853,
    "tags": {
      "access": "yes",
      "amenity": "parking",
      "capacity": "5",
      "capacity:disabled": "0",
      "fee": "yes",
      "operator": "Stadt Bern",
      "parking": "lane",
      "surface": "asphalt"
    },
    "distance_to_station": 322.5114111043479
  },
  {
    "feature_type": "parking",
    "lat": 46.9405323,
    "lon": 7.4470052,
    "tags": {
      "access": "private",
      "amenity": "parking"
    },
    "distance_to_station": 292.5658590108862
  },
  {
    "feature_type": "parking",
    "lat": 46.9439893,
    "lon": 7.4485643,
    "tags": {
      "access": "yes",
      "amenity": "parking",
      "capacity": "5",
      "capacity:disabled": "1",
      "fee": "yes",
      "maxstay": "3 hours",
      "maxstay:conditional": "no @ 19:00-07:00",
      "operator": "Stadt Bern",
      "orientation": "perpendicular",
      "parking": "street_side",
      "supervised": "no",
      "surface": "asphalt"
    },
    "distance_to_station": 344.7471285710132
  },
  {
    "feature_type": "parking",
    "lat": 46.9422802,
    "lon": 7.4500664,
    "tags": {
      "access": "customers",
      "amenity": "parking",
      "capacity": "16",
      "opening_hours": "Mo-Fr off; Sa-Su 08:00-18:00",
      "parking": "surface"
    },
    "distance_to_station": 123.83993873750549
  },
  {
    "feature_type": "parking",
    "lat": 46.9422956,
    "lon": 7.4485317,
    "tags": {
      "amenity": "parking",
      "maxstay": "3.5 hours",
      "parking": "street_side",
      "tourist_bus": "only"
    },
    "distance_to_station": 201.71113180703668
  },
  {
    "feature_type": "parking",
    "lat": 46.9420495,
    "lon": 7.4485091,
    "tags": {
      "access": "yes",
      "amenity": "parking",
      "capacity": "1",
      "capacity:disabled": "1",
      "parking": "street_side"
    },
    "distance_to_station": 188.90446761640416
  },
  {
    "feature_type": "parking",
    "lat": 46.9416967,
    "lon": 7.4486099,
    "tags": {
      "access": "private",
      "amenity": "parking",
      "destination": "Parkkarte 3005",
      "orientation": "diagonal",
      "parking": "street_side",
      "surface": "asphalt"
    },
    "distance_to_station": 166.76246871532652
  },
  {
    "feature_type": "parking",
    "lat": 46.9426071,
    "lon": 7.4483484,
    "tags": {
      "access": "yes",
      "amenity": "parking",
      "destination": "Parkkarte 3005",
      "fee": "yes",
      "maxstay": "3 hours",
      "maxstay:conditional": "no @ (19:00-07:00)",
      "orientation": "parallel",
      "parking": "lane",
      "surface": "asphalt"
    },
    "distance_to_station": 233.84757957465254
  },
  {
    "feature_type": "parking",
    "lat": 46.9429333,
    "lon": 7.4482646,
    "tags": {
      "access": "yes",
      "amenity": "parking",
      "destination": "Parkkarte 3005",
      "fee": "yes",
      "maxstay": "3 hours",
      "maxstay:conditional": "no @ (19:00-07:00)",
      "orientation": "parallel",
      "parking": "lane",
      "surface": "asphalt"
    },
    "distance_to_station": 263.08524417685385
  },
  {
    "feature_type": "parking",
    "lat": 46.9430825,
    "lon": 7.4483345,
    "tags": {
      "access": "yes",
      "amenity": "parking",
      "destination": "Parkkarte 3005",
      "fee": "yes",
      "maxstay": "3 hours",
      "maxstay:conditional": "no @ (19:00-07:00)",
      "orientation": "parallel",
      "parking": "lane",
      "surface": "asphalt"
    },
    "distance_to_station": 271.53708728473185
  },
  {
    "feature_type": "parking",
    "lat": 46.9428029,
    "lon": 7.4484075,
    "tags": {
      "access": "yes",
      "amenity": "parking",
      "destination": "Parkkarte 3005",
      "fee": "yes",
      "maxstay": "3 hours",
      "maxstay:conditional": "no @ (19:00-07:00)",
      "orientation": "parallel",
      "parking": "lane",
      "surface": "asphalt"
    },
    "distance_to_station": 245.16924819751216
  },
  {
    "feature_type": "parking",
    "lat": 46.9425306,
    "lon": 7.4484802,
    "tags": {
      "access": "yes",
      "amenity": "parking",
      "destination": "Parkkarte 3005",
      "fee": "yes",
      "maxstay": "3 hours",
      "maxstay:conditional": "no @ (19:00-07:00)",
      "orientation": "parallel",
      "parking": "street_side",
      "surface": "asphalt"
    },
    "distance_to_station": 220.71501465712657
  }
]