[
  {
    "feature_type": "parking",
    "lat": 46.9438827,
    "lon": 7.4296609,
    "tags": {
      "access": "private",
      "addr:city": "Bern",
      "addr:country": "CH",
      "addr:housenumber": "36a",
      "addr:postcode": "3007",
      "addr:street": "Zieglerstrasse",
      "amenity": "parking",
      "layer": "-1",
      "noexit": "yes",
      "parking": "underground"
    },
    "distance_to_station": 92.21956822189256
  },
  {
    "feature_type": "parking",
    "lat": 46.9442131,
    "lon": 7.4288573,
    "tags": {
      "access": "private",
      "addr:city": "Bern",
      "addr:country": "CH",
      "addr:housenumber": "15a",
      "addr:postcode": "3007",
      "addr:street": "Lilienweg",
      "amenity": "parking",
      "layer": "-1",
      "noexit": "yes",
      "parking": "underground"
    },
    "distance_to_station": 46.9718416552722
  },
  {
    "feature_type": "parking",
    "lat": 46.9468375,
    "lon": 7.4243179,
    "tags": {
      "access": "customers",
      "amenity": "parking",
      "charge": "2.00 CHF / 30 minutes",
      "description": "Tiefgarage f\u00fcr Besucher Anna-Seiler-Haus",
      "fee": "yes",
      "layer": "-1",
      "level": "-2",
      "level:ref": "U3",
      "maxheight": "2.2",
      "operator": "Inselspital",
      "parking": "underground"
    },
    "distance_to_station": 437.9064458126054
  },
  {
    "feature_type": "parking",
    "lat": 46.9468154,
    "lon": 7.4270992,
    "tags": {
      "amenity": "parking"
    },
    "distance_to_station": 287.5304717510793
  },
  {
    "feature_type": "parking",
    "lat": 46.9446454,
    "lon": 7.4229793,
    "tags": {
      "access": "yes",
      "amenity": "parking",
      "parking": "surface",
      "surface": "asphalt"
    },
    "distance_to_station": 462.6791932603279
  },
  {
    "feature_type": "parking",
    "lat": 46.9446546,
    "lon": 7.4241211,
    "tags": {
      "access": "yes",
      "amenity": "parking",
      "fee": "no",
      "maxstay": "60 minutes",
      "parking": "surface",
      "surface": "asphalt"
    },
    "distance_to_station": 376.0179271173257
  },
  {
    "feature_type": "parking",
    "lat": 46.9441231,
    "lon": 7.4320715,
    "tags": {
      "access": "private",
      "amenity": "parking",
      "covered": "yes",
      "fee": "yes"
    },
    "distance_to_station": 233.87995614785143
  },
  {
    "feature_type": "parking",
    "lat": 46.94315,
    "lon": 7.4304716,
    "tags": {
      "access": "customers",
      "amenity": "parking",
      "operator": "Glas Scherz AG",
      "operator:type": "corporation",
      "parking": "surface"
    },
    "distance_to_station": 193.83199476987156
  },
  {
    "feature_type": "parking",
    "lat": 46.9414342,
    "lon": 7.427962,
    "tags": {
      "access": "private",
      "amenity": "parking",
      "parking": "surface"
    },
    "distance_to_station": 362.9514111809809
  },
  {
    "feature_type": "parking",
    "lat": 46.9415274,
    "lon": 7.4277907,
    "tags": {
      "access": "private",
      "amenity": "parking",
      "parking": "surface"
    },
    "distance_to_station": 356.21496969273903
  },
  {
    "feature_type": "parking",
    "lat": 46.9417045,
    "lon": 7.4274336,
    "tags": {
      "access": "private",
      "amenity": "parking"
    },
    "distance_to_station": 346.1194744852147
  },
  {
    "feature_type": "parking",
    "lat": 46.9416131,
    "lon": 7.4276118,
    "tags": {
      "access": "private",
      "amenity": "parking",
      "parking": "surface"
    },
    "distance_to_station": 351.11272738323
  },
  {
    "feature_type": "parking",
    "lat": 46.9418387,
    "lon": 7.4271856,
    "tags": {
      "access": "private",
      "amenity": "parking"
    },
    "distance_to_station": 339.7446831822717
  },
  {
    "feature_type": "parking",
    "lat": 46.9429798,
    "lon": 7.4318983,
    "tags": {
      "access": "customers",
      "amenity": "parking",
      "capacity": "2",
      "operator": "Natel Spycher",
      "parking": "surface",
      "surface": "asphalt"
    },
    "distance_to_station": 280.68369764424784
  },
  {
    "feature_type": "parking",
    "lat": 46.9431593,
    "lon": 7.4320032,
    "tags": {
      "access": "private",
      "amenity": "parking",
      "parking": "surface",
      "surface": "asphalt"
    },
    "distance_to_station": 274.64360338251294
  },
  {
    "feature_type": "parking",
    "lat": 46.9440713,
    "lon": 7.4325486,
    "tags": {
      "access": "customers",
      "amenity": "parking",
      "fee": "no",
      "parking": "surface",
      "surface": "asphalt"
    },
    "distance_to_station": 270.46376905858483
  },
  {
    "feature_type": "parking",
    "lat": 46.941791,
    "lon": 7.4304665,
    "tags": {
      "access": "private",
      "amenity": "parking",
      "parking": "surface"
    },
    "distance_to_station": 330.6799831992724
  },
  {
    "feature_type": "parking",
    "lat": 46.9465127,
    "lon": 7.4346668,
    "tags": {
      "addr:housenumber": "20",
      "addr:street": "Effingerstrasse",
      "amenity": "parking",
      "capacity": "430",
      "capacity:charging": "1",
      "capacity:disabled": "2",
      "capacity:women": "43",
      "contact:website": "http://www.parking-bern.ch/d/index.php#parking_P04",
      "fee": "yes",
      "name": "City-West",
      "opening_hours": "24/7",
      "parking": "underground",
      "site": "parking",
      "supervised": "yes",
      "type": "site"
    },
    "distance_to_station": 474.42252345310214
  }
]