[
  {
    "feature_type": "atms",
    "lat": 46.9554404,
    "lon": 7.4471675,
    "tags": {
      "amenity": "atm",
      "cash_in": "no",
      "operator": "PostFinance",
      "wheelchair": "yes"
    },
    "distance_to_station": 445.78572954463925
  },
  {
    "feature_type": "atms",
    "lat": 46.9548602,
    "lon": 7.4515599,
    "tags": {
      "amenity": "atm",
      "cash_in": "no",
      "drive_through": "no",
      "operator": "PostFinance",
      "operator:wikidata": "Q449233"
    },
    "distance_to_station": 153.4149722250144
  },
  {
    "feature_type": "atms",
    "lat": 46.960885,
    "lon": 7.4538695,
    "tags": {
      "amenity": "atm",
      "location": "indoor",
      "opening_hours": "24/7",
      "operator": "PostFinance"
    },
    "distance_to_station": 566.0891610493359
  },
  {
    "feature_type": "atms",
    "lat": 46.9567184,
    "lon": 7.4399462,
    "tags": {
      "amenity": "atm",
      "operator": "PostFinance"
    },
    "distance_to_station": 998.2816130555979
  },
  {
    "feature_type": "atms",
    "lat": 46.947786,
    "lon": 7.4522585,
    "tags": {
      "amenity": "atm",
      "check_date": "2025-05-13",
      "operator": "PostFinance",
      "operator:wikidata": "Q449233"
    },
    "distance_to_station": 895.8028413862207
  },
  {
    "feature_type": "atms",
    "lat": 46.9494104,
    "lon": 7.4438434,
    "tags": {
      "amenity": "atm",
      "brand": "Raiffeisen",
      "brand:wikidata": "Q681189",
      "check_date": "2023-01-09",
      "opening_hours": "24/7",
      "operator": "Raiffeisen",
      "operator:wikidata": "Q681189"
    },
    "distance_to_station": 997.2449178180879
  },
  {
    "feature_type": "atms",
    "lat": 46.9481298,
    "lon": 7.4524265,
    "tags": {
      "amenity": "atm",
      "brand": "Berner Kantonalbank",
      "brand:de": "Berner Kantonalbank",
      "brand:fr": "Banque Cantonale Bernoise",
      "brand:wikidata": "Q824579",
      "check_date": "2025-07-20",
      "name:de": "Berner Kantonalbank",
      "name:fr": "Banque Cantonale Bernoise",
      "operator": "Berner Kantonalbank",
      "operator:wikidata": "Q824579",
      "short_name": "BEKB",
      "short_name:de": "BEKB",
      "short_name:fr": "BCBE"
    },
    "distance_to_station": 856.9185451536109
  },
  {
    "feature_type": "atms",
    "lat": 46.948604,
    "lon": 7.4455931,
    "tags": {
      "amenity": "atm",
      "brand": "Migros Bank",
      "brand:de": "Migros Bank",
      "brand:fr": "Banque Migros",
      "brand:it": "Banca Migros",
      "brand:wikidata": "Q1593349",
      "currency:CHF": "yes",
      "name:de": "Migros Bank",
      "name:fr": "Banque Migros",
      "name:it": "Banca Migros",
      "operator": "Migros Bank",
      "operator:wikidata": "Q1593349",
      "wheelchair": "yes"
    },
    "distance_to_station": 981.1168286529587
  },
  {
    "feature_type": "atms",
    "lat": 46.9486078,
    "lon": 7.4455677,
    "tags": {
      "amenity": "atm",
      "brand": "Migros Bank",
      "brand:de": "Migros Bank",
      "brand:fr": "Banque Migros",
      "brand:it": "Banca Migros",
      "brand:wikidata": "Q1593349",
      "check_date": "2022-09-22",
      "currency:CHF": "yes",
      "name:de": "Migros Bank",
      "name:fr": "Banque Migros",
      "name:it": "Banca Migros",
      "operator": "Migros Bank",
      "operator:wikidata": "Q1593349"
    },
    "distance_to_station": 981.8833867738151
  },
  {
    "feature_type": "atms",
    "lat": 46.9488141,
    "lon": 7.4455707,
    "tags": {
      "amenity": "atm",
      "brand": "Migros Bank",
      "brand:de": "Migros Bank",
      "brand:fr": "Banque Migros",
      "brand:it": "Banca Migros",
      "brand:wikidata": "Q1593349",
      "cash_in": "no",
      "check_date": "2025-07-19",
      "name:de": "Migros Bank",
      "name:fr": "Banque Migros",
      "name:it": "Banca Migros",
      "operator": "Migros Bank",
      "operator:wikidata": "Q1593349"
    },
    "distance_to_station": 963.0906645127992
  },
  {
    "feature_type": "atms",
    "lat": 46.9494066,
    "lon": 7.4438595,
    "tags": {
      "amenity": "atm",
      "brand": "Raiffeisen",
      "brand:wikidata": "Q681189",
      "check_date": "2023-01-22",
      "opening_hours": "24/7",
      "operator": "Raiffeisen",
      "operator:wikidata": "Q681189"
    },
    "distance_to_station": 996.6915516785959
  },
  {
    "feature_type": "atms",
    "lat": 46.9582037,
    "lon": 7.4544438,
    "tags": {
      "amenity": "atm",
      "brand": "Valiant",
      "brand:wikidata": "Q2509061",
      "operator": "Valiant",
      "operator:wikidata": "Q2509061"
    },
    "distance_to_station": 286.1512526421356
  }
]