[
  {
    "feature_type": "restaurants",
    "lat": 46.948331,
    "lon": 7.4575151,
    "tags": {
      "addr:postcode": "3011",
      "alt_name": "Zum M\u00fchlirad",
      "amenity": "restaurant",
      "contact:addr": "Gerberngasse 4, 3011 Bern",
      "contact:email": "info@muehlirad-bern.ch",
      "contact:fax": "+41 31 3119933",
      "contact:phone": "+41 31 3112109",
      "cuisine": "regional",
      "name": "M\u00fchlirad",
      "opening_hours": "Mo-Sa 11:00-23:30; Su 11:30-20:30",
      "source": "survey and website",
      "website": "https://www.muehlirad-bern.ch"
    },
    "distance_to_station": 901.6429698060948
  },
  {
    "feature_type": "restaurants",
    "lat": 46.9548055,
    "lon": 7.4456326,
    "tags": {
      "alt_name": "Caf\u00e9 du Nord",
      "amenity": "restaurant",
      "contact:addr": "Lorrainestrasse 2, 3013 Bern",
      "contact:email": "geniessen@du-nord.ch",
      "contact:phone": "+41 31 3329090",
      "diet:vegan": "yes",
      "diet:vegetarian": "yes",
      "name": "Du Nord",
      "opening_hours": "Mo-Th 11:30-23:30, Fr 11:30-00:30, Sa 10:30-00:30, Su 10:30-23:30",
      "operator": "KG Gastrokultur GmbH",
      "source": "survey and website",
      "toilets:wheelchair": "yes",
      "website": "https://www.du-nord.ch/",
      "wheelchair": "yes"
    },
    "distance_to_station": 571.947339848759
  },
  {
    "feature_type": "restaurants",
    "lat": 46.9497684,
    "lon": 7.4576532,
    "tags": {
      "amenity": "restaurant",
      "contact:addr": "L\u00e4uferplatz 6, 3011 Bern",
      "contact:email": "info@casa-novo.ch",
      "contact:facebook": "https://www.facebook.com/pages/Casa-Novo/23878806248",
      "contact:phone": "+41 31 9924444",
      "name": "Casa Novo",
      "opening_hours": "Mo off; Tu-Fr 11:30-14:30, 17:30-23:30; Sa 17:00-23:30; Su 11:30-22:00",
      "operator": "Casa Novo GmbH",
      "source": "survey and website",
      "website": "https://www.casa-novo.ch"
    },
    "distance_to_station": 761.2294131186787
  },
  {
    "feature_type": "restaurants",
    "lat": 46.9586076,
    "lon": 7.4550161,
    "tags": {
      "alt_name": "Restaurant Grotto Ticino, Pizzeria Cafiero",
      "amenity": "restaurant",
      "contact:addr": "Breitenrainplatz 26, 3014 Bern",
      "contact:email": "info@grotto-ticino.ch",
      "contact:fax": "+41 31 3317255",
      "contact:phone": "+41 31 3319677",
      "contact:website": "http://www.grotto-ticino.ch/kontakt/",
      "cuisine": "italian;pizza",
      "name": "Grotto Ticino",
      "opening_hours": "Tu-Sa 12:00-23:00",
      "operator": "Fam. Cafiero",
      "source": "survey and website",
      "website": "https://www.grotto-ticino.ch/"
    },
    "distance_to_station": 345.1240688327983
  },
  {
    "feature_type": "restaurants",
    "lat": 46.9581818,
    "lon": 7.4564389,
    "tags": {
      "amenity": "restaurant",
      "contact:addr": "Herzogstrasse 2, 3014 Bern",
      "contact:phone": "+41 31 3313038",
      "name": "Palette",
      "operator": "Videira Manuel and Estewao Jose",
      "source": "survey"
    },
    "distance_to_station": 370.3019809527433
  },
  {
    "feature_type": "restaurants",
    "lat": 46.9484579,
    "lon": 7.4472176,
    "tags": {
      "alt_name": "Restaurant Brasserie Anker",
      "amenity": "restaurant",
      "check_date": "2025-07-21",
      "contact:addr": "Kornhausplatz 16, 3011 Bern",
      "contact:fax": "+41 31 3111171",
      "contact:phone": "+41 31 3111113",
      "cuisine": "regional",
      "name": "Anker",
      "opening_hours": "Mo-Fr 08:00-23:30; Sa 09:00-23:30; Su 09:30-18:00",
      "source": "survey and website",
      "website": "https://www.roeschti.ch/",
      "wheelchair": "no"
    },
    "distance_to_station": 929.9721353652936
  },
  {
    "feature_type": "restaurants",
    "lat": 46.9579807,
    "lon": 7.445612,
    "tags": {
      "addr:full": "Quartiergasse 17, 3013 Bern",
      "alt_name": "Restaurant Genossenschaft Brasserie Lorraine",
      "amenity": "restaurant",
      "contact:email": "info@brasserie-lorraine.ch",
      "contact:fax": "+41 31 3339545",
      "contact:phone": "+41 31 3323929",
      "name": "Brasserie Lorraine",
      "opening_hours": "Mo off; Tu-Sa 09:00-00:30; Su 10:00-00:30",
      "operator": "Genossenschaft Restaurant Brasserie Lorraine",
      "outdoor_seating": "yes",
      "source": "website",
      "website": "https://www.brasserie-lorraine.ch/",
      "wheelchair": "yes"
    },
    "distance_to_station": 610.9078565929283
  },
  {
    "feature_type": "restaurants",
    "lat": 46.9580433,
    "lon": 7.4465318,
    "tags": {
      "addr:city": "Bern",
      "addr:housenumber": "3",
      "addr:postcode": "3013",
      "addr:street": "Quartiergasse",
      "amenity": "restaurant",
      "capacity": "100",
      "cuisine": "italian",
      "currency:CHF": "yes",
      "currency:EUR": "yes",
      "email": "info@lacarbonara.ch",
      "fax": "+41 31 332 14 42",
      "indoor_seating": "yes",
      "name": "La Carbonara",
      "opening_hours": "Mo-Fr 08:00-23:30; Sa 10:00-23:30; Su off",
      "outdoor_seating": "yes",
      "payment:american_express": "yes",
      "payment:cash": "yes",
      "payment:contactless": "yes",
      "payment:maestro": "yes",
      "payment:mastercard": "yes",
      "payment:postcard": "yes",
      "payment:visa": "yes",
      "phone": "+41 31 332 14 40",
      "reservation": "yes",
      "takeaway": "yes",
      "website": "http://www.lacarbonara.ch",
      "wheelchair": "limited"
    },
    "distance_to_station": 550.2570334295006
  },
  {
    "feature_type": "restaurants",
    "lat": 46.957451,
    "lon": 7.4467117,
    "tags": {
      "amenity": "restaurant",
      "name": "Hof-Bistro",
      "old_name": "Dixie",
      "opening_hours": "Mo-Fr 10:00-16:00"
    },
    "distance_to_station": 511.2740605282099
  },
  {
    "feature_type": "restaurants",
    "lat": 46.9561265,
    "lon": 7.4448525,
    "tags": {
      "alt_name": "Restaurant & Take away OKRA",
      "amenity": "restaurant",
      "contact:addr": "Lorrainestrasse 9, 3013 Bern",
      "contact:email": "info@okra.ch",
      "contact:facebook": "https://www.facebook.com/pages/Restaurant-OKRA/127068844074364",
      "contact:phone": "+41 31 3321844",
      "cuisine": "indian",
      "diet:vegan": "yes",
      "diet:vegetarian": "yes",
      "name": "Okra",
      "opening_hours": "Mo off; Tu-Fr 11:00-14:00, 17:30-23:30; Sa-Su 17:30-23:30",
      "operator": "Okra GmbH",
      "source": "survey and website",
      "takeaway": "yes",
      "website": "https://www.okra.ch/",
      "wheelchair": "no"
    },
    "distance_to_station": 620.7955832008705
  },
  {
    "feature_type": "restaurants",
    "lat": 46.9476025,
    "lon": 7.4488702,
    "tags": {
      "alt_name": "Restaurant Falken",
      "amenity": "restaurant",
      "check_date": "2025-07-20",
      "contact:addr": "M\u00fcnstergasse 64, 3011 Bern",
      "contact:email": "info@falkenbern.ch",
      "contact:fax": "+41 31 3113062",
      "contact:phone": "+41 31 3113095",
      "name": "Falken",
      "opening_hours": "Mo-Fr 09:00-23:30; Sa 08:00-23:30; Su off",
      "operator": "Helene Hebeisen",
      "smoking": "no",
      "source": "survey and website",
      "website": "http://www.falkenbern.ch",
      "wheelchair": "no"
    },
    "distance_to_station": 966.8844629698187
  },
  {
    "feature_type": "restaurants",
    "lat": 46.9485322,
    "lon": 7.459372,
    "tags": {
      "addr:city": "Bern",
      "addr:country": "CH",
      "addr:housenumber": "1",
      "addr:postcode": "3006",
      "addr:street": "Grosser Muristalden",
      "amenity": "restaurant",
      "contact:email": "info@brasseriebaerengraben.ch",
      "contact:fax": "+41 31 3312560",
      "contact:phone": "+41 31 3314218",
      "contact:website": "http://www.brasseriebaerengraben.ch/kontakt.html",
      "name": "Brasserie B\u00e4rengraben",
      "opening_hours": "Mo-Fr 07:00-23:30; Sa-Su 08:00-23:30",
      "operator": "WaJu GmbH",
      "source": "survey and website",
      "website": "https://www.brasseriebaerengraben.ch/",
      "wheelchair": "no"
    },
    "distance_to_station": 945.1988603362961
  },
  {
    "feature_type": "restaurants",
    "lat": 46.9492827,
    "lon": 7.4444986,
    "tags": {
      "alt_name": "Ristorante Luce",
      "amenity": "restaurant",
      "capacity": "100",
      "contact:addr": "Zeughausgasse 28, 3011 Bern",
      "contact:email": "info@ristoranteluce.ch",
      "contact:facebook": "https://www.facebook.com/ristoranteluce",
      "contact:phone": "+41 31 3109999",
      "cuisine": "italian",
      "diet:vegetarian": "yes",
      "name": "Luce",
      "opening_hours": "Mo-Su 09:00-24:00",
      "operator": "Nilovic + Nilovic",
      "outdoor_seating": "yes",
      "reservation": "recommended",
      "smoking": "outside",
      "source": "survey and website",
      "toilets:wheelchair": "yes",
      "website": "https://www.ristoranteluce.ch",
      "wheelchair": "yes"
    },
    "distance_to_station": 973.6226742027712
  },
  {
    "feature_type": "restaurants",
    "lat": 46.94969,
    "lon": 7.4440069,
    "tags": {
      "amenity": "restaurant",
      "name": "Oliv",
      "old_name": "Ristorante Il Grissino",
      "website": "https://www.dallmaier.ch/oliv-bern"
    },
    "distance_to_station": 966.3949671629636
  },
  {
    "feature_type": "restaurants",
    "lat": 46.9486658,
    "lon": 7.4467097,
    "tags": {
      "amenity": "restaurant",
      "diet:vegetarian": "no",
      "name": "Schalander"
    },
    "distance_to_station": 928.988445229581
  },
  {
    "feature_type": "restaurants",
    "lat": 46.9488891,
    "lon": 7.4473524,
    "tags": {
      "alt_name": "Pi\u00f9 Kornhaus",
      "amenity": "restaurant",
      "branch": "Bern Kornhaus",
      "brand": "Pi\u00f9",
      "check_date": "2025-07-16",
      "contact:addr": "Kornhausplatz 18, 3011 Bern",
      "contact:email": "kornhaus@piu-ristorante.ch",
      "contact:fax": "+41 31 3277271",
      "contact:phone": "+41 31 3277270",
      "cuisine": "italian",
      "diet:vegan": "yes",
      "diet:vegetarian": "yes",
      "name": "Pi\u00f9",
      "opening_hours": "Tu,We,Fr 10:00-19:00; Th 10:00-21:30; Sa 10:00-17:00; Su off",
      "operator": "Bindella",
      "start_date": "2020-06-08",
      "toilets:wheelchair": "yes",
      "website": "https://www.piu-ristorante.ch/piu-kornhaus",
      "wheelchair": "yes"
    },
    "distance_to_station": 882.9884856906485
  },
  {
    "feature_type": "restaurants",
    "lat": 46.94874,
    "lon": 7.447867,
    "tags": {
      "amenity": "restaurant",
      "contact:addr": "Kornhausplatz 19, 3011 Bern",
      "contact:email": "ringgenberg@taberna.ch",
      "contact:fax": "+41 31 3119797",
      "contact:phone": "+41 31 3112540",
      "indoor_seating": "yes",
      "name": "Ringgenberg",
      "opening_hours": "Mo-Fr 11:30-23:30; Sa 09:00-23:30; Su 10:00-23:30",
      "operator": "taBerna Gastro-Kultur AG",
      "outdoor_seating": "yes",
      "source": "survey and website",
      "website": "https://www.restaurant-ringgenberg.ch/",
      "wheelchair": "no"
    },
    "distance_to_station": 879.4258070240985
  },
  {
    "feature_type": "restaurants",
    "lat": 46.9482752,
    "lon": 7.4477006,
    "tags": {
      "amenity": "restaurant",
      "branch": "Bern",
      "brand": "Trattoria Sempre",
      "contact:email": "bern@spaghetti-factory.ch",
      "contact:phone": "+41 31 312 54 55",
      "contact:website": "https://www.bindella.ch/gastronomie/trattoria-sempre-bern",
      "cuisine": "italian;american",
      "name": "Trattoria Sempre",
      "opening_hours": "Mo-Th 11:30-22:30, Fr-Sa 11:30-23:30 So 11.30-22.00 Uhr",
      "opening_hours:kitchen": "Mo-Th 11:30-14:00,17:00-22:30; Fr 11:30-14:00,17:00-23:00; Sa 11:30-23:00",
      "operator": "Bindella",
      "toilets": "yes",
      "toilets:access": "customers",
      "toilets:wheelchair": "no",
      "wheelchair": "limited"
    },
    "distance_to_station": 931.4219477211321
  },
  {
    "feature_type": "restaurants",
    "lat": 46.9476682,
    "lon": 7.4476207,
    "tags": {
      "alt_name": "Ristorante Lorenzini",
      "amenity": "restaurant",
      "contact:addr": "Hotelgasse 10, 3011 Bern",
      "contact:email": "info@lorenzini.ch",
      "contact:fax": "+41 31 3123038",
      "contact:phone": "+41 31 3185067",
      "cuisine": "italian",
      "name": "Lorenzini",
      "opening_hours": "Mo-Sa 07:00-00:30; Su 10:00-23:30",
      "operator": "Bindella",
      "source": "survey and website",
      "website": "https://www.bindella.ch/de/lorenzini.html",
      "wheelchair": "no"
    },
    "distance_to_station": 995.1700390822471
  },
  {
    "feature_type": "restaurants",
    "lat": 46.9488688,
    "lon": 7.4495055,
    "tags": {
      "addr:city": "Bern",
      "addr:country": "CH",
      "addr:housenumber": "19",
      "addr:postcode": "3011",
      "addr:street": "Brunngasse",
      "amenity": "restaurant",
      "contact:email": "info@zimmermania.ch",
      "contact:phone": "+41 31 3111542",
      "diet:vegan": "no",
      "diet:vegetarian": "yes",
      "name": "Zimmermania",
      "opening_hours": "Mo off; Tu-Sa 11:30-14:30,18:00+; Su off",
      "operator": "Janine Mangiantini",
      "source": "website",
      "website": "http://www.zimmermania.ch",
      "wheelchair": "limited"
    },
    "distance_to_station": 818.0335473538424
  },
  {
    "feature_type": "restaurants",
    "lat": 46.9483345,
    "lon": 7.4529121,
    "tags": {
      "alt_name": "W\u00e4bere",
      "amenity": "restaurant",
      "contact:addr": "Gerechtigkeitsgasse 68, 3011 Bern",
      "contact:fax": "+41 31 3122066",
      "contact:phone": "+41 31 3114258",
      "contact:website": "http://www.restwebern.ch",
      "cuisine": "regional",
      "name": "Zunft zu Webern",
      "opening_hours": "Mo 09:00-24:00; Tu-Sa 00:00-00:30,09:00-24:00; Su 00:00-00:30",
      "smoking": "isolated",
      "source": "survey and website",
      "toilets:wheelchair": "yes",
      "wheelchair": "yes"
    },
    "distance_to_station": 833.0875882350007
  },
  {
    "feature_type": "restaurants",
    "lat": 46.9482676,
    "lon": 7.4530574,
    "tags": {
      "alt_name": "Restaurant Krone Bern",
      "amenity": "restaurant",
      "contact:addr": "Gerechtigkeitsgasse 66, 3011 Bern",
      "contact:email": "info@kronebern.ch",
      "contact:phone": "+41 31 3121314",
      "cuisine": "regional",
      "name": "Krone",
      "opening_hours": "Mo-Fr 09:00-23:30; Sa 16:00-00:30; Su off",
      "operator": "Krone Bern AG",
      "smoking": "no",
      "source": "survey and website",
      "website": "https://www.kronebern.ch/"
    },
    "distance_to_station": 840.5128602525734
  },
  {
    "feature_type": "restaurants",
    "lat": 46.9491041,
    "lon": 7.4454423,
    "tags": {
      "amenity": "restaurant",
      "cuisine": "suisse",
      "email": "info@loetschbergbern.ch",
      "name": "L\u00f6tschberg",
      "note": "Bring Back Box: https://www.gruenetatze.ch/loetschberg",
      "opening_hours": "Mo-Fr 10:00-24:00; Sa 09:00-24:00; Su 11:00-23:00",
      "outdoor_seating": "yes",
      "phone": "+41 31 311 34 55",
      "smoking": "outside",
      "toilets:wheelchair": "yes",
      "website": "https://loetschbergbern.ch/",
      "wheelchair": "yes",
      "wheelchair:description": "Bei Personal melden um rollstuhlg\u00e4ngigen Seiteneingang zu \u00f6ffnen."
    },
    "distance_to_station": 943.1067191158688
  },
  {
    "feature_type": "restaurants",
    "lat": 46.9637361,
    "lon": 7.4560047,
    "tags": {
      "addr:city": "Bern",
      "addr:housenumber": "56",
      "addr:postcode": "3014",
      "addr:street": "Winkelriedstrasse",
      "alt_name": "Ristorante Il Profeta",
      "amenity": "restaurant",
      "contact:addr": "Winkelriedstrasse 56, 3014 Bern",
      "contact:phone": "+41 31 3317393",
      "cuisine": "italian",
      "name": "Il Profeta",
      "opening_hours": "Mo-Fr 11:00-23:30; Sa-Su off",
      "source": "survey and website",
      "website": "https://www.ilprofeta.ch/"
    },
    "distance_to_station": 908.4595098305736
  },
  {
    "feature_type": "restaurants",
    "lat": 46.9482359,
    "lon": 7.4480647,
    "tags": {
      "alt_name": "Mekong Beizli Huynh",
      "amenity": "restaurant",
      "contact:addr": "Kornhausplatz 7, 3011 Bern",
      "contact:email": "info@mekong-beizli.ch",
      "contact:phone": "+41 31 3112600",
      "cuisine": "vietnamese",
      "diet:vegetarian": "yes",
      "name": "Mekong",
      "opening_hours": "Mo-Sa 11:00-14:00, 17:30-23:00; May-Sep Su 10:00-23:00",
      "source": "survey and website",
      "website": "https://www.mekong-beizli.ch/",
      "wheelchair": "limited"
    },
    "distance_to_station": 923.7550373428379
  },
  {
    "feature_type": "restaurants",
    "lat": 46.950927,
    "lon": 7.460555,
    "tags": {
      "addr:city": "Bern",
      "addr:country": "CH",
      "addr:housenumber": "31b",
      "addr:postcode": "3006",
      "addr:street": "Alter Aargauerstalden",
      "amenity": "restaurant",
      "changing_table": "no",
      "contact:email": "info@rosengarten.be",
      "contact:facebook": "https://www.facebook.com/rosengartenbern",
      "contact:fax": "+41 31 3313212",
      "contact:phone": "+41 31 3313206",
      "indoor_seating": "yes",
      "name": "Rosengarten",
      "opening_hours": "Mo-Su 09:00-23:30",
      "outdoor_seating": "yes",
      "source": "Survey and website",
      "toilets": "yes",
      "toilets:wheelchair": "designated",
      "website": "https://www.rosengarten.be",
      "wheelchair": "yes"
    },
    "distance_to_station": 792.4118642898896
  },
  {
    "feature_type": "restaurants",
    "lat": 46.9528647,
    "lon": 7.4405862,
    "tags": {
      "addr:city": "Bern",
      "addr:country": "CH",
      "addr:housenumber": "8",
      "addr:postcode": "3012",
      "addr:street": "Neubr\u00fcckstrasse",
      "alt_name": "Restaurant Sous le Pont",
      "amenity": "restaurant",
      "contact:email": "slp@reitschule.ch",
      "contact:phone": "+41 31 3066955",
      "diet:vegan": "yes",
      "diet:vegetarian": "yes",
      "name": "Sous le Pont",
      "opening_hours": "Tu-Th 11:30-24:00, Fr 11:30-02:00, Sa 18:00-02:00",
      "opening_hours:url": "http://souslepont.ch/index.php?page=oeffnungszeiten",
      "source": "survey and website",
      "toilets:wheelchair": "yes",
      "website": "http://www.souslepont.ch",
      "wheelchair": "yes"
    },
    "distance_to_station": 1000.4771010174205
  },
  {
    "feature_type": "restaurants",
    "lat": 46.9611333,
    "lon": 7.4502091,
    "tags": {
      "amenity": "restaurant",
      "contact:city": "Bern",
      "contact:email": "info@restaurant-ludmilla.ch",
      "contact:housenumber": "24",
      "contact:phone": "+41 31 302 33 33",
      "contact:postcode": "3014",
      "contact:street": "Flurstrasse",
      "contact:website": "https://www.restaurant-ludmilla.ch",
      "cuisine": "regional",
      "indoor_seating": "yes",
      "name": "Ludmilla",
      "opening_hours": "Mo-Fr 11:30-23:00; Sa 18:00-23:00",
      "outdoor_seating": "yes"
    },
    "distance_to_station": 626.7795147292011
  },
  {
    "feature_type": "restaurants",
    "lat": 46.9587028,
    "lon": 7.446406,
    "tags": {
      "alt_name": "Caf\u00e9 Kairo",
      "amenity": "restaurant",
      "contact:addr": "Dammweg 43, 3013 Bern",
      "contact:email": "kairo@lorraine.ch",
      "contact:phone": "+41 31 3302625",
      "cuisine": "regional",
      "name": "Kairo",
      "opening_hours": "Mo-Fr 08:30-00:30; Sa 09:30-00:30; Su off",
      "outdoor_seating": "yes",
      "source": "survey and website",
      "toilets:wheelchair": "no",
      "website": "https://www.cafe-kairo.ch",
      "wheelchair": "no"
    },
    "distance_to_station": 594.7948683076453
  },
  {
    "feature_type": "restaurants",
    "lat": 46.9583991,
    "lon": 7.4477306,
    "tags": {
      "alt_name": "Ristorante Pizzeria R\u00f6mer",
      "amenity": "restaurant",
      "contact:addr": "Turnweg 18, 3013 Bern",
      "contact:email": "info@roemer-bern.ch",
      "contact:fax": "+41 31 3312501",
      "contact:phone": "+41 31 3310088",
      "contact:website": "http://www.roemer-bern.ch/index2.html",
      "cuisine": "italian",
      "name": "R\u00f6mer",
      "opening_hours": "Mo",
      "operator": "Alessandro La Marra",
      "source": "survey and website",
      "website": "http://www.roemer-bern.ch",
      "wheelchair": "no"
    },
    "distance_to_station": 492.29215471352495
  },
  {
    "feature_type": "restaurants",
    "lat": 46.9623208,
    "lon": 7.4551664,
    "tags": {
      "addr:full": "Weingartstrasse 32, 3014 Bern",
      "amenity": "restaurant",
      "contact:phone": "+41 31 9915151",
      "cuisine": "italian",
      "email": "calabrisella.info@gmail.com",
      "name": "Calabrisella",
      "opening_hours": "Tu-Su 09:00-23:30; Fr 09:00-00:30; Sa 10:00-00:30; Su 10:00-23:30",
      "operator": "Hilkka Helinae und Giovanni Pungillo",
      "website": "https://www.calabrisella-bern.ch/"
    },
    "distance_to_station": 740.4485058210239
  },
  {
    "feature_type": "restaurants",
    "lat": 46.9537549,
    "lon": 7.4578977,
    "tags": {
      "alt_name": "Ristorante Roseto",
      "amenity": "restaurant",
      "contact:addr": "Spitalackerstrasse 5a, 3013 Bern",
      "contact:facebook": "https://www.facebook.com/Ristorante-Roseto-1945984615632627",
      "contact:phone": "+41 31 3330013",
      "cuisine": "pizza",
      "delivery": "yes",
      "indoor_seating": "yes",
      "name": "Roseto",
      "old_name": "Bistro ONE;La Rosa",
      "opening_hours": "Mo-Fr 08:00-22:00; Su 17:00-22:00",
      "operator": "Kaya Demir",
      "outdoor_seating": "yes",
      "owner": "Kaya Demir",
      "takeaway": "yes",
      "website": "https://www.ristorante-roseto.ch/"
    },
    "distance_to_station": 438.53000813607593
  },
  {
    "feature_type": "restaurants",
    "lat": 46.9571668,
    "lon": 7.456573,
    "tags": {
      "alt_name": "Restaurant & Vinothek B\u00fcner",
      "amenity": "restaurant",
      "contact:addr": "Kasernenstrasse 31. 3013 Bern",
      "contact:email": "info@buener.ch",
      "contact:fax": "+41 31 3331516",
      "contact:phone": "+41 31 3331515",
      "diet:vegan": "no",
      "diet:vegetarian": "yes",
      "name": "B\u00fcner",
      "opening_hours": "Mo-Fr 10:00-14:00, Sa 17:30-24:00, Mo-Fr 17:30-23:00; Su off",
      "operator": "B\u00fcner Gastrokultur AG",
      "source": "survey and website",
      "website": "https://www.buener.ch/"
    },
    "distance_to_station": 310.2583628640897
  },
  {
    "feature_type": "restaurants",
    "lat": 46.9608671,
    "lon": 7.4534189,
    "tags": {
      "alt_name": "Ristorante Dolce Vita",
      "amenity": "restaurant",
      "contact:addr": "Scheibenstrasse 25, 3014 Bern",
      "contact:email": "info@la-dolcevita.ch",
      "contact:phone": "+41 31 3315515",
      "contact:website": "http://www.la-dolcevita.ch/index.php?page=kontakt",
      "cuisine": "italian",
      "name": "Dolce Vita",
      "opening_hours": "Mo-Th 08:00-23:30; Fr-Sa 08:00-00:30; Su 08:00-23:30",
      "source": "survey and website",
      "website": "http://www.la-dolcevita.ch"
    },
    "distance_to_station": 561.1076468069393
  },
  {
    "feature_type": "restaurants",
    "lat": 46.9587854,
    "lon": 7.4568571,
    "tags": {
      "alt_name": "Restaurant Lokal",
      "amenity": "restaurant",
      "contact:addr": "Milit\u00e4rstrasse 42, 3014 Bern",
      "contact:email": "restaurant@lokal-bern.ch",
      "contact:facebook": "https://www.facebook.com/lokalbern",
      "contact:phone": "+41 31 3327000",
      "name": "Lokal",
      "opening_hours": "Mo-Tu 9:30-23:30; Fr 9:30-00:00; Sa 15:00-00:00; Su off; PH off",
      "source": "survey and website",
      "website": "https://www.lokal-bern.ch/"
    },
    "distance_to_station": 440.9492759538121
  },
  {
    "feature_type": "restaurants",
    "lat": 46.951134,
    "lon": 7.4471437,
    "tags": {
      "alt_name": "Restaurant Altenberg",
      "amenity": "restaurant",
      "contact:addr": "Uferweg 4, 3013 Bern",
      "contact:phone": "+41 31 3320269",
      "cuisine": "turkish",
      "name": "Altenberg",
      "opening_hours": "Mo-Fr 08:30-00:30; Sa-Su 10:00-00:30",
      "operator": "Restaurant Altenberg GmbH",
      "outdoor_seating": "yes",
      "source": "survey"
    },
    "distance_to_station": 686.1588627655747
  },
  {
    "feature_type": "restaurants",
    "lat": 46.9530929,
    "lon": 7.4488673,
    "tags": {
      "addr:city": "Bern",
      "addr:country": "CH",
      "addr:housenumber": "3",
      "addr:postcode": "3013",
      "addr:street": "Kornhausstrasse",
      "amenity": "restaurant",
      "cuisine": "italian",
      "email": "giardino@kursaal-bern.ch",
      "name": "Restaurant Giardino",
      "opening_hours": "Mo-Th 11:00-24:00; Fr-Sa 11:00-24:30; Su 09:00-24:00",
      "opening_hours:kitchen": "11:30-14:00,18:00-22:00",
      "operator": "Kongress + Kursaal Bern AG",
      "phone": "+41 31 339 52 65",
      "website": "https://kursaal-restaurant.ch/giardino-restaurant-bar"
    },
    "distance_to_station": 437.32721948403844
  },
  {
    "feature_type": "restaurants",
    "lat": 46.9563407,
    "lon": 7.4522871,
    "tags": {
      "amenity": "restaurant",
      "contact:addr:full": "Moserstrasse 14b, 3013 Bern",
      "contact:phone": "+41 31 3330788",
      "cuisine": "italian",
      "diet:vegetarian": "yes",
      "name": "Del Gusto",
      "opening_hours": "Mo-Su 08:00-23:30",
      "website": "https://del-gusto.ch"
    },
    "distance_to_station": 78.50600118369438
  },
  {
    "feature_type": "restaurants",
    "lat": 46.9557116,
    "lon": 7.4599859,
    "tags": {
      "addr:city": "Bern",
      "addr:country": "CH",
      "addr:postcode": "3014",
      "addr:street": "Papierm\u00fchlestrasse",
      "amenity": "restaurant",
      "contact:email": "gastro.kasernebern@bluewin.ch",
      "contact:fax": "+41 31 3315258",
      "contact:phone": "+41 31 3315221",
      "name": "Treffpunkt",
      "source": "survey and website",
      "website": "https://www.pom.be.ch/pom/de/index/bevoelkerungsschutz-militaer/kaserne-waffenplatz/betrieb_kasernenanlagenwaffenplatz.html"
    },
    "distance_to_station": 532.1819372485921
  },
  {
    "feature_type": "restaurants",
    "lat": 46.9571464,
    "lon": 7.4525114,
    "tags": {
      "addr:city": "Bern",
      "addr:housenumber": "25",
      "addr:postcode": "3014",
      "addr:street": "Moserstrasse",
      "amenity": "restaurant",
      "diet:vegetarian": "only",
      "email": "ks@3dosha.ch",
      "name": "3dosha ayurveda",
      "opening_hours": "Mo-Fr 11:00-14:00,18:00-22:00; Sa 17:30-22:00",
      "operator": "3dosha ayurveda GmbH",
      "phone": "+41 31 331 13 73",
      "takeaway": "yes",
      "website": "https://www.3dosha.ch/",
      "wheelchair": "limited"
    },
    "distance_to_station": 151.13543489602708
  },
  {
    "feature_type": "restaurants",
    "lat": 46.9583817,
    "lon": 7.4471237,
    "tags": {
      "alt_name": "Suban Thai Eatery",
      "amenity": "restaurant",
      "contact:addr": "Nordring 42, 3031 Bern",
      "contact:email": "info@suban.be",
      "contact:facebook": "https://www.facebook.com/Suban-1855042881429074/",
      "contact:phone": "+41 31 3336262",
      "cuisine": "thai;asian",
      "delivery": "no",
      "name": "Suban Thai Eatery",
      "opening_hours": "Mo-Th 11:00-14:00, 17:00-20:00; Fr 11:00-14:00, 17:00-22:00; Sa-Su off; PH off",
      "outdoor_seating": "yes",
      "smoking": "outside",
      "source": "Survey and website",
      "takeaway": "yes",
      "website": "https://suban.be",
      "wheelchair": "yes"
    },
    "distance_to_station": 529.5431720992777
  },
  {
    "feature_type": "restaurants",
    "lat": 46.9603909,
    "lon": 7.4544306,
    "tags": {
      "addr:postcode": "3014",
      "alt_name": "Pizzeria Michelangelo",
      "amenity": "restaurant",
      "check_date:opening_hours": "2024-02-06",
      "contact:addr": "Scheibenstrasse 16, 3014 Bern",
      "contact:email": "info@pizzeria-michelangelo.ch",
      "contact:fax": "+41 31 3329950",
      "contact:phone": "+41 31 3329950",
      "cuisine": "italian",
      "delivery": "yes",
      "name": "Michelangelo",
      "opening_hours": "Mo-Sa 10:00-22:00; Su 12:00-22:00",
      "source": "survey and website",
      "takeaway": "yes",
      "website": "http://www.michelangelo-bern.ch/",
      "wheelchair": "limited"
    },
    "distance_to_station": 518.8587269096809
  },
  {
    "feature_type": "restaurants",
    "lat": 46.9614225,
    "lon": 7.4464629,
    "tags": {
      "addr:city": "Bern",
      "addr:country": "CH",
      "addr:housename": "Wylerpark",
      "addr:housenumber": "125",
      "addr:postcode": "3014",
      "addr:street": "Wylerstrasse",
      "alt_name": "SBB Restaurant WylerPark",
      "amenity": "restaurant",
      "capacity": "107",
      "contact:email": "wylerpark@zfv.ch",
      "contact:phone": "+41 31 332 95 72",
      "contact:website": "https://zfv.ch/de/microsites/sbb-restaurant-wylerpark/ueber-uns",
      "name": "Chez SBB",
      "old_name": "Personalrestaurant SBB",
      "opening_hours": "Mo-Fr 07:30-16:00; Sa,Su off",
      "opening_hours:kitchen": "Mo-Fr 11:15-13:30",
      "operator": "ZFV",
      "outdoor_seating": "yes",
      "source": "website",
      "takeaway": "yes",
      "wheelchair": "yes"
    },
    "distance_to_station": 796.308165699053
  },
  {
    "feature_type": "restaurants",
    "lat": 46.9641604,
    "lon": 7.4527535,
    "tags": {
      "alt_name": "Bistro Wylerhuus",
      "amenity": "restaurant",
      "contact:addr": "Wylerringstrasse 60, 3014 Bern",
      "contact:email": "wylerhuus@bluewin.ch",
      "contact:phone": "+41 31 3329322",
      "name": "Wylerhuus",
      "old_name": "Caf\u00e9 Wylerhuus",
      "opening_hours": "Mo-Tu 08:30-21:00; We 08:30-18:00; Th-Fr 08:30-23:30; Sa 10:00-18:00; Su off",
      "smoking": "no",
      "source": "survey and website",
      "website": "https://www.wylerhuus.ch/bistro"
    },
    "distance_to_station": 926.486929855654
  },
  {
    "feature_type": "restaurants",
    "lat": 46.9558918,
    "lon": 7.4447901,
    "tags": {
      "access": "yes",
      "addr:city": "Bern",
      "addr:country": "CH",
      "addr:housenumber": "5a",
      "addr:postcode": "3013",
      "addr:street": "Lorrainestrasse",
      "amenity": "restaurant",
      "name": "mensa Five",
      "opening_hours": "Mo-Fr 11:00-14:00; Sa-Su off",
      "operator": "Migros",
      "wheelchair": "yes"
    },
    "distance_to_station": 624.699917913355
  },
  {
    "feature_type": "restaurants",
    "lat": 46.9569927,
    "lon": 7.4449947,
    "tags": {
      "amenity": "restaurant",
      "contact:addr": "Lorrainestrasse 32, 3013 Bern",
      "contact:website": "https://restaurant-namsan.ch/",
      "cuisine": "korean",
      "name": "Namsan",
      "opening_hours": "Mo-Fr 11:00-14:00,17:30-22:00; Tu off; Sa,Su 17:00-22:00"
    },
    "distance_to_station": 622.6878426994907
  },
  {
    "feature_type": "restaurants",
    "lat": 46.9569712,
    "lon": 7.4450707,
    "tags": {
      "amenity": "restaurant",
      "contact:addr": "Lorrainestrasse 32, 3013 Bern",
      "cuisine": "chinese",
      "level": "-1",
      "name": "Gl\u00fcckskeks",
      "opening_hours": "Tu-Fr 11:00-14:00,17:30-21:30; Sa 17:30-22:00",
      "wheelchair": "no"
    },
    "distance_to_station": 616.5335162865343
  },
  {
    "feature_type": "restaurants",
    "lat": 46.9478937,
    "lon": 7.4540539,
    "tags": {
      "addr:city": "Bern",
      "addr:country": "CH",
      "addr:housenumber": "30",
      "addr:postcode": "3011",
      "addr:street": "Junkerngasse",
      "alt_name": "Speiseanstalt der Untern Stadt Bern",
      "amenity": "restaurant",
      "contact:email": "spysi@spysi.ch",
      "contact:phone": "+41 31 3112465",
      "contact:website": "http://www.spysi.ch/index.php?cid=700",
      "name": "Spysi",
      "note": "somehow a social facility, but not in the ordinary terms",
      "opening_hours": "Jan-Mar Mo-Fr 11:30-13:00; Sa-Su off; Apr-Oct off; Nov-Dec Mo-Fr 11:30-13:00; Sa-Su off; PH off",
      "source": "survey and website",
      "website": "https://www.spysi.ch/"
    },
    "distance_to_station": 885.7316292508104
  },
  {
    "feature_type": "restaurants",
    "lat": 46.9495071,
    "lon": 7.4437168,
    "tags": {
      "alt_name": "Ristorante Rialto",
      "amenity": "restaurant",
      "brewery": "Moretti",
      "contact:addr": "Aarbergergasse 6, 3011 Bern",
      "contact:email": "elmazi@rialtobern.ch",
      "contact:fax": "+41 31 3117054",
      "contact:phone": "+41 31 3117051",
      "cuisine": "pizza",
      "level": "0",
      "name": "Rialto",
      "operator": "Elmazi GmbH",
      "outdoor_seating": "yes",
      "reservation": "yes",
      "source": "survey and website",
      "website": "https://www.rialtobern.ch/",
      "wheelchair": "limited"
    },
    "distance_to_station": 996.3910857384099
  },
  {
    "feature_type": "restaurants",
    "lat": 46.9481471,
    "lon": 7.4487055,
    "tags": {
      "alt_name": "The BEEF Steakhouse & Bar",
      "amenity": "restaurant",
      "contact:addr": "Kramgasse 74, 3011 Bern",
      "contact:email": "reservation@beef-steakhouse.ch",
      "contact:facebook": "https://www.facebook.com/beefsteakhouse",
      "contact:fax": "+41 31 3116403",
      "contact:phone": "+41 31 3116400",
      "name": "The BEEF",
      "opening_hours": "Mo-Fr 11:30-14:00; 17:30-00:30; Sa 17:30-00:30; Su off; PH off",
      "operator": "BEEF Steakhouse AG",
      "source": "survey and website",
      "toilets:wheelchair": "yes",
      "website": "https://www.beef-steakhouse.ch",
      "wheelchair": "yes"
    },
    "distance_to_station": 914.2416013546008
  },
  {
    "feature_type": "restaurants",
    "lat": 46.9490126,
    "lon": 7.454195,
    "tags": {
      "alt_name": "Restaurant Caf\u00e9 Postgasse",
      "amenity": "restaurant",
      "contact:addr": "Postgasse 48, 3011 Bern",
      "contact:email": "hofman@bluewin.ch",
      "contact:phone": "+41 31 3116044",
      "cuisine": "regional",
      "name": "Postgasse",
      "name:ja": "\u30dd\u30b9\u30c8\u30ac\u30c3\u30bb",
      "old_name": "P\u00f6schtli",
      "opening_hours": "Mo off; Tu 17:00-23:30; We-Fr 10:00-14:30, 17:30-23:30; Sa 10:00-23:30; Su off",
      "operator": "Regula & Stephan Hofmann",
      "source": "survey and website",
      "website": "https://www.cafepostgasse.ch/"
    },
    "distance_to_station": 763.1516362908369
  },
  {
    "feature_type": "restaurants",
    "lat": 46.9486119,
    "lon": 7.4487101,
    "tags": {
      "addr:city": "Bern",
      "alt_name": "Hotel Restaurant Goldener Schl\u00fcssel",
      "amenity": "restaurant",
      "contact:addr": "Rathausgasse 72, 3011 Bern",
      "contact:email": "info@goldener-schluessel.ch",
      "contact:fax": "+41 31 3115688",
      "contact:phone": "+41 31 3110216",
      "contact:website": "http://www.hotel-goldener-schluessel.ch",
      "diet:vegan": "no",
      "diet:vegetarian": "yes",
      "internet_access": "wlan",
      "internet_access:fee": "no",
      "name": "Goldener Schl\u00fcssel",
      "opening_hours": "Mo-Sa 07:00-23:30; Su off",
      "operator": "Marianne & Jost Troxler",
      "source": "website",
      "stars": "3",
      "website": "https://hotel-goldener-schluessel.ch/restaurant-bern",
      "wheelchair": "no"
    },
    "distance_to_station": 866.044757989373
  },
  {
    "feature_type": "restaurants",
    "lat": 46.9484571,
    "lon": 7.4553687,
    "tags": {
      "alt_name": "Verdi Ristorante Bar Enoteca",
      "amenity": "restaurant",
      "contact:addr": "Gerechtigkeitsgasse 7, 3011 Bern",
      "contact:email": "ristorante.verdi@bindella.ch",
      "contact:fax": "+41 31 3126374",
      "contact:phone": "+41 31 3126368",
      "cuisine": "italian",
      "diet:vegan": "yes",
      "diet:vegetarian": "yes",
      "name": "Verdi",
      "old_name": "Hotel Restaurant zum Goldenen Adler",
      "opening_hours": "Mo-Su 11:00-23:30",
      "operator": "Bindella",
      "source": "survey and website",
      "website": "https://www.bindella.ch/de/verdi.html"
    },
    "distance_to_station": 839.0951125329767
  },
  {
    "feature_type": "restaurants",
    "lat": 46.9488462,
    "lon": 7.45559,
    "tags": {
      "alt_name": "caf\u00e9 restaurant treff",
      "amenity": "restaurant",
      "contact:addr": "Gerechtigkeitsgasse 12, 3011 Bern",
      "contact:email": "team@treffbern.ch",
      "contact:fax": "+41 31 3113237",
      "contact:mobile": "+41 78 7141965",
      "contact:phone": "+41 31 3110285",
      "contact:website": "http://www.treffbern.ch/index.php/kontakt-deu",
      "cuisine": "international",
      "indoor_seating": "100+",
      "name": "treff",
      "old_name": "Pizzeria Treff",
      "opening_hours": "Mo-Th 07:00-23:00; Fr 07:00-23:30; Sa 08:00-24:00; Su 09:00-22:30",
      "outdoor_seating": "100+",
      "source": "survey and website",
      "takeaway": "yes",
      "website": "http://www.treffbern.ch"
    },
    "distance_to_station": 800.8921956234918
  },
  {
    "feature_type": "restaurants",
    "lat": 46.9475899,
    "lon": 7.448264,
    "tags": {
      "amenity": "restaurant",
      "check_date": "2025-07-20",
      "contact:addr": "Hotelgasse 3, 3011 Bern",
      "contact:email": "harmonie@harmonie.ch",
      "contact:fax": "+41 31 3131140",
      "contact:phone": "+41 31 3131141",
      "cuisine": "regional",
      "name": "Harmonie",
      "opening_hours": "Mo-Fr 08:00-23:30; Sa-Su off; PH off",
      "source": "survey and website",
      "website": "http://www.harmonie.ch"
    },
    "distance_to_station": 984.149044148892
  },
  {
    "feature_type": "restaurants",
    "lat": 46.948233,
    "lon": 7.452659,
    "tags": {
      "alt_name": "Caf\u00e9 du Commerce",
      "amenity": "restaurant",
      "contact:addr": "Gerechtigkeitsgasse 74, 3011 Bern",
      "contact:email": "info@restaurant-commerce.com",
      "contact:fax": "+41 31 3117974",
      "contact:phone": "+41 31 3111161",
      "cuisine": "spanish",
      "name": "Commerce",
      "opening_hours": "Mo 17:00-23:30; Tu-Sa 11:00-14:30, 17:00-23:30; Su off",
      "source": "survey and website",
      "website": "https://www.restaurant-commerce.com/"
    },
    "distance_to_station": 844.7373381722955
  },
  {
    "feature_type": "restaurants",
    "lat": 46.9479084,
    "lon": 7.4524508,
    "tags": {
      "alt_name": "Restaurant Ratskeller",
      "amenity": "restaurant",
      "contact:addr": "Gerechtigkeitsgasse 81, 3011 Bern",
      "contact:email": "info@ratskellerbern.ch",
      "contact:fax": "+41 31 3110762",
      "contact:phone": "+41 31 3111771",
      "cuisine": "regional",
      "indoor_seating": "yes",
      "name": "Ratskeller",
      "opening_hours": "Tu-Sa 11:00-14:30,17:30-23:00; Su,Mo off",
      "operator": "Platin Gastro GmbH",
      "outdoor_seating": "yes",
      "smoking": "no",
      "source": "survey and website",
      "website": "http://www.ratskellerbern.ch",
      "wheelchair": "yes"
    },
    "distance_to_station": 881.41173771122
  },
  {
    "feature_type": "restaurants",
    "lat": 46.9489532,
    "lon": 7.4445765,
    "tags": {
      "alt_name": "Restaurant B\u00e4renh\u00f6fli",
      "amenity": "restaurant",
      "contact:addr": "Zeughausgasse 41, 3011 Bern",
      "contact:email": "info@kreuzbern.ch",
      "contact:facebook": "https://www.facebook.com/Baerenhoefli",
      "contact:fax": "+41 31 3299596",
      "contact:instagram": "https://www.instagram.com/baerenhoefli",
      "contact:phone": "+41 31 3299500",
      "name": "B\u00e4renh\u00f6fli",
      "opening_hours": "Mo-Sa 07:30-23:30; Su 09:30-18:30",
      "operator": "Hotel Kreuz Bern AG",
      "source": "survey and website",
      "website": "https://baerenhoefli.ch/"
    },
    "distance_to_station": 997.4752727822029
  },
  {
    "feature_type": "restaurants",
    "lat": 46.948748,
    "lon": 7.4459127,
    "tags": {
      "alt_name": "Restaurant zum \u00c4usseren Stand",
      "amenity": "restaurant",
      "contact:addr": "Zeughausgasse 17, 3011 Bern",
      "contact:email": "reception@aeussererstand.ch",
      "contact:fax": "+41 31 3295050",
      "contact:phone": "+41 31 3295051",
      "name": "Zum \u00e4usseren Stand",
      "opening_hours": "Mo-Sa 11:00-14:00, 18:00-23:30",
      "operator": "Gerhard Liechti",
      "website": "https://aeussererstand.ch/",
      "wheelchair": "yes"
    },
    "distance_to_station": 954.0975648995927
  },
  {
    "feature_type": "restaurants",
    "lat": 46.9483873,
    "lon": 7.4483505,
    "tags": {
      "amenity": "restaurant",
      "contact:addr": "Rathausgasse 73, 3011 Bern",
      "contact:phone": "+41 31 3181888",
      "cuisine": "asian",
      "diet:vegetarian": "yes",
      "indoor_seating": "yes",
      "name": "Soriya Asia Restaurant",
      "opening_hours": "Mo-Sa 11:00-14:00,17:00-23:00",
      "outdoor_seating": "yes",
      "source": "website",
      "takeaway": "yes",
      "website": "https://soriya.ch/"
    },
    "distance_to_station": 899.6288516767098
  },
  {
    "feature_type": "restaurants",
    "lat": 46.9483829,
    "lon": 7.4508516,
    "tags": {
      "alt_name": "Lo Stuzzichino da Mohan",
      "amenity": "restaurant",
      "check_date": "2025-07-17",
      "contact:addr": "Rathausgasse 23, 3011 Bern",
      "contact:phone": "+41 31 3110040",
      "cuisine": "italian",
      "name": "Lo Stuzzichino",
      "opening_hours": "Tu-Fr 11:30-14:00, 18:00-23:00; Sa 18:00-23:00; Mo 11:30-14:00",
      "source": "local knowledge"
    },
    "distance_to_station": 843.6335657841987
  },
  {
    "feature_type": "restaurants",
    "lat": 46.9568043,
    "lon": 7.4582192,
    "tags": {
      "addr:city": "Bern",
      "addr:country": "CH",
      "addr:postcode": "3014",
      "addr:street": "Papierm\u00fchlestrasse",
      "alt_name": "Restaurant Time Out",
      "amenity": "restaurant",
      "contact:email": "gastro.kasernebern@bluewin.ch",
      "contact:fax": "+41 31 3315258",
      "contact:phone": "+41 31 3315221",
      "name": "Time out",
      "source": "survey and website",
      "website": "https://www.pom.be.ch/pom/de/index/bevoelkerungsschutz-militaer/kaserne-waffenplatz/betrieb_kasernenanlagenwaffenplatz.html"
    },
    "distance_to_station": 412.088064037049
  },
  {
    "feature_type": "restaurants",
    "lat": 46.954986,
    "lon": 7.4516808,
    "tags": {
      "amenity": "restaurant",
      "contact:phone": "+41 31 331 53 00",
      "contact:website": "https://www.nooch.ch/de/bern-viktoriaplatz",
      "cuisine": "sushi",
      "highchair": "yes",
      "name": "Nooch",
      "opening_hours": "Mo-Sa 11:00-23:00; Su 12:00-22:00",
      "outdoor_seating": "yes",
      "takeaway": "yes",
      "wheelchair": "yes"
    },
    "distance_to_station": 137.0913645719943
  },
  {
    "feature_type": "restaurants",
    "lat": 46.9486879,
    "lon": 7.4472497,
    "tags": {
      "amenity": "restaurant",
      "check_date": "2025-07-19",
      "contact:addr": "Kornhausplatz 18, 3011 Bern",
      "contact:email": "kornhaus@bindella.ch",
      "contact:fax": "+41 31 3277271",
      "contact:phone": "+41 31 3277272",
      "level": "-1;-2",
      "name": "Kornhauskeller",
      "opening_hours": "Mo-Sa 11:30-14:30,17:30-24:00; Su off",
      "operator": "Bindella",
      "smoking": "isolated",
      "source": "survey and website",
      "website": "https://www.bindella.ch/de/kornhauskeller-galeriebar.html",
      "wheelchair": "limited"
    },
    "distance_to_station": 906.3428944002766
  },
  {
    "feature_type": "restaurants",
    "lat": 46.9471883,
    "lon": 7.4496206,
    "tags": {
      "alt_name": "maimin",
      "amenity": "restaurant",
      "contact:addr": "Herrengasse 24, 3011 Bern",
      "contact:instagram": "https://www.instagram.com/maimin.happynoodles",
      "contact:phone": "+41313171217",
      "contact:website": "https://maimin.ch/startseite.html",
      "cuisine": "thai",
      "delivery": "yes",
      "delivery:partner": "https://www.just-eat.ch/speisekarte/maimin-happy-noodles",
      "name": "maimin HAPPY NOODLES",
      "opening_hours": "Mo-So 12:00-21",
      "toilets:wheelchair": "no",
      "wheelchair": "limited"
    },
    "distance_to_station": 994.2717898898552
  },
  {
    "feature_type": "restaurants",
    "lat": 46.9483881,
    "lon": 7.4521392,
    "tags": {
      "alt_name": "Volver \u00b7 BarTapasCaf\u00e9 \u00b7 TakeAway",
      "amenity": "restaurant",
      "contact:addr": "Rathausplatz 8, 3011 Bern",
      "contact:email": "info@barvolver.ch",
      "contact:facebook": "https://www.facebook.com/Volver-TapasBarCaf%C3%A9-TakeAway-243512803821",
      "contact:instagram": "http://instagram.com/volverbartapascafe",
      "contact:phone": "+41 31 3120404",
      "contact:twitter": "https://twitter.com/Barvolver",
      "cuisine": "spanish",
      "indoor_seating": "yes",
      "name": "Volver",
      "opening_hours": "Mo 17:00-22:00; Tu-We 08:00-23:30; Th-Sa 08:00-00:30; Su off",
      "outdoor_seating": "yes",
      "source": "survey and website",
      "takeaway": "yes",
      "website": "https://barvolver.ch"
    },
    "distance_to_station": 829.6747635262167
  },
  {
    "feature_type": "restaurants",
    "lat": 46.9536959,
    "lon": 7.4623052,
    "tags": {
      "alt_name": "Restaurant Reiterstrasse Kantonale Verwaltung",
      "amenity": "restaurant",
      "contact:addr": "Reiterstrasse 11, 3013 Bern",
      "contact:phone": "+41 31 3320878",
      "cuisine": "international",
      "delivery": "no",
      "internet_access": "Kantons-Gast-WLAN",
      "internet_access:fee": "no",
      "microbrewery": "no",
      "name": "Reiterstrasse Kantonale Verwaltung",
      "opening_hours": "Sa,Su off; Mo-Th 08:00-15:30; Fr 08:00-13:30",
      "operator": "SV (Schweiz) AG",
      "outdoor_seating": "yes",
      "reservation": "yes",
      "smoking": "outside",
      "source": "website",
      "takeaway": "no",
      "website": "https://reiterstrasse.sv-restaurant.ch",
      "wheelchair": "yes"
    },
    "distance_to_station": 747.1758167848269
  },
  {
    "feature_type": "restaurants",
    "lat": 46.9487969,
    "lon": 7.455453,
    "tags": {
      "alt_name": "Restaurant fugu-Nydegg",
      "amenity": "restaurant",
      "contact:addr": "Gerechtigkeitsgasse 16, 3011 Bern",
      "contact:email": "info@fugu-nydegg.ch",
      "contact:fax": "+41 31 3115118",
      "contact:phone": "+41 31 3115125",
      "delivery": "yes",
      "man_made": "surveillance",
      "name": "fugu",
      "opening_hours": "Mo-We 11:30-14:00,17:00-23:00; Th-Fr 11:30-14:00,17:00-24:00; Sa 11:00-24:00; Su 11:00-22:00",
      "operator": "OSSOBUKKO AG",
      "surveillance": "public",
      "website": "https://www.fugu-nydegg.ch/"
    },
    "distance_to_station": 803.714620609929
  },
  {
    "feature_type": "restaurants",
    "lat": 46.9486068,
    "lon": 7.4507482,
    "tags": {
      "amenity": "restaurant",
      "name": "Donsel",
      "source": "survey and website"
    },
    "distance_to_station": 820.832399631875
  },
  {
    "feature_type": "restaurants",
    "lat": 46.9486027,
    "lon": 7.4464459,
    "tags": {
      "amenity": "restaurant",
      "contact:addr": "Zeughausgasse 9, 3011 Bern",
      "contact:email": "info@volkshausbern.ch",
      "contact:fax": "+41 31 3292299",
      "contact:phone": "+41 31 3292233",
      "name": "Volkshaus 1914",
      "opening_hours": "Mo-Sa 06:30-23:30; Su 09:00-22:30",
      "source": "survey and website",
      "website": "https://www.volkshausbern.ch/",
      "wheelchair": "yes"
    },
    "distance_to_station": 945.4438543592719
  },
  {
    "feature_type": "restaurants",
    "lat": 46.9576355,
    "lon": 7.4531969,
    "tags": {
      "alt_name": "Restaurant Mont Liban",
      "amenity": "restaurant",
      "contact:addr": "Moserstrasse 27, 3014 Bern",
      "contact:email": "info@montliban-bern.ch",
      "contact:phone": "+41 31 3330777",
      "cuisine": "lebanese",
      "name": "Mont Liban",
      "opening_hours": "Mo-Fr 11:00-23:00; Sa 18:00-23:30; Su off",
      "source": "survey and website",
      "website": "https://www.montliban-bern.ch/"
    },
    "distance_to_station": 201.50683837414886
  },
  {
    "feature_type": "restaurants",
    "lat": 46.9487672,
    "lon": 7.4553738,
    "tags": {
      "alt_name": "Restaurant Belle Epoque",
      "amenity": "restaurant",
      "contact:addr": "Gerechtigkeitsgasse 18, 3011 Bern",
      "contact:email": "info@belle-epoque.ch",
      "contact:fax": "+41 31 3113936",
      "contact:phone": "+41 31 3114336",
      "name": "Belle Epoque",
      "old_name": "Le Chariot",
      "opening_hours": "Mo-Su 07:00-23:30",
      "operator": "BE Hotel Management AG",
      "source": "website",
      "website": "https://belle-epoque.ch/?page_id=49"
    },
    "distance_to_station": 805.5503168143046
  },
  {
    "feature_type": "restaurants",
    "lat": 46.9516157,
    "lon": 7.4416351,
    "tags": {
      "alt_name": "Cr\u00eaperie la Chouette",
      "amenity": "restaurant",
      "check_date": "2025-01-21",
      "contact:addr": "Bollwerk 39, 3011 Bern",
      "contact:email": "info@la-chouette-bern.ch",
      "contact:facebook": "https://www.facebook.com/LaChouetteCrepe",
      "contact:instagram": "http://instagram.com/lachouettebern",
      "contact:phone": "+41 31 3110335",
      "cuisine": "crepe",
      "diet:vegan": "yes",
      "name": "La Chouette",
      "opening_hours": "Tu-We 11:30-22:00; Th 11:30-23:00; Fr 11:30-24:00; Sa 17:00-24:00",
      "source": "survey and website",
      "website": "https://la-chouette-bern.ch/",
      "wheelchair": "no"
    },
    "distance_to_station": 983.494007169412
  },
  {
    "feature_type": "restaurants",
    "lat": 46.948131,
    "lon": 7.450557,
    "tags": {
      "amenity": "restaurant",
      "check_date:opening_hours": "2023-01-09",
      "contact:addr": "Kramgasse 34, 3011 Bern",
      "contact:email": "hollyfood@tiscali.ch",
      "contact:phone": "+41 31 3115410",
      "cuisine": "sandwich",
      "diet:vegan": "no",
      "diet:vegetarian": "yes",
      "name": "Hollyfood",
      "opening_hours": "Mo-We 10:00-19:00; Th 10:00-21:00; Fr 10:00-19:00; Sa 10:00-17:00; Su off",
      "operator": "Botros Take-Away GmbH",
      "source": "website",
      "takeaway": "yes",
      "website": "https://www.hollyfood.ch/",
      "wheelchair": "limited"
    },
    "distance_to_station": 875.6052643840678
  },
  {
    "feature_type": "restaurants",
    "lat": 46.9483703,
    "lon": 7.4491616,
    "tags": {
      "alt_name": "Restaurant Kappadokia",
      "amenity": "restaurant",
      "check_date": "2023-07-25",
      "contact:addr": "Rathausgasse 59, 3011 Bern",
      "cuisine": "italian",
      "indoor_seating": "yes",
      "name": "Three Kitchen & Bar by Downtown",
      "outdoor_seating": "yes"
    },
    "distance_to_station": 878.9768489196359
  },
  {
    "feature_type": "restaurants",
    "lat": 46.9483473,
    "lon": 7.4484856,
    "tags": {
      "alt_name": "3 Eidgenossen",
      "amenity": "restaurant",
      "check_date": "2025-07-17",
      "contact:addr": "Rathausgasse 69, 3011 Bern",
      "contact:phone": "+41 31 3111828",
      "local_name": "Eidgenossen",
      "name": "Drei Eidgenossen",
      "source": "survey"
    },
    "distance_to_station": 899.7443243532058
  },
  {
    "feature_type": "restaurants",
    "lat": 46.9486658,
    "lon": 7.4496549,
    "tags": {
      "amenity": "restaurant",
      "check_date": "2025-07-16",
      "diet:vegan": "yes",
      "diet:vegetarian": "yes",
      "name": "Bonbec Bern",
      "opening_hours": "Mo-Fr 12:00-14:00,18:00+; Sa 18:00+",
      "phone": "+41 31 311 88 78",
      "website": "https://www.bonbec.ch/"
    },
    "distance_to_station": 835.8782614094504
  },
  {
    "feature_type": "restaurants",
    "lat": 46.9475735,
    "lon": 7.4487186,
    "tags": {
      "amenity": "restaurant",
      "contact:addr": "M\u00fcnstergasse 68, 3011 Bern",
      "contact:email": "kontakt@parlamentbern.ch",
      "contact:phone": "+41 31 3116544",
      "name": "Parlament",
      "opening_hours": "Mo 09:00-23:30; Tu 06:00-23:30; We-Fr 09:00-23:30; Sa 06:00-23:30; Su off",
      "operator": "Bar und Restaurant Parlament GmbH",
      "source": "survey and website",
      "website": "https://www.parlamentbern.ch/"
    },
    "distance_to_station": 973.732703016962
  },
  {
    "feature_type": "restaurants",
    "lat": 46.9483137,
    "lon": 7.4533673,
    "tags": {
      "alt_name": "Kl\u00f6tzli-Keller",
      "amenity": "restaurant",
      "contact:addr": "Gerechtigkeitsgasse 62, 3011 Bern",
      "contact:email": "andrea.kurth@kloetzlikeller.ch",
      "contact:phone": "+41 31 3117456",
      "contact:website": "https://www.kloetzlikeller.ch/kontakt",
      "name": "Kl\u00f6tzlikeller",
      "opening_hours": "Tu-Fr 11:30-14:30,18:00-23:30; Sa 18:00-23:30;Nov-Dec Mo-Fr 11:30-14:30,18:00-23:30",
      "operator": "Aarestadt Gastro GmbH",
      "source": "survey and website",
      "toilets:wheelchair": "yes",
      "website": "https://www.kloetzlikeller.ch",
      "wheelchair": "limited"
    },
    "distance_to_station": 835.8518917410859
  },
  {
    "feature_type": "restaurants",
    "lat": 46.947586,
    "lon": 7.4496465,
    "tags": {
      "alt_name": "Restaurant \u00abWein & Sein mit H\u00e4rzbluet\u00bb",
      "amenity": "restaurant",
      "contact:addr": "M\u00fcnstergasse 50, 3011 Bern",
      "contact:email": "info@weinundsein.ch",
      "contact:phone": "+41 31 3119844",
      "name": "Wein & Sein",
      "note": "Stammlokal AKV Burgundia Bernensis",
      "opening_hours": "Mo off; Tu-Sa 11:30-23:30; Su off",
      "source": "survey and website",
      "toilets:wheelchair": "no",
      "website": "https://www.weinundsein.ch/",
      "wheelchair": "no"
    },
    "distance_to_station": 951.0997344517201
  },
  {
    "feature_type": "restaurants",
    "lat": 46.9472907,
    "lon": 7.449802,
    "tags": {
      "alt_name": "Piman thai Restaurant",
      "amenity": "restaurant",
      "contact:addr": "M\u00fcnstergasse 22 / Herrengasse 47, 3011 Bern",
      "contact:email": "info@piman-resto.ch",
      "contact:fax": "+41 31 3110923",
      "contact:phone": "+41 31 3111448",
      "cuisine": "thai",
      "name": "Piman thai",
      "opening_hours": "Mo-Fr 11:00-14:00, 18:00-22:00; Sa 18:00-22:00; Su 11:00-21:00",
      "source": "survey and website",
      "website": "http://www.piman-resto.ch",
      "wheelchair": "limited"
    },
    "distance_to_station": 979.7607203505319
  },
  {
    "feature_type": "restaurants",
    "lat": 46.9484657,
    "lon": 7.4536634,
    "tags": {
      "alt_name": "Restaurant les Terroirs",
      "amenity": "restaurant",
      "contact:addr": "Postgasse 49 / Gerechtigkeitsgasse 56, 3011 Bern",
      "contact:email": "info@moment-bern.ch",
      "contact:phone": "+41 31 3321020",
      "name": "moment",
      "opening_hours": "Mo off; Tu-Fr 11:30-14:00; 18:00-24:00; Sa 18:00-24:00; Su off; PH off",
      "source": "Survey and website",
      "website": "https://www.moment-bern.ch/"
    },
    "distance_to_station": 820.0502611783157
  },
  {
    "feature_type": "restaurants",
    "lat": 46.9480506,
    "lon": 7.4536087,
    "tags": {
      "alt_name": "Restaurant Arlequin",
      "amenity": "restaurant",
      "contact:addr": "Gerechtigkeitsgasse 51, 3011 Bern",
      "contact:phone": "+41 31 3113946",
      "name": "Arlequin",
      "opening_hours": "Mo off; Tu-Th 10:30-23:30; Fr-Sa 10:30-00:30; Su off",
      "source": "survey and website",
      "website": "http://www.arlequin-bern.ch"
    },
    "distance_to_station": 865.8789737384751
  },
  {
    "feature_type": "restaurants",
    "lat": 46.9478139,
    "lon": 7.4486862,
    "tags": {
      "addr:floor": "1",
      "alt_name": "Sushi Bar Yamasaki",
      "amenity": "restaurant",
      "contact:addr": "Kramgasse 75, 3011 Bern",
      "contact:fax": "+41 31 3119735",
      "contact:phone": "+41 31 3117570",
      "name": "Sushi Bar",
      "opening_hours": "Mo-Fr 11:30-14:30, 18:00-22:00; Sa-Su off",
      "operator": "Futoshi Yamasaki",
      "source": "survey and website",
      "takeaway": "yes",
      "website": "https://www.sushibar-yamasaki.ch/",
      "wheelchair": "no"
    },
    "distance_to_station": 949.4377895997438
  },
  {
    "feature_type": "restaurants",
    "lat": 46.9481554,
    "lon": 7.4516097,
    "tags": {
      "amenity": "restaurant",
      "contact:addr": "Kramgasse 12, 3011 Bern",
      "contact:email": "info@kramer-bern.ch",
      "contact:phone": "+41 31 3111140",
      "name": "Kramer",
      "old_name": "Kramgass-Comestibles;Karl&Co",
      "opening_hours": "Mo-We 11:00-22:00; Th-Sa 11:00-23:30; Su off",
      "operator": "aarestadt gastro GmbH",
      "source": "survey and website",
      "website": "https://www.kramer-bern.ch/"
    },
    "distance_to_station": 859.4814099641465
  },
  {
    "feature_type": "restaurants",
    "lat": 46.9475768,
    "lon": 7.4494592,
    "tags": {
      "alt_name": "Restaurant Frohsinn",
      "amenity": "restaurant",
      "check_date": "2025-07-20",
      "contact:addr": "M\u00fcnstergasse 54, 3011 Bern",
      "contact:email": "info@froh-sinn.ch",
      "contact:fax": "+41 31 3113774",
      "contact:phone": "+41 31 3113768",
      "contact:website": "http://www.froh-sinn.ch/de/das-anliegen",
      "cuisine": "regional",
      "name": "Frohsinn",
      "opening_hours": "Mo-Fr 11:00-15:00, 17:00-23:00; Sa17:00-23:00; Su off",
      "source": "survey and website",
      "toilets:wheelchair": "no",
      "website": "http://www.froh-sinn.ch",
      "wheelchair": "yes"
    },
    "distance_to_station": 956.0028477134883
  },
  {
    "feature_type": "restaurants",
    "lat": 46.948136,
    "lon": 7.4540772,
    "tags": {
      "alt_name": "Restaurant Pad Thai",
      "amenity": "restaurant",
      "contact:addr": "Gerechtigkeitsgasse 39, 3011 Bern",
      "cuisine": "thai",
      "name": "Pad Thai",
      "opening_hours": "Mo off; Tu-Fr 11:30-14:30, 18:00-22:00; Sa 11:30-22:00; Su off",
      "operator": "Pad Thai Restaurant Suriyentrakorn (Einzelunternehmen)",
      "source": "survey",
      "takeaway": "yes"
    },
    "distance_to_station": 859.0781526605306
  },
  {
    "feature_type": "restaurants",
    "lat": 46.948607,
    "lon": 7.4457306,
    "tags": {
      "alt_name": "La Table de Urs Hauri",
      "amenity": "restaurant",
      "contact:addr": "Zeughausgasse;Zeughaus-Passage 19, 3011 Bern",
      "contact:email": "urs-hauri@bluewin.ch",
      "contact:facebook": "https://www.facebook.com/latabledeurshauri",
      "contact:fax": "+41 31 3111470",
      "contact:phone": "+41 31 3111413",
      "name": "Urs Hauri",
      "note": "Address Zeughausgass-Passage 19 doesn't exist officially, it's either Zeughausgasse or Zeughaus-Passage",
      "opening_hours": "Mo off; Tu-Fr 11:30-15:30; Sa-Su off",
      "operator": "La Table de Urs Hauri GmbH",
      "source": "website and survey",
      "website": "http://www.urshauri.ch"
    },
    "distance_to_station": 974.8673257401653
  },
  {
    "feature_type": "restaurants",
    "lat": 46.9475902,
    "lon": 7.4565109,
    "tags": {
      "alt_name": "Restaurant & Bar Suresh",
      "amenity": "restaurant",
      "contact:addr": "Gerberngasse 34, 3011 Bern",
      "contact:email": "info@suresh.ch",
      "contact:facebook": "https://www.facebook.com/sures.fischerstubli",
      "contact:phone": "+41 31 3115367",
      "name": "Suresh",
      "old_name": "Santorini",
      "opening_hours": "Mo-Fr 11:30-23:30; Sa-Su 18:00-23:30",
      "source": "survey and website",
      "website": "https://www.suresh.ch/"
    },
    "distance_to_station": 954.0832819342218
  },
  {
    "feature_type": "restaurants",
    "lat": 46.9483389,
    "lon": 7.4507512,
    "tags": {
      "alt_name": "Restaurant & Bar Tredicipercento",
      "amenity": "restaurant",
      "check_date": "2025-07-17",
      "contact:addr": "Rathausgasse 25, 3011 Bern",
      "contact:email": "info@tredicipercento.ch",
      "contact:fax": "+41 31 3118031",
      "contact:phone": "+41 31 3118031",
      "cuisine": "italian",
      "name": "Tredicipercento",
      "opening_hours": "Mo off; Tu-Sa 18:00-23:30; Su off",
      "operator": "Tredicipercento GmbH",
      "source": "survey and website",
      "website": "https://restaurant.tredicipercento.ch/"
    },
    "distance_to_station": 849.9370249124167
  },
  {
    "feature_type": "restaurants",
    "lat": 46.9548532,
    "lon": 7.4446136,
    "tags": {
      "amenity": "restaurant",
      "name": "mensauno",
      "opening_hours": "Mo-Fr 07:00-16:00; Sa 07:00-11:00",
      "operator": "Migros"
    },
    "distance_to_station": 647.2394304873249
  },
  {
    "feature_type": "restaurants",
    "lat": 46.9536925,
    "lon": 7.4462638,
    "tags": {
      "amenity": "restaurant",
      "contact:addr": "Sch\u00e4nzlihalde 31, 3013 Bern",
      "contact:email": "office.bern@sfgb-b.ch",
      "contact:fax": "+41 31 3370338",
      "contact:phone": "+41 31 3370337",
      "name": "Restaurant 2B",
      "opening_hours": "Mo-Fr 07:00-17:00; Sa 07:30-11:00; Su off",
      "website": "https://www.sfgb-b.ch/restaurant-2b"
    },
    "distance_to_station": 564.8150678327974
  },
  {
    "feature_type": "restaurants",
    "lat": 46.9545832,
    "lon": 7.4521397,
    "tags": {
      "addr:city": "Bern",
      "addr:housenumber": "70",
      "addr:postcode": "3013",
      "addr:street": "Viktoriastrasse",
      "amenity": "restaurant",
      "contact:addr": "Viktoriastrasse 70, 3013 Bern",
      "contact:email": "restaurant@loescher.be",
      "contact:facebook": "https://www.facebook.com/loescherbern",
      "contact:phone": "+41 78 6521100",
      "diet:vegetarian": "yes",
      "name": "L\u00f6scher",
      "name:de": "L\u00f6scher",
      "opening_hours": "Mo off; Tu-Th 09:00-23:30; Fr-Sa 09:00-00:30; Su off; PH off",
      "payment:cash": "yes",
      "payment:credit_cards": "yes",
      "source": "Survey and website",
      "website": "https://loescher.be/",
      "wheelchair": "limited"
    },
    "distance_to_station": 152.9930041765235
  },
  {
    "feature_type": "restaurants",
    "lat": 46.9515469,
    "lon": 7.4429,
    "tags": {
      "alt_name": "Bay Modern Brasserie",
      "amenity": "restaurant",
      "capacity:bar": "20",
      "capacity:seating": "60",
      "contact:addr": "Hodlerstrasse 16b, 3011 Bern",
      "contact:email": "mail@restaurantbay.ch",
      "contact:facebook": "https://www.facebook.com/RestaurantBay",
      "contact:instagram": "https://www.instagram.com/restaurantbaybern/",
      "contact:phone": "+41 31 3111666",
      "name": "Bay",
      "opening_hours": "Mo-Th 11:30-14:00,17:00-23:00; Fr 11:30-14:00,17:00-00:00; Sa 17:00-00:00; PH off",
      "operator": "Bayleaf AG",
      "outdoor_seating": "yes",
      "source": "survey and website",
      "website": "https://www.restaurantbay.ch"
    },
    "distance_to_station": 903.9956655800207
  },
  {
    "feature_type": "restaurants",
    "lat": 46.9473534,
    "lon": 7.4492937,
    "tags": {
      "addr:housenumber": "57",
      "addr:street": "M\u00fcnstergasse",
      "amenity": "restaurant",
      "check_date": "2022-09-22",
      "contact:addr": "M\u00fcnstergasse 55, 3011 Bern",
      "name": "Tab-Tim Thai",
      "opening_hours": "Mo-Sa 10:00-22:00",
      "phone": "+41 31 311 59 39",
      "source": "survey"
    },
    "distance_to_station": 983.3946304141365
  },
  {
    "feature_type": "restaurants",
    "lat": 46.9567891,
    "lon": 7.4486508,
    "tags": {
      "amenity": "restaurant",
      "check_date": "2022-07-07",
      "contact:addr": "Kyburgstrasse 12, 3013 Bern",
      "name": "Bistro Breiten",
      "opening_hours": "Mo-Sa 08:00-22:30",
      "outdoor_seating": "yes",
      "website": "http://www.bistrobreiten.ch/"
    },
    "distance_to_station": 347.6102476854527
  },
  {
    "feature_type": "restaurants",
    "lat": 46.9568231,
    "lon": 7.4399127,
    "tags": {
      "addr:housenumber": "35",
      "addr:street": "Engehaldenstrasse",
      "amenity": "restaurant",
      "contact:email": "restaurant-engehalde@sv-group.ch",
      "contact:fax": "+41 31 302 12 58",
      "contact:phone": "+41 31 302 12 54",
      "contact:website": "http://restaurant-engehalde.sv-restaurant.ch",
      "name": "Restaurant Engehalde",
      "opening_hours": "Mo-Th 07:00-15:30; Fr 07:00-14:00; PH off",
      "outdoor_seating": "yes"
    },
    "distance_to_station": 1002.0360846933654
  },
  {
    "feature_type": "restaurants",
    "lat": 46.9473769,
    "lon": 7.4501453,
    "tags": {
      "addr:city": "Bern",
      "addr:housenumber": "39",
      "addr:postcode": "3011",
      "addr:street": "M\u00fcnstergasse",
      "amenity": "restaurant",
      "contact:addr": "M\u00fcnstergasse 39, 3011 Bern",
      "contact:email": "hello@restaurant-zoe.com",
      "contact:facebook": "https://www.facebook.com/restaurantzoebern",
      "contact:phone": "+41 31 318 33 33",
      "cuisine": "regional",
      "diet:vegetarian": "yes",
      "internet_access": "no",
      "name": "ZOE",
      "opening_hours": "Mo off; Tu-Fr 11:30-14:00 18:00-23:00; Sa 18:00-23:00; Su off",
      "operator": "GenussKultur AG",
      "outdoor_seating": "yes",
      "reservation": "yes",
      "takeaway": "no",
      "toilets:wheelchair": "no",
      "website": "https://www.restaurant-zoe.com/",
      "wheelchair": "limited"
    },
    "distance_to_station": 964.2640960317642
  },
  {
    "feature_type": "restaurants",
    "lat": 46.9491473,
    "lon": 7.4466301,
    "tags": {
      "amenity": "restaurant",
      "check_date": "2025-08-05",
      "contact:addr": "N\u00e4geligasse 1a, 3011 Bern",
      "contact:email": "willkommen@viertewand.ch",
      "contact:facebook": "https://www.facebook.com/Vierte-Wand-840509899672426",
      "contact:phone": "+41 31 3295200",
      "name": "Vierte Wand",
      "opening_hours": "Mo-Su 11:30-23:30",
      "source": "Survey and website",
      "website": "https://www.viertewand.ch"
    },
    "distance_to_station": 886.8355717552158
  },
  {
    "feature_type": "restaurants",
    "lat": 46.9483356,
    "lon": 7.4492694,
    "tags": {
      "addr:housenumber": "57",
      "addr:street": "Rathausgasse",
      "amenity": "restaurant",
      "check_date": "2025-07-19",
      "contact:addr": "Rathausgasse 57, 3011 Bern",
      "cuisine": "vietnamese",
      "email": "hungry@eatcantin.ch",
      "name": "c\u0103ntin eatery",
      "opening_hours": "Tu-Sa 12:00-14:00, 18:00-21:00",
      "phone": "+41 76 505 68 86",
      "website": "https://www.eatcantin.ch/"
    },
    "distance_to_station": 879.9363003732218
  },
  {
    "feature_type": "restaurants",
    "lat": 46.9495652,
    "lon": 7.4435612,
    "tags": {
      "alt_name": "Ristorante San Gottardo",
      "amenity": "restaurant",
      "contact:addr": "Aarbergergasse 10, 3011 Bern",
      "contact:email": "info@sangottardobern.ch",
      "contact:phone": "+41 31 312 79 00",
      "contact:website": "https://www.sangottardobern.ch",
      "cuisine": "italian;pizza",
      "diet:vegetarian": "yes",
      "level": "0",
      "name": "San Gottardo",
      "opening_hours": "Mo-Su 09:00-00:30",
      "outdoor_seating": "yes",
      "payment:cards": "yes",
      "payment:cash": "yes",
      "payment:twint": "yes",
      "reservation": "yes",
      "smoking": "outside",
      "takeaway": "yes",
      "toilets:wheelchair": "no"
    },
    "distance_to_station": 1000.3166643931505
  },
  {
    "feature_type": "restaurants",
    "lat": 46.9481726,
    "lon": 7.4466508,
    "tags": {
      "addr:floor": "5",
      "alt_name": "Manora Bern",
      "amenity": "restaurant",
      "branch": "Bern",
      "brand": "Manora",
      "contact:addr": "Marktgasse 10, 3011 Bern",
      "contact:phone": "+41 31 3005699",
      "internet_access": "wlan",
      "level": "5",
      "name": "Manora",
      "opening_hours": "Mo-We 09:00-19:00; Th 09:00-21:00; Fr 09:00-20:00; Sa 08:00-17:00; Su off; PH off",
      "operator": "Restaurants Manora",
      "outdoor_seating": "no",
      "self_service": "only",
      "start_date": "2019-04-25"
    },
    "distance_to_station": 978.5973273518863
  },
  {
    "feature_type": "restaurants",
    "lat": 46.9641631,
    "lon": 7.4577302,
    "tags": {
      "alt_name": "Nordring Restaurant-Pizzeria K\u00fcrekci",
      "amenity": "restaurant",
      "contact:addr": "Winkelriedstrasse 42, 3014 Bern",
      "contact:phone": "+41 31 3322290",
      "name": "Nordring",
      "opening_hours": "Mo-Sa 08:00-00:30, Su 10:00-23:00"
    },
    "distance_to_station": 994.1853658673797
  },
  {
    "feature_type": "restaurants",
    "lat": 46.9582362,
    "lon": 7.4537282,
    "tags": {
      "addr:city": "Bern",
      "addr:housenumber": "11",
      "addr:postcode": "3013",
      "addr:street": "Breitenrainstrasse",
      "alt_name": "Migros Restaurant Breitenrain",
      "amenity": "restaurant",
      "branch": "Bern Breitenrain",
      "brand": "Migros Restaurant",
      "brand:wikidata": "Q111803848",
      "check_date": "2025-07-16",
      "cuisine": "international",
      "name": "Migros Restaurant",
      "opening_hours": "Mo-Sa 07:30-17:00; PH off",
      "operator": "Genossenschaft Migros Aare",
      "self_service": "yes",
      "website": "https://filialen.migros.ch/de/migros-restaurant-bern-breitenrain"
    },
    "distance_to_station": 273.4405613958297
  },
  {
    "feature_type": "restaurants",
    "lat": 46.9601297,
    "lon": 7.4538513,
    "tags": {
      "addr:full": "Scheibenstrasse 15a, 3014 Bern",
      "alt_name": "nomnom",
      "amenity": "restaurant",
      "cuisine": "vietnamese;asian",
      "name": "nom nom",
      "restaurant": "take_away"
    },
    "distance_to_station": 482.61484618747494
  },
  {
    "feature_type": "restaurants",
    "lat": 46.9563625,
    "lon": 7.4451577,
    "tags": {
      "addr:city": "Bern",
      "addr:country": "CH",
      "addr:housenumber": "20",
      "addr:postcode": "3013",
      "addr:street": "Lorrainestrasse",
      "amenity": "restaurant",
      "check_date:opening_hours": "2022-10-08",
      "email": "info@werkstadt-lorraine.ch",
      "indoor_seating": "yes",
      "name": "WerkStadt Lorraine",
      "opening_hours": "Mo 08:00-21:00; Tu-We 08:00-20:00; Th-Fr 08:00-21:00; Sa-Su 09:00-19:00",
      "outdoor_seating": "yes",
      "phone": "+41 77 508 30 16",
      "website": "https://werkstadt-lorraine.ch/"
    },
    "distance_to_station": 599.6262671935174
  },
  {
    "feature_type": "restaurants",
    "lat": 46.9483801,
    "lon": 7.4515113,
    "tags": {
      "addr:housenumber": "11",
      "addr:street": "Rathausgasse",
      "amenity": "restaurant",
      "name": "Romy"
    },
    "distance_to_station": 835.6767218349294
  },
  {
    "feature_type": "restaurants",
    "lat": 46.955392,
    "lon": 7.4470493,
    "tags": {
      "amenity": "restaurant",
      "check_date": "2025-06-09",
      "cuisine": "italian",
      "diet:vegetarian": "yes",
      "name": "Celina",
      "opening_hours": "Mo-Sa 11:00-14:00,17:00-23:00; Su 11:30-14:00,17:30-22:00",
      "takeaway": "yes",
      "website": "https://www.celinabern.ch/"
    },
    "distance_to_station": 455.2833588888086
  },
  {
    "feature_type": "restaurants",
    "lat": 46.9532271,
    "lon": 7.4487876,
    "tags": {
      "addr:city": "Bern",
      "addr:housenumber": "3",
      "addr:postcode": "3013",
      "addr:street": "Kornhausstrasse",
      "amenity": "restaurant",
      "cuisine": "asian;buffet;chinese",
      "email": "yu@kursaal-bern.ch",
      "name": "Restaurant Y\u00f9",
      "phone": "+41 31 339 52 50",
      "website": "https://www.kursaal-restaurant.ch/asiatisches-restaurant-yu"
    },
    "distance_to_station": 431.57284971874395
  },
  {
    "feature_type": "restaurants",
    "lat": 46.9531895,
    "lon": 7.4486186,
    "tags": {
      "addr:city": "Bern",
      "addr:housenumber": "3",
      "addr:postcode": "3013",
      "addr:street": "Kornhausstrasse",
      "amenity": "restaurant",
      "cuisine": "bar_and_grill",
      "email": "fb@kursaal-bern.ch",
      "name": "Rooftop Grill",
      "opening_hours": "Tu-Sa 17:00-23:00",
      "phone": "+41 31 339 52 60",
      "website": "https://www.rooftop-grill.ch"
    },
    "distance_to_station": 443.9578159502892
  },
  {
    "feature_type": "restaurants",
    "lat": 46.9473507,
    "lon": 7.4493627,
    "tags": {
      "addr:housenumber": "55",
      "addr:postcode": "3011",
      "addr:street": "M\u00fcnstergasse",
      "amenity": "restaurant",
      "check_date": "2022-09-22",
      "cuisine": "thai",
      "name": "Surang",
      "opening_hours": "Mo-Sa 11:30-22:00",
      "payment:american_express": "yes",
      "payment:diners_club": "yes",
      "payment:jcb": "yes",
      "payment:maestro": "yes",
      "payment:mastercard": "yes",
      "payment:postfinance_card": "yes",
      "payment:visa": "yes",
      "phone": "+41 31 311 67 01",
      "website": "https://www.surang.ch/",
      "wheelchair": "limited"
    },
    "distance_to_station": 982.1899573507203
  },
  {
    "feature_type": "restaurants",
    "lat": 46.9570012,
    "lon": 7.4569605,
    "tags": {
      "addr:city": "Bern",
      "addr:housenumber": "29",
      "addr:postcode": "3013",
      "addr:street": "Kasernenstrasse",
      "amenity": "restaurant",
      "check_date": "2025-07-20",
      "check_date:opening_hours": "2025-07-20",
      "contact:instagram": "https://www.instagram.com/darling.restaurant",
      "cuisine": "regional",
      "diet:vegan": "yes",
      "diet:vegetarian": "yes",
      "name": "Darling Restaurant",
      "opening_hours": "Tu-Th 18:00-22:30; Fr,Sa 18:00-23:00",
      "payment:cash": "yes",
      "payment:mastercard": "yes",
      "payment:twint": "yes",
      "payment:visa": "yes",
      "phone": "+41 31 335 66 55",
      "website": "https://darling.restaurant/",
      "wheelchair": "limited"
    },
    "distance_to_station": 328.7085614599822
  },
  {
    "feature_type": "restaurants",
    "lat": 46.9576217,
    "lon": 7.4445968,
    "tags": {
      "amenity": "restaurant",
      "cuisine": "indian",
      "name": "Indian Kitchen"
    },
    "distance_to_station": 669.7338847021686
  },
  {
    "feature_type": "restaurants",
    "lat": 46.949521,
    "lon": 7.4448812,
    "tags": {
      "addr:housenumber": "11",
      "addr:street": "N\u00e4geligasse",
      "amenity": "restaurant",
      "check_date": "2023-02-07",
      "cuisine": "chinese",
      "diet:vegetarian": "yes",
      "level": "-1",
      "name": "Take Away 8.8",
      "opening_hours": "Mo-Fr 11:00-14:00",
      "phone": "+41 78 878 51 88"
    },
    "distance_to_station": 934.4811266867629
  },
  {
    "feature_type": "restaurants",
    "lat": 46.9492153,
    "lon": 7.4448098,
    "tags": {
      "amenity": "restaurant",
      "capacity": "130",
      "check_date": "2023-09-22",
      "contact:phone": "+41 31 310 99 99",
      "cuisine": "italian",
      "diet:vegetarian": "yes",
      "level": "0;-1",
      "name": "Galleria Luce",
      "opening_hours": "Mo-Th,Su 11:30-14:00,18:00-23:00; Fr-Sa 11:30-14:00,18:00-23:30",
      "operator": "Nilovic + Nilovic",
      "reservation": "yes",
      "website": "https://www.ristoranteluce.ch/gallerialuce"
    },
    "distance_to_station": 963.7501218609121
  },
  {
    "feature_type": "restaurants",
    "lat": 46.9589795,
    "lon": 7.4554698,
    "tags": {
      "addr:city": "Bern",
      "addr:housenumber": "64",
      "addr:postcode": "3014",
      "addr:street": "Milit\u00e4rstrasse",
      "amenity": "restaurant",
      "email": "hallo@olympiabern.ch",
      "name": "OLYMPIA",
      "opening_hours": "Mo-Do  07:30-22:30  Fr  07:30-23:30  Sa  08:30-23:30  So  09:30-17:00",
      "phone": "+41315292910",
      "website": "https://www.olympiabern.ch"
    },
    "distance_to_station": 397.71886158585176
  },
  {
    "feature_type": "restaurants",
    "lat": 46.9483726,
    "lon": 7.448942,
    "tags": {
      "addr:city": "Bern",
      "addr:housenumber": "61",
      "addr:postcode": "3011",
      "addr:street": "Rathausgasse",
      "amenity": "restaurant",
      "bar": "yes",
      "check_date": "2024-11-17",
      "contact:facebook": "https://www.facebook.com/capitolbern/",
      "contact:instagram": "https://www.instagram.com/capitol_bern",
      "cuisine": "international",
      "currency:XBT": "yes",
      "diet:vegetarian": "yes",
      "email": "info@capitolbern.ch",
      "name": "Capitol Restaurant & Bar",
      "opening_hours": "Mo 16:00-23:30; Tu-We 11:30-23:30; Th-Fr 11:30-00:30; Sa 11:00-00:30",
      "outdoor_seating": "yes",
      "payment:lightning": "yes",
      "payment:lightning_contactless": "no",
      "payment:onchain": "yes",
      "phone": "+41 31 312 16 75",
      "website": "https://capitolbern.ch/",
      "website:menu": "https://capitolbern.ch/menu-lunch/"
    },
    "distance_to_station": 884.4297834681928
  },
  {
    "feature_type": "restaurants",
    "lat": 46.9475656,
    "lon": 7.4492084,
    "tags": {
      "amenity": "restaurant",
      "name": "YIKOU Sushi tea"
    },
    "distance_to_station": 962.742848161074
  },
  {
    "feature_type": "restaurants",
    "lat": 46.9475247,
    "lon": 7.4490982,
    "tags": {
      "addr:city": "Bern",
      "addr:housenumber": "60",
      "addr:postcode": "3011",
      "addr:street": "M\u00fcnstergasse",
      "amenity": "restaurant",
      "cuisine": "american;mexican",
      "diet:vegetarian": "yes",
      "email": "info@burritobandito.ch",
      "name": "Burrito Bandito",
      "opening_hours": "Tu-Th 11:30-21:00; Fr-Sa 11:30-22:00; Su 11:30-21:00",
      "phone": "+41 31 525 26 58",
      "reservation": "yes",
      "takeaway": "yes",
      "website": "https://www.burritobandito.ch"
    },
    "distance_to_station": 969.6164284335887
  }
]