[
  {
    "feature_type": "shops",
    "lat": 46.9571176,
    "lon": 7.4446244,
    "tags": {
      "addr:city": "Bern",
      "addr:housenumber": "21",
      "addr:postcode": "3013",
      "addr:street": "Lorrainestrasse",
      "check_date": "2022-08-12",
      "contact:addr": "Lorrainestrasse 21, 3013 Bern",
      "email": "info@velokurierladen.ch",
      "fax": "+41 31 3330521",
      "name": "Velokurierladen",
      "opening_hours": "Tu-Fr 10:00-18:30; Sa 09:00-15:00",
      "payment:american_express": "yes",
      "payment:maestro": "yes",
      "payment:mastercard": "yes",
      "payment:visa": "yes",
      "phone": "+41 31 333 05 20",
      "service:bicycle:ebike": "yes",
      "service:bicycle:parts": "yes",
      "service:bicycle:pump": "yes",
      "service:bicycle:repair": "yes",
      "service:bicycle:retail": "yes",
      "shop": "bicycle",
      "website": "https://www.velokurierladen.ch/",
      "wheelchair": "yes"
    },
    "distance_to_station": 491.1480258624441
  },
  {
    "feature_type": "shops",
    "lat": 46.9561025,
    "lon": 7.4467039,
    "tags": {
      "addr:city": "Bern",
      "addr:country": "CH",
      "addr:housenumber": "9",
      "addr:postcode": "3013",
      "addr:street": "Dammweg",
      "alt_name": "Migros Lorraine",
      "branch": "Bern Lorraine",
      "brand": "Migros",
      "brand:wikidata": "Q680727",
      "brand:wikipedia": "de:Migros",
      "cash_withdrawal": "migros_bank;postfinance_card",
      "cash_withdrawal:fee": "no",
      "cash_withdrawal:purchase_required": "no",
      "cash_withdrawal:type": "checkout",
      "internet_access": "yes",
      "internet_access:fee": "no",
      "name": "Migros",
      "opening_hours": "Mo-Fr 08:00-20:00, Sa 08:00-17:00; PH off",
      "operator": "Genossenschaft Migros Aare",
      "shop": "supermarket",
      "website": "https://filialen.migros.ch/de/migros-supermarkt-bern-lorraine",
      "wheelchair": "yes"
    },
    "distance_to_station": 578.724343230541
  },
  {
    "feature_type": "shops",
    "lat": 46.9587966,
    "lon": 7.4463467,
    "tags": {
      "addr:city": "Bern",
      "addr:country": "CH",
      "addr:housenumber": "43",
      "addr:postcode": "3013",
      "addr:street": "Dammweg",
      "contact:email": "waschen@jetwash.ch",
      "contact:mobile": "+41 77 4179502",
      "contact:phone": "+41 31 3302638",
      "laundry_service": "no",
      "name": "Jet Wash",
      "opening_hours": "Mo-Sa 07:00-21:00; Su 09:00-18:00",
      "self_service": "yes",
      "shop": "laundry",
      "source": "website",
      "website": "https://www.jetwash.ch/"
    },
    "distance_to_station": 280.2829629856872
  },
  {
    "feature_type": "shops",
    "lat": 46.9584138,
    "lon": 7.4556603,
    "tags": {
      "contact:addr": "Herzogstrasse 16, 3014 Bern",
      "contact:email": "info@tropicalzone.ch",
      "contact:phone": "+41 31 3336606",
      "description:de": "Der Afrika-Laden in Bern",
      "description:en": "The Africa-Shop in Bern",
      "name": "Tropical Zone",
      "opening_hours": "Mo 09:30-19:00; Tu-Fr 09:30-19:00; Sa 09:30-17:00",
      "shop": "general",
      "source": "survey and website",
      "website": "https://www.tropicalzone.ch/"
    },
    "distance_to_station": 756.3013213272191
  },
  {
    "feature_type": "shops",
    "lat": 46.9560822,
    "lon": 7.4531741,
    "tags": {
      "addr:city": "Bern",
      "addr:housenumber": "50",
      "addr:postcode": "3013",
      "addr:street": "Spitalackerstrasse",
      "brand": "CityCycles;Rondo;Ibex;Naloo;woom;Urban Arrow;Larry vs Harry;VSF;",
      "check_date:opening_hours": "2025-02-21",
      "email": "ccb@citycycles.ch",
      "fax": "+41 31 3338737",
      "name": "City Cycles Bern",
      "opening_hours": "Mo-Fr 09:00-18:30; Sa 09:00-16:00",
      "operator": "City Cycles AG",
      "phone": "+41 31 333 87 33",
      "service:bicycle:pump": "yes",
      "service:bicycle:rental": "yes",
      "service:bicycle:repair": "yes",
      "service:bicycle:tools": "yes",
      "shop": "bicycle",
      "website": "https://www.citycycles.ch"
    },
    "distance_to_station": 763.3944779233426
  },
  {
    "feature_type": "shops",
    "lat": 46.959181,
    "lon": 7.4550434,
    "tags": {
      "addr:city": "Bern",
      "addr:housenumber": "2",
      "addr:postcode": "3014",
      "addr:street": "Stauffacherstrasse",
      "brand": "Coop",
      "brand:wikidata": "Q432564",
      "brand:wikipedia": "de:Coop (Schweiz)",
      "check_date:opening_hours": "2025-03-29",
      "level": "0",
      "name": "Coop",
      "opening_hours": "Mo-Fr 07:30-20:00, Sa 07:30-17:00",
      "operator": "Coop",
      "shop": "supermarket",
      "wheelchair": "yes"
    },
    "distance_to_station": 679.9288054220949
  },
  {
    "feature_type": "shops",
    "lat": 46.9613051,
    "lon": 7.4529884,
    "tags": {
      "brand": "Denner",
      "brand:wikidata": "Q379911",
      "cash_withdrawal": "migros_bank;postfinance_card",
      "cash_withdrawal:fee": "no",
      "cash_withdrawal:purchase_required": "no",
      "cash_withdrawal:type": "checkout",
      "contact:addr": "Scheibenstrasse 29, 3014 Bern",
      "contact:phone": "+41 58 9990323",
      "name": "Denner",
      "opening_hours": "Mo-Th 08:00-19:00; Fr 08:00-21:00; Sa 08:00-17:00; Su off",
      "shop": "supermarket",
      "source": "survey and website",
      "website": "https://www.denner.ch/",
      "wheelchair": "yes"
    },
    "distance_to_station": 481.05899325598074
  },
  {
    "feature_type": "shops",
    "lat": 46.9552762,
    "lon": 7.4490046,
    "tags": {
      "addr:city": "Bern",
      "addr:housenumber": "86",
      "addr:postcode": "3013",
      "addr:street": "Viktoriastrasse",
      "female": "yes",
      "male": "yes",
      "name": "Flawless Beauty & SPA",
      "shop": "hairdresser"
    },
    "distance_to_station": 693.76357949997
  },
  {
    "feature_type": "shops",
    "lat": 46.9554426,
    "lon": 7.4518078,
    "tags": {
      "alt_name": "YC Nautica-Sport Bern",
      "check_date": "2025-07-18",
      "contact:addr:full": "Moserstrasse 2, 3014 Bern",
      "contact:email": "info@ycnautica.ch",
      "contact:fax": "+41 31 3319378",
      "contact:phone": "+41 31 3319241",
      "contact:website": "https://www.ycnautica.ch",
      "name": "YC Nautica-Sport",
      "opening_hours": "Mo 14:00-18:30; Tu-Fr 08:00-12:00,13:30-18:30; Sa 08:00-12:00; Su off",
      "operator": "YC Nautica-Sport Bern AG",
      "shop": "boat",
      "source": "website and survey"
    },
    "distance_to_station": 760.4360090186811
  },
  {
    "feature_type": "shops",
    "lat": 46.9557007,
    "lon": 7.4519315,
    "tags": {
      "contact:city": "Bern",
      "contact:housenumber": "8",
      "contact:postcode": "3014",
      "contact:street": "Moserstrasse",
      "name": "Cuts & More",
      "operator": "CUTS & MORE J. + U. DOPPMANN",
      "phone": "+41 31 333 40 01",
      "shop": "hairdresser",
      "wheelchair": "no"
    },
    "distance_to_station": 741.0269941962533
  },
  {
    "feature_type": "shops",
    "lat": 46.9558809,
    "lon": 7.452016,
    "tags": {
      "contact:addr": "Moserstrasse 12, 3014 Bern",
      "contact:email": "info@kidz-bern.ch",
      "contact:phone": "+41 31 3326272",
      "description": "http://kidz-bern.ch/produkte.html",
      "name": "KiDZ",
      "opening_hours": "Mo off; Tu 14:00-18:00; We-Fr 10:00-11:30, 14:00-18:00; Sa 10:00-12:30; Su off",
      "shop": "gift",
      "source": "website and survey",
      "website": "http://www.kidz-bern.ch"
    },
    "distance_to_station": 727.8326283653053
  },
  {
    "feature_type": "shops",
    "lat": 46.9557996,
    "lon": 7.4519776,
    "tags": {
      "alt_name": "Damenboutique Spinnula",
      "contact:addr:full": "Moserstrasse 10, 3014 Bern",
      "contact:fax": "+41 31 3480334",
      "contact:phone": "+41 31 3480333",
      "contact:website": "http://www.spinnula.ch/6785/index.html",
      "name": "Spinnula",
      "opening_hours": "Mo off; Tu-Fr 09:30-12:30,13:30-18:30; Sa 09:30-16:00; Su off",
      "operator": "Spinnula GmbH",
      "shop": "clothes",
      "source": "website and survey",
      "website": "https://www.spinnula.ch/"
    },
    "distance_to_station": 733.7285597080573
  },
  {
    "feature_type": "shops",
    "lat": 46.9572741,
    "lon": 7.4527209,
    "tags": {
      "alt_name": "edithanderegg - wohnen ist nicht einfach wohnen",
      "email": "info@edithanderegg.ch",
      "name": "Edith Anderegg",
      "opening_hours": "Mo-Fr 10:00-12:00, 14:00-18:30; Sa 10:00-16:00; Su off",
      "phone": "+41 31 333 33 93",
      "shop": "furniture",
      "website": "https://edithanderegg.ch/"
    },
    "distance_to_station": 642.9510224604898
  },
  {
    "feature_type": "shops",
    "lat": 46.9559418,
    "lon": 7.4520455,
    "tags": {
      "alt_name": "Klara Maria Iseli Stoffe",
      "contact:addr": "Moserstrasse 12, 3014 Bern",
      "contact:email": "stoffe@klaramariaiseli.ch",
      "contact:phone": "+41 31 3312064",
      "name": "Klara Maria Iseli Stoffe",
      "opening_hours": "Mo off; Tu-Fr 10:00-18:00; Sa 10:00-16:00; Su off",
      "shop": "fabric",
      "source": "website and survey",
      "website": "http://www.klaramariaiseli.ch"
    },
    "distance_to_station": 723.4980107630555
  },
  {
    "feature_type": "shops",
    "lat": 46.95621,
    "lon": 7.4522328,
    "tags": {
      "contact:addr": "Moserstrasse 14b, 3014 Bern",
      "contact:email": "bern.gartenladen@wyssgarten.ch",
      "contact:phone": "+41 31 3034970",
      "name": "Wyss GartenLaden",
      "opening_hours": "Mo-Fr 09:00-12:30, 13:30-18:30; Sa 08:00-17:00",
      "operator": "Wyss",
      "shop": "garden_centre",
      "website": "https://www.wyssgarten.ch/"
    },
    "distance_to_station": 707.5564433657748
  },
  {
    "feature_type": "shops",
    "lat": 46.9562743,
    "lon": 7.4535429,
    "tags": {
      "addr:city": "Bern",
      "addr:country": "CH",
      "addr:housenumber": "19",
      "addr:postcode": "3013",
      "addr:street": "Beundenfeldstrasse",
      "male": "yes",
      "name": "Legends",
      "opening_hours": "Tu-Fr 09:00-18:30; Sa 08:00-17:00",
      "shop": "hairdresser",
      "wheelchair": "no"
    },
    "distance_to_station": 766.1608313204385
  },
  {
    "feature_type": "shops",
    "lat": 46.9564094,
    "lon": 7.4527803,
    "tags": {
      "addr:city": "Bern",
      "addr:country": "CH",
      "addr:housenumber": "1",
      "addr:postcode": "3013",
      "addr:street": "Waldh\u00f6heweg",
      "alt_name": "B\u00e4chli Bergsport Hauptgesch\u00e4ft",
      "check_date:opening_hours": "2025-02-21",
      "contact:email": "bern@baechli-bergsport.ch",
      "contact:fax": "+41 31 3308082",
      "contact:phone": "+41 31 3308080",
      "name": "B\u00e4chli",
      "opening_hours": "Mo-We 09:00-18:30; Th 10:00-20:00; Fr 09:00-20:00; Sa 09:00-17:00; Su off",
      "operator": "B\u00e4chli Bergsport AG",
      "shop": "outdoor",
      "source": "survey and website",
      "website": "https://www.baechli-bergsport.ch/Bern",
      "wheelchair": "limited"
    },
    "distance_to_station": 716.2670583007133
  },
  {
    "feature_type": "shops",
    "lat": 46.9566327,
    "lon": 7.4524387,
    "tags": {
      "check_date": "2025-04-13",
      "check_date:opening_hours": "2025-04-13",
      "email": "musik@mueller-schade.com",
      "musical_instrument": "sheet_music",
      "name": "M\u00fcller & Schade",
      "opening_hours": "Mo-Fr 09:00-18:30; Sa 10:00-16:00; Su,PH closed",
      "phone": "+41 31 320 26 26",
      "shop": "musical_instrument",
      "website": "https://www.mueller-schade.com/",
      "wheelchair": "no"
    },
    "distance_to_station": 680.513210300341
  },
  {
    "feature_type": "shops",
    "lat": 46.9565028,
    "lon": 7.4529789,
    "tags": {
      "addr:city": "Bern",
      "addr:country": "CH",
      "addr:housenumber": "1",
      "addr:postcode": "3013",
      "addr:street": "Waldh\u00f6heweg",
      "alt_name": "B\u00e4chli Bergsport Outlet",
      "contact:email": "bern@baechli-bergsport.ch",
      "contact:fax": "+41 31 3308082",
      "contact:phone": "+41 31 3308090",
      "name": "B\u00e4chli Outlet",
      "opening_hours": "Mo-We 09:00-18:30; Th 10:00-20:00; Fr 09:00-20:00; Sa 09:00-17:00; Su off",
      "operator": "B\u00e4chli Bergsport AG",
      "shop": "outdoor",
      "source": "survey and website"
    },
    "distance_to_station": 718.422173895428
  },
  {
    "feature_type": "shops",
    "lat": 46.9585875,
    "lon": 7.4538358,
    "tags": {
      "contact:city": "Bern 22",
      "contact:email": "office@egli-ag.ch",
      "contact:fax": "+41 31 333 88 30",
      "contact:housenumber": "42",
      "contact:phone": "+41 31 333 88 00",
      "contact:postbox": "Postfach 588",
      "contact:postcode": "3000",
      "contact:street": "Breitenrainplatz",
      "contact:website": "https://www.egli-ag.ch/",
      "name": "Egli Bestattungen",
      "opening_hours": "Mo-Fr 08:00-12:00,13:30-17:30",
      "shop": "funeral_directors"
    },
    "distance_to_station": 623.8011460774002
  },
  {
    "feature_type": "shops",
    "lat": 46.9586459,
    "lon": 7.4540336,
    "tags": {
      "check_date": "2025-08-06",
      "contact:addr": "Breitenrainplatz 42, 3014 Bern",
      "name": "S. Jakob Schuhmacherei",
      "shop": "shoes"
    },
    "distance_to_station": 633.9528364439625
  },
  {
    "feature_type": "shops",
    "lat": 46.9586304,
    "lon": 7.4539771,
    "tags": {
      "check_date:opening_hours": "2025-03-29",
      "contact:addr": "Breitenrainplatz 42, 3014 Bern",
      "contact:email": "elektro@nyffeler-kaestli.ch",
      "contact:fax": "+41 31 3319856",
      "contact:phone": "+41 31 3319855",
      "contact:website": "https://nyffeler-kaestli.ch/kontakt",
      "name": "Nyffeler-K\u00e4stli Elektro",
      "opening_hours": "Mo,Tu,Th 08:00-12:00,13:00-17:00; Fr 08:00-12:00; We,Sa,Su off",
      "opening_hours:signed": "no",
      "operator": "Nyffeler-K\u00e4stli Elektro AG",
      "shop": "electronics",
      "website": "https://nyffeler-kaestli.ch"
    },
    "distance_to_station": 630.9643054662419
  },
  {
    "feature_type": "shops",
    "lat": 46.9586785,
    "lon": 7.4546308,
    "tags": {
      "addr:city": "Bern",
      "addr:country": "CH",
      "addr:housenumber": "32",
      "addr:postcode": "3014",
      "addr:street": "Breitenrainplatz",
      "alt_name": "k kiosk Breitenrainplatz",
      "brand": "k kiosk",
      "brand:wikidata": "Q60381703",
      "cash_withdrawal": "yes",
      "cash_withdrawal:fee": "no",
      "cash_withdrawal:operator": "sonect",
      "cash_withdrawal:purchase_required": "no",
      "cash_withdrawal:type": "checkout",
      "check_date": "2025-08-06",
      "contact:phone": "+41 31 3319247",
      "name": "k kiosk",
      "opening_hours": "Mo-Fr 06:30-19:00; Sa 08:00-17:00",
      "shop": "newsagent",
      "source": "survey"
    },
    "distance_to_station": 672.9010132742812
  },
  {
    "feature_type": "shops",
    "lat": 46.9583737,
    "lon": 7.4565414,
    "tags": {
      "contact:addr": "Milit\u00e4rstrasse 39, 3014 Bern",
      "contact:phone": "+41 31 3329131",
      "name": "Wave",
      "shop": "hairdresser",
      "source": "survey"
    },
    "distance_to_station": 819.2553805012348
  },
  {
    "feature_type": "shops",
    "lat": 46.9591138,
    "lon": 7.4563267,
    "tags": {
      "name": "Coiffure Nicole",
      "opening_hours": "Tu-Th 09:00-12:00,13:30-18:00; Sa 09:00-15:00",
      "shop": "hairdresser",
      "source": "survey"
    },
    "distance_to_station": 774.5741026452638
  },
  {
    "feature_type": "shops",
    "lat": 46.959165,
    "lon": 7.4566283,
    "tags": {
      "addr:city": "Bern",
      "addr:housenumber": "97",
      "addr:postcode": "3014",
      "addr:street": "Rodtmattstrasse",
      "contact:addr": "Rodtmattstrasse 97, 3014 Bern",
      "contact:facebook": "https://www.facebook.com/zucriss",
      "contact:instagram": "https://www.instagram.com/passion_cosmetic_/",
      "contact:phone": "+41 31",
      "name": "Passion Cosmetic",
      "operator": "Cristina Roman",
      "shop": "beauty",
      "source": "survey"
    },
    "distance_to_station": 794.668773356484
  },
  {
    "feature_type": "shops",
    "lat": 46.9593808,
    "lon": 7.4565668,
    "tags": {
      "addr:city": "Bern",
      "addr:housenumber": "9",
      "addr:postcode": "3014",
      "addr:street": "R\u00fctlistrasse",
      "alt_name": "Amaducci RTV",
      "email": "audiocenter@bluemail.ch",
      "fax": "+41 31 331 00 11",
      "name": "Vintage Audiocenter",
      "opening_hours": "Mo-Fr off; Sa 10:00-16:00; Su off; PH off",
      "operator": "Marco Antonio Amaducci",
      "phone": "+41 31 331 00 30",
      "shop": "hifi",
      "website": "http://www.amaducci.ch"
    },
    "distance_to_station": 783.3035183408323
  },
  {
    "feature_type": "shops",
    "lat": 46.9594212,
    "lon": 7.4567101,
    "tags": {
      "alt_name": "Atelier 1:12 - Alles f\u00fcr das Puppenhaus",
      "brand": "Mini Mundus",
      "contact:addr": "R\u00fctlistrasse 9, 3014 Bern",
      "contact:email": "info@atelier1-12.ch",
      "contact:fax": "+41 31 3322548",
      "contact:phone": "+41 31 3320548",
      "email": "info@atelier1-12.ch",
      "name": "Atelier 1:12",
      "opening_hours": "Sa 10:00-14:00",
      "shop": "second_hand",
      "source": "website;survey",
      "website": "https://www.atelier1-12.ch/"
    },
    "distance_to_station": 792.5992110364961
  },
  {
    "feature_type": "shops",
    "lat": 46.958853,
    "lon": 7.4574827,
    "tags": {
      "addr:city": "Bern",
      "addr:country": "CH",
      "addr:housenumber": "40",
      "addr:postcode": "3014",
      "addr:street": "Milit\u00e4rstrasse",
      "name": "Diamante",
      "shop": "hairdresser"
    },
    "distance_to_station": 867.2156376755175
  },
  {
    "feature_type": "shops",
    "lat": 46.9592557,
    "lon": 7.4574569,
    "tags": {
      "alt_name": "Hair & MakeUp VisAngi",
      "contact:addr": "Rodtmattstrasse 91, 3014 Bern",
      "contact:email": "info@visangi.ch",
      "contact:phone": "+41 31 3316564",
      "contact:website": "http://www.visangi.ch/kontakt",
      "name": "VisAngi",
      "opening_hours": "Mo off; Tu-Fr 09:00-18:30; Sa 09:00-16:00; Su off",
      "operator": "Angela Muri",
      "shop": "hairdresser",
      "source": "survey and website",
      "website": "https://www.visangi.ch/"
    },
    "distance_to_station": 852.2878924431342
  },
  {
    "feature_type": "shops",
    "lat": 46.9591221,
    "lon": 7.4581161,
    "tags": {
      "contact:addr": "Milit\u00e4rstrasse 34a, 3014 Bern",
      "contact:email": "info@thymos.ch",
      "contact:facebook": "https://www.facebook.com/ThymosAG",
      "contact:fax": "+41 31 3356065",
      "contact:phone": "+41 31 3356060",
      "name": "thymos Naturbaustoffe",
      "opening_hours": "Mo-Fr 07:30-12:00, 13:00-17:00; Sa-Su off; PH off",
      "operator": "Thymos AG",
      "shop": "doityourself",
      "website": "https://www.thymos.ch"
    },
    "distance_to_station": 904.6073964441473
  },
  {
    "feature_type": "shops",
    "lat": 46.9596961,
    "lon": 7.4581296,
    "tags": {
      "name": "A.T. Jewellery&Textiles",
      "shop": "clothes"
    },
    "distance_to_station": 890.5918867116766
  },
  {
    "feature_type": "shops",
    "lat": 46.9597041,
    "lon": 7.4586639,
    "tags": {
      "addr:city": "Bern",
      "addr:country": "CH",
      "addr:housenumber": "9",
      "addr:postcode": "3014",
      "addr:street": "Parkstrasse",
      "brand": "Otto's",
      "brand:wikidata": "Q2041507",
      "name": "Otto's mini",
      "not:name": "Otto's",
      "shop": "variety_store",
      "wheelchair": "no"
    },
    "distance_to_station": 930.2916650811452
  },
  {
    "feature_type": "shops",
    "lat": 46.9579407,
    "lon": 7.4558762,
    "tags": {
      "name": "Efeu mit Pep",
      "shop": "florist"
    },
    "distance_to_station": 794.5901064941528
  },
  {
    "feature_type": "shops",
    "lat": 46.9579297,
    "lon": 7.4560235,
    "tags": {
      "addr:city": "Bern",
      "addr:country": "CH",
      "addr:housenumber": "5",
      "addr:postcode": "3014",
      "addr:street": "Herzogstrasse",
      "contact:email": "info@abacus-glass.ch",
      "contact:fax": "+41 31 3330607",
      "contact:phone": "+41 31 3330450",
      "name": "abacus deco",
      "opening_hours": "Mo 13:00-17:30; Sa,Su off; Tu,We 13:00-18:00; Th 13:00-17:30; Fr 13:00-18:00",
      "operator": "Renata Langenegger-Lehner",
      "shop": "interior_decoration",
      "source": "website and survey",
      "website": "http://www.abacus-glass.ch"
    },
    "distance_to_station": 805.0664618014173
  },
  {
    "feature_type": "shops",
    "lat": 46.9580091,
    "lon": 7.4557902,
    "tags": {
      "contact:addr": "Herzogstrasse 9, 3014 Bern",
      "contact:email": "anita.kocher42@gmail.com",
      "contact:fax": "+41 31 3314801",
      "contact:phone": "+41 31 3314801",
      "name": "Dekorationen Anita Kocher",
      "opening_hours": "\"by appointment\"",
      "shop": "furniture"
    },
    "distance_to_station": 785.2417750816643
  },
  {
    "feature_type": "shops",
    "lat": 46.9581205,
    "lon": 7.4563995,
    "tags": {
      "name": "Colette",
      "opening_hours": "Mo-Fr 09:00-11:30, 14:00-17:00; Sa 09:00-15:00",
      "shop": "clothes",
      "website": "https://colette-bern.ch"
    },
    "distance_to_station": 821.1110699474705
  },
  {
    "feature_type": "shops",
    "lat": 46.9585825,
    "lon": 7.4552607,
    "tags": {
      "alt_name": "Haushalt Elektro GmbH",
      "contact:addr": "Herzogstrasse 24, 3014 Bern",
      "contact:email": "service@haushalt-elektro.ch",
      "contact:mobile": "+41 79 4322866",
      "contact:phone": "+41 31 3325522",
      "contact:website": "http://www.haushalt-elektro.ch/Kontakt.htm",
      "name": "Haushalt Elektro",
      "opening_hours": "Mo-Fr 14:00-18:00; Su off; PH off; Sa 10:00-12:00",
      "operator": "Haushalt Elektro GmbH",
      "shop": "hardware",
      "source": "Survey and website",
      "website": "http://www.haushalt-elektro.ch"
    },
    "distance_to_station": 720.8078203615528
  },
  {
    "feature_type": "shops",
    "lat": 46.9558967,
    "lon": 7.4515633,
    "tags": {
      "alt_name": "Blumen Maarsen",
      "check_date": "2025-07-16",
      "contact:addr": "Schl\u00e4flistrasse 2, 3014 Bern",
      "contact:email": "info@maarsen.ch",
      "contact:fax": "+41 31 3327692",
      "contact:phone": "+41 31 3326200",
      "name": "Blumen Maarsen",
      "opening_hours": "Mo-Fr 08:00-18:30; Sa 08:00-16:00",
      "payment:credit_cards": "yes",
      "shop": "florist",
      "website": "https://www.maarsen.ch/"
    },
    "distance_to_station": 707.6427275275103
  },
  {
    "feature_type": "shops",
    "lat": 46.9562932,
    "lon": 7.4517759,
    "tags": {
      "contact:addr": "Moserstrasse 15, 3014 Bern",
      "name": "Haarladen",
      "shop": "hairdresser"
    },
    "distance_to_station": 679.6952936835013
  },
  {
    "feature_type": "shops",
    "lat": 46.9565939,
    "lon": 7.4519184,
    "tags": {
      "addr:city": "Bern",
      "addr:country": "CH",
      "check_date": "2025-08-06",
      "name": "Kiosk",
      "shop": "kiosk"
    },
    "distance_to_station": 659.0747583804343
  },
  {
    "feature_type": "shops",
    "lat": 46.9567133,
    "lon": 7.4525566,
    "tags": {
      "email": "kontakt@reinekopfsache-bern.ch",
      "name": "Raumzeit",
      "phone": "+41 31 535 35 35",
      "shop": "hairdresser",
      "website": "https://www.reinekopfsache-bern.ch/"
    },
    "distance_to_station": 679.5788484205267
  },
  {
    "feature_type": "shops",
    "lat": 46.9568416,
    "lon": 7.4527732,
    "tags": {
      "alt_name": "H\u00f6rger\u00e4te Akustik Correct TON",
      "contact:addr": "Moserstrasse 22, 3014 Bern",
      "contact:email": "correctton@sunrise.ch",
      "contact:fax": "+41 31 3111593",
      "contact:phone": "+41 31 3111533",
      "name": "CorrectTON",
      "opening_hours": "Mo 08:30-12:00, 13:30-17:00; Tu off; We-Fr 08:30-12:00, 13:30-17:00; Sa-Su off",
      "shop": "hearing_aids",
      "source": "survey and website",
      "website": "https://www.correctton.ch/"
    },
    "distance_to_station": 680.080350362562
  },
  {
    "feature_type": "shops",
    "lat": 46.9571383,
    "lon": 7.4531243,
    "tags": {
      "contact:addr": "Moserstrasse 26, 3014 Bern",
      "contact:email": "outlet@olmo.ch",
      "contact:phone": "+41 79 9459874",
      "name": "Olmo Outlet",
      "opening_hours": "Mo-Fr 09:30-13:00, 14:00-18:30; Sa 09:30-13:00, 13:30-17:00; Su off",
      "operator": "Olmo",
      "shop": "clothes",
      "website": "https://olmo.ch"
    },
    "distance_to_station": 675.5666319446353
  },
  {
    "feature_type": "shops",
    "lat": 46.9572216,
    "lon": 7.453227,
    "tags": {
      "contact:addr": "Moserstrasse 28, 3014 Bern",
      "contact:email": "info@fbbarbershop.ch",
      "contact:phone": "+41 31 3312005",
      "name": "F.B. Barbershop",
      "opening_hours": "Mo off; Tu-Fr 10:00-19:00; Sa 10:00-17:00; Su off",
      "operator": "Walter Aiguokhian aka F.B. aka Fine Boy",
      "shop": "hairdresser",
      "source": "survey and website",
      "website": "http://www.fbbarbershop.ch"
    },
    "distance_to_station": 675.0065306786905
  },
  {
    "feature_type": "shops",
    "lat": 46.9604086,
    "lon": 7.4542773,
    "tags": {
      "check_date:opening_hours": "2024-02-06",
      "contact:addr:full": "Scheibenstrasse 16, 3014 Bern",
      "name": "Boutique Brigitta",
      "opening_hours": "Tu-Fr 12:00-18:00",
      "shop": "clothes"
    },
    "distance_to_station": 587.7342399404222
  },
  {
    "feature_type": "shops",
    "lat": 46.9574225,
    "lon": 7.4535347,
    "tags": {
      "contact:addr": "Moserstrasse 42, 3014 Bern",
      "contact:phone": "+41 31 3327252",
      "name": "Alles rein",
      "opening_hours": "Mo-Fr 07:30-18:30; Sa 07:30-16:00; Su off",
      "shop": "dry_cleaning",
      "source": "survey and website"
    },
    "distance_to_station": 678.0645747517694
  },
  {
    "feature_type": "shops",
    "lat": 46.9575274,
    "lon": 7.4535985,
    "tags": {
      "contact:addr:full": "Moserstrasse 42, 3014 Bern",
      "contact:phone": "+41 31 3331391",
      "name": "Siam Food",
      "opening_hours": "Mo-Th 09:00-18:30; Fr 09:00-19:00; Sa 09:00-17:00",
      "operator": "Siam Food GmbH",
      "shop": "supermarket"
    },
    "distance_to_station": 674.4861603144768
  },
  {
    "feature_type": "shops",
    "lat": 46.9575947,
    "lon": 7.4537141,
    "tags": {
      "check_date:opening_hours": "2021-08-20",
      "email": "breitenrain@rework.ch",
      "name": "Rework",
      "opening_hours": "Mo-Fr 09:30-18:30; Sa 09:30-17:00; Su,PH closed",
      "second_hand": "only",
      "shop": "clothes",
      "upcycling": "only",
      "website": "https://www.rework.ch/"
    },
    "distance_to_station": 676.7999466916224
  },
  {
    "feature_type": "shops",
    "lat": 46.9577061,
    "lon": 7.453834,
    "tags": {
      "cannabis:cbd": "only",
      "check_date:opening_hours": "2021-08-20",
      "diet:vegan": "yes",
      "email": "info@herbadiberna.ch",
      "fixme": "the website shows another address. Please Survey.",
      "name": "Herba di Berna",
      "opening_hours": "Tu-Fr 11:00-13:00,14:00-18:00; Sa 11:00-17:00; Mo,Su,PH closed",
      "phone": "+41 31 503 12 22",
      "shop": "cannabis",
      "website": "https://herbadiberna.ch/"
    },
    "distance_to_station": 676.6518413416494
  },
  {
    "feature_type": "shops",
    "lat": 46.9578492,
    "lon": 7.4540713,
    "tags": {
      "addr:postcode": "3014",
      "alt_name": "B\u00e4ckerei Bohnenblust",
      "contact:addr": "Moserstrasse 50, 3014 Bern",
      "contact:email": "hallo@chnebubrot.ch",
      "contact:fax": "+41 31 3320660",
      "contact:phone": "+41 31 3330402",
      "name": "Bohnenblust",
      "opening_hours": "Mo-Fr 05:30-18:30; Sa 05:30-17:00",
      "operator": "B\u00e4ckerei Bohnenblust AG",
      "shop": "bakery",
      "source": "survey and website",
      "website": "https://www.baeckerei-bohnenblust.ch/",
      "wheelchair": "no"
    },
    "distance_to_station": 682.2010641315853
  },
  {
    "feature_type": "shops",
    "lat": 46.9581736,
    "lon": 7.4544912,
    "tags": {
      "check_date": "2025-07-18",
      "check_date:opening_hours": "2021-08-20",
      "email": "info@vinos-argentinos.ch",
      "name": "Casa de Vinos Argentinos",
      "opening_hours": "Mo-We 10:00-13:00; Th-Fr 10:00-13:00,16:00-19:00; Sa 10:00-14:00; Su,PH closed",
      "phone": "+41 31 352 92 32",
      "shop": "wine",
      "website": "https://www.casavinosargentinos.ch/",
      "wheelchair": "no"
    },
    "distance_to_station": 689.9285190016438
  },
  {
    "feature_type": "shops",
    "lat": 46.958234,
    "lon": 7.4545606,
    "tags": {
      "alt_name": "Moda Coiffure",
      "contact:addr:full": "Breitenrainplatz 31, 3014 Bern",
      "contact:phone": "+41 31 3338003",
      "female": "yes",
      "male": "yes",
      "name": "Moda",
      "opening_hours": "Mo 10:00-18:30; Tu-Fr 08:00-18:30; Sa 08:00-15:00",
      "operator": "Monia Francone-Marinelli",
      "shop": "hairdresser",
      "source": "survey"
    },
    "distance_to_station": 691.1474983615454
  },
  {
    "feature_type": "shops",
    "lat": 46.9587399,
    "lon": 7.4551898,
    "tags": {
      "contact:addr": "Breitenrainplatz 28, 3014 Bern",
      "contact:facebook": "https://www.facebook.com/cinq-%C3%A9toiles-470813993089971",
      "contact:instagram": "https://www.instagram.com/cinqetoiles.bern",
      "contact:phone": "+41 31 5584584",
      "name": "Cinque \u00e9toiles",
      "opening_hours": "Mo-Fr 09:00-12:00, 13:30-18:30; Sa 09:00-17:00",
      "operator": "bienvenue cinq \u00e9toiles gmbh",
      "shop": "gift",
      "source": "survey",
      "website": "https://www.cinq-etoiles.ch"
    },
    "distance_to_station": 708.6852631328254
  },
  {
    "feature_type": "shops",
    "lat": 46.9567134,
    "lon": 7.4512053,
    "tags": {
      "contact:addr": "Sickingerstrasse 6, 3014 Bern",
      "contact:email": "richard@bellbirdvintage.com",
      "contact:mobile": "+41 78 8385994",
      "name": "Bellbird Vintage",
      "opening_hours": "Mo-Tu off; We 11:00-17:00; Th 11:00-18:30; Fr 11:00-17:00; Sa 10:30-17:00; Su off",
      "shop": "furniture",
      "source": "website",
      "website": "http://www.bellbirdvintage.com"
    },
    "distance_to_station": 616.5992102807593
  },
  {
    "feature_type": "shops",
    "lat": 46.9569084,
    "lon": 7.4490927,
    "tags": {
      "amenity": "arts_centre",
      "contact:addr": "Breitenrainstrasse 47, 3013 Bern",
      "contact:email": "info@archivarte.ch",
      "contact:phone": "+41 31 3316206",
      "contact:website": "https://archivarte.ch/kontakt.html",
      "name": "Galerie ArchivArte",
      "note": "Ausstellung + Verkauf",
      "opening_hours": "Mo-We off; Th-Fr 16:00-19:00; Sa 13:00-16:00; Su off; PH off",
      "operator": "Verein ArchivArte",
      "shop": "art",
      "source": "Survey and website",
      "website": "https://archivarte.ch"
    },
    "distance_to_station": 522.7877728149489
  },
  {
    "feature_type": "shops",
    "lat": 46.9578301,
    "lon": 7.4471726,
    "tags": {
      "name": "Kiosk",
      "opening_hours": "Mo-Fr 08:00-20:30; Sa 14:00-20:30; Su 09:00-20:00",
      "shop": "convenience"
    },
    "distance_to_station": 388.5640951418263
  },
  {
    "feature_type": "shops",
    "lat": 46.9581502,
    "lon": 7.447133,
    "tags": {
      "contact:addr:full": "R\u00f6merweg 1, 3013 Bern",
      "contact:email": "mail@moebelhallebern.ch",
      "contact:fax": "+41 31 3301801",
      "contact:phone": "+41 31 3301800",
      "name": "M\u00f6belhalle Bern",
      "opening_hours": "Mo off; Tu-Fr 09:00-12:00,13:30-18:30; Sa 09:00-16:00; Su off",
      "operator": "M\u00f6belhalle Bern AG",
      "shop": "furniture",
      "source": "survey and website",
      "website": "https://www.moebelhallebern.ch/"
    },
    "distance_to_station": 352.8552912648909
  },
  {
    "feature_type": "shops",
    "lat": 46.9571155,
    "lon": 7.4468032,
    "tags": {
      "check_date:opening_hours": "2023-06-20",
      "contact:city": "Bern",
      "contact:email": "brocki@gewa.ch",
      "contact:housenumber": "5",
      "contact:phone": "+41 31 333 82 22",
      "contact:postcode": "3013",
      "contact:street": "Hofweg",
      "contact:website": "https://www.baernerbrocki.ch/",
      "name": "B\u00e4rner Brocki",
      "opening_hours": "Mo 12:00-18:00; Tu-Fr 09:00-18:00; Sa 09:00-16:00; Su,PH off",
      "operator": "GEWA",
      "shop": "second_hand",
      "wheelchair": "yes"
    },
    "distance_to_station": 466.216403115113
  },
  {
    "feature_type": "shops",
    "lat": 46.9580056,
    "lon": 7.4488368,
    "tags": {
      "check_date": "2023-03-22",
      "contact:addr": "Pappelweg 10, 3013 Bern",
      "contact:email": "breitenrain@hiob.ch",
      "contact:fax": "+41 31 3484976",
      "contact:phone": "+41 31 3484975",
      "name": "Hiob",
      "opening_hours": "Mo-Fr 09:00-12:00,13:30-18:30; Sa 09:00-16:00",
      "operator": "Verein HIOB - International",
      "payment:american_express": "yes",
      "payment:maestro": "yes",
      "payment:mastercard": "yes",
      "payment:twint": "yes",
      "payment:visa": "yes",
      "shop": "second_hand",
      "website": "https://hiob.ch/brockenstuben/bern-breitenrain/",
      "wheelchair": "no"
    },
    "distance_to_station": 402.5560155930256
  },
  {
    "feature_type": "shops",
    "lat": 46.959973,
    "lon": 7.4486071,
    "tags": {
      "contact:addr:full": "Wylerstrasse 47, 3014 Bern",
      "contact:email": "sonja@california-hair-studio.ch",
      "contact:phone": "+41 31 3321177",
      "female:signed": "no",
      "male:signed": "no",
      "name": "California Hair Studio",
      "opening_hours": "Tu 09:00-18:00; We 09:00-12:00; Th-Fr 09:00-18:00; Sa 09:00-12:00",
      "operator": "Sonja Burkhalter",
      "shop": "hairdresser",
      "source": "survey and website",
      "website": "https://www.california-hair-studio.ch/"
    },
    "distance_to_station": 209.32590621252976
  },
  {
    "feature_type": "shops",
    "lat": 46.9601279,
    "lon": 7.4484728,
    "tags": {
      "alt_name": "Wyleregg Laden",
      "contact:addr:full": "Wylerstrasse 49, 2014 Bern",
      "contact:email": "info@wylereggladen.ch",
      "contact:phone": "+41 31 3312130",
      "name": "Wylereggladen",
      "opening_hours": "Mo,Tu 07:30-13:00,14:30-19:00; We 07:30-13:00; Th,Fr 07:30-13:00,14:30-19:00; Su off; Sa 07:30-16:00",
      "operator": "Genossenschaft Wylereggladen",
      "organic": "yes",
      "payment:american_express": "yes",
      "payment:cash": "yes",
      "payment:maestro": "yes",
      "payment:postfinance_card": "yes",
      "payment:visa": "yes",
      "payment:visa_electron": "yes",
      "shop": "convenience",
      "source": "survey and website",
      "website": "http://www.wylereggladen.ch"
    },
    "distance_to_station": 189.97040183635522
  },
  {
    "feature_type": "shops",
    "lat": 46.9603943,
    "lon": 7.4482182,
    "tags": {
      "check_date:opening_hours": "2025-01-03",
      "email": "info@fraukuhn.ch",
      "name": "fraukuhn",
      "opening_hours": "Tu,We,Fr 10:00-17:00; Sa 09:00-15:00",
      "phone": "+41 31 525 54 69",
      "shop": "wool",
      "website": "https://fraukuhn.ch/",
      "wheelchair": "no"
    },
    "distance_to_station": 155.70873263220466
  },
  {
    "feature_type": "shops",
    "lat": 46.9603448,
    "lon": 7.4487985,
    "tags": {
      "brand": "R\u00fcedu",
      "brand:wikidata": "Q112913831",
      "name": "R\u00fcedu",
      "opening_hours": "24/7",
      "operator": "R\u00fcedu",
      "self_service": "only",
      "shop": "convenience",
      "website": "https://ruedu.ch/",
      "wheelchair": "no"
    },
    "distance_to_station": 194.3389236424721
  },
  {
    "feature_type": "shops",
    "lat": 46.9601995,
    "lon": 7.4490885,
    "tags": {
      "addr:city": "Bern",
      "addr:housenumber": "33",
      "addr:postcode": "3014",
      "addr:street": "Flurstrasse",
      "contact:instagram": "https://www.instagram.com/velomario_bern/",
      "contact:mobile": "+41 79 7533968",
      "email": "velo@velomario.ch",
      "name": "Velo Mario Bern",
      "opening_hours": "We-Fr 10:00-12:00,14:00-18:30; Sa 10:00-14:00; Su-Tu off",
      "phone": "+41 78 777 95 57",
      "service:bicycle:pump": "no",
      "shop": "bicycle",
      "website": "https://www.velomario.ch"
    },
    "distance_to_station": 221.66299960781902
  },
  {
    "feature_type": "shops",
    "lat": 46.9600494,
    "lon": 7.4540835,
    "tags": {
      "check_date": "2024-09-04",
      "contact:addr": "Scheibenstrasse 13, 3014 Bern",
      "contact:email": "info@eilinger.ch",
      "contact:fax": "+41 31 3316877",
      "contact:phone": "+41 31 3312277",
      "contact:website": "https://www.eilinger.ch/kontakt.html",
      "level": "-1",
      "name": "Eilinger",
      "opening_hours": "Mo-Fr 13:30-18:30",
      "operator": "Eilinger AG",
      "shop": "vacuum_cleaner",
      "website": "https://www.eilinger.ch"
    },
    "distance_to_station": 581.5042454075747
  },
  {
    "feature_type": "shops",
    "lat": 46.9603126,
    "lon": 7.4539345,
    "tags": {
      "contact:addr": "Scheibenstrasse 17, 3014 Bern",
      "female": "yes",
      "male": "yes",
      "name": "Rod3",
      "opening_hours": "Mo-Fr 09:00-18:00; We 09:00-21:00; Sa 08:00-14:00",
      "phone": "+41 31 333 03 53",
      "shop": "hairdresser",
      "website": "https://www.rod-3.com/"
    },
    "distance_to_station": 564.0385206450641
  },
  {
    "feature_type": "shops",
    "lat": 46.9607647,
    "lon": 7.4536189,
    "tags": {
      "addr:city": "Bern",
      "addr:country": "CH",
      "addr:housenumber": "21",
      "addr:postcode": "3014",
      "addr:street": "Scheibenstrasse",
      "alt_name": "k kiosk Wylergut",
      "brand": "k kiosk",
      "brand:wikidata": "Q60381703",
      "cash_withdrawal": "yes",
      "cash_withdrawal:fee": "no",
      "cash_withdrawal:operator": "sonect",
      "cash_withdrawal:purchase_required": "no",
      "cash_withdrawal:type": "checkout",
      "contact:phone": "+41 31 3324861",
      "name": "k kiosk",
      "shop": "newsagent",
      "source": "survey"
    },
    "distance_to_station": 532.4885057142188
  },
  {
    "feature_type": "shops",
    "lat": 46.9593236,
    "lon": 7.4545694,
    "tags": {
      "beauty": "tanning",
      "check_date:opening_hours": "2024-02-06",
      "name": "My Sun",
      "opening_hours": "Mo-Su 07:00-22:00",
      "self_service": "only",
      "shop": "beauty"
    },
    "distance_to_station": 640.5936871133703
  },
  {
    "feature_type": "shops",
    "lat": 46.9595896,
    "lon": 7.4544902,
    "tags": {
      "check_date:opening_hours": "2024-02-06",
      "contact:addr:full": "Stauffacherstrasse 7, 3014 Bern",
      "contact:phone": "+41 31 3316705",
      "craft": "shoemaker",
      "name": "Schuhmacherei Plakaj",
      "old_name": "Schuhmacherei Iantorno",
      "opening_hours": "Mo 13:30-18:30; Tu-Fr 08:00-12:00,13:30-18:30; Sa 08:00-16:00",
      "operator": "Nikolin Plakaj",
      "shop": "shoes",
      "source": "survey",
      "wheelchair": "no"
    },
    "distance_to_station": 625.2761097578015
  },
  {
    "feature_type": "shops",
    "lat": 46.9603487,
    "lon": 7.4543313,
    "tags": {
      "addr:postcode": "3014",
      "contact:addr": "Scheibenstrasse 16, 3014 Bern",
      "contact:fax": "+41 31 3317010",
      "contact:phone": "+41 31 3317080",
      "contact:website": "http://www.optik-breitenrain.ch/index.php/Kontakt.html",
      "name": "optik breitenrain",
      "opening_hours": "Tu-Fr 09:00-18:30; Sa 09:00-13:00; Su,Mo off",
      "operator": "Optik Breitenrain AG",
      "shop": "optician",
      "source": "website",
      "website": "https://www.optik-breitenrain.ch/"
    },
    "distance_to_station": 592.9467346545252
  },
  {
    "feature_type": "shops",
    "lat": 46.9606369,
    "lon": 7.4544146,
    "tags": {
      "alt_name": "Fegbli Motorr\u00e4der",
      "brand": "Honda",
      "brand:wikidata": "Q9584",
      "contact:addr": "Stauffacherstrasse 13, 3014 Bern",
      "contact:email": "info@fegbli.ch",
      "contact:fax": "+41 31 3314973",
      "contact:phone": "+41 31 3317944",
      "name": "Fegbli",
      "opening_hours": "Mo 13:30-18:00; Tu-Fr 07:30-12:00, 13:30-18:00; Sa 08:00-14:00; Su off",
      "operator": "Fegbli Arthur + Co",
      "shop": "motorcycle",
      "source": "website",
      "website": "https://www.fegbli.ch/"
    },
    "distance_to_station": 594.3160682490008
  },
  {
    "feature_type": "shops",
    "lat": 46.9593319,
    "lon": 7.452932,
    "tags": {
      "alt_name": "Coiffure Rita",
      "contact:addr": "Elisabethenstrasse 15, 3014 Bern",
      "contact:phone": "+41 31 3322204",
      "name": "Rita",
      "operator": "Rita Jost",
      "shop": "hairdresser",
      "source": "survey"
    },
    "distance_to_station": 524.9617568232655
  },
  {
    "feature_type": "shops",
    "lat": 46.9612503,
    "lon": 7.449844,
    "tags": {
      "alt_name": "Farben Bosshard Verkufsstelle Bern",
      "contact:addr": "Standstrasse 15, 3014 Bern",
      "contact:email": "bern@bosshard-farben.ch",
      "contact:fax": "+41 31 3313919",
      "contact:phone": "+41 31 3315052",
      "name": "Farben Bosshard",
      "opening_hours": "Mo-Th 07:00-12:00, 13:00-17:00; Fr 07:00-12:00; 13:00-16:00; Sa-Su off; PH off",
      "operator": "Bosshard + Co. AG",
      "shop": "doityourself",
      "source": "survey and website",
      "website": "https://www.bosshard-farben.ch/Beratung/Bern/Bern"
    },
    "distance_to_station": 241.82159701794333
  },
  {
    "feature_type": "shops",
    "lat": 46.9623898,
    "lon": 7.4521308,
    "tags": {
      "addr:city": "Bern",
      "addr:housenumber": "43",
      "addr:postcode": "3014",
      "addr:street": "Scheibenstrasse",
      "alt_name": "Mr. Feelgood Bern",
      "check_date:opening_hours": "2025-01-02",
      "contact:addr:full": "Scheibenstrasse 43, 3014 Bern",
      "contact:email": "bern@mr-feelgood.ch",
      "contact:facebook": "https://www.facebook.com/pages/MrFeelgood-Bern/360487920674581",
      "contact:phone": "+41 31 332 13 00",
      "name": "Mr. Feelgood",
      "opening_hours": "Tu-Fr 09:00-12:00, 13:30-18:30; Sa 09:00-16:00; PH off",
      "operator": "Christophe Hafner",
      "service:bicycle:pump": "yes",
      "service:bicycle:repair": "yes",
      "service:bicycle:retail": "yes",
      "service:bicycle:sales": "yes",
      "shop": "bicycle",
      "website": "https://mr-feelgood.ch/ueber-uns/bern/"
    },
    "distance_to_station": 432.81945855353024
  },
  {
    "feature_type": "shops",
    "lat": 46.96197,
    "lon": 7.4525255,
    "tags": {
      "check_date:opening_hours": "2025-01-02",
      "female": "yes",
      "male": "yes",
      "name": "Coiffure Florence",
      "opening_hours:signed": "no",
      "shop": "hairdresser"
    },
    "distance_to_station": 451.85425667445804
  },
  {
    "feature_type": "shops",
    "lat": 46.9600592,
    "lon": 7.4588986,
    "tags": {
      "check_date": "2024-11-18",
      "check_date:opening_hours": "2024-04-17",
      "diet:vegan": "yes",
      "email": "bakerybakery@outlawzfood.ch",
      "name": "BakeryBakery",
      "opening_hours": "Mo-Fr 07:00-17:00; Sa 08:00-17:00; Su 08:00-15:00",
      "operator": "Outlawz Food",
      "phone": "+41 31 348 96 55",
      "shop": "bakery",
      "website": "https://www.bakerybakery.ch/"
    },
    "distance_to_station": 941.1986964615428
  },
  {
    "feature_type": "shops",
    "lat": 46.9610532,
    "lon": 7.4548527,
    "tags": {
      "alt_name": "Coiffure Haarscharf",
      "contact:addr": "Stauffacherstrasse 16, 3014 Bern",
      "contact:phone": "+41 31 3311115",
      "name": "haarscharf",
      "operator": "Jutta Tretow",
      "shop": "hairdresser",
      "source": "survey"
    },
    "distance_to_station": 623.5985429849982
  },
  {
    "feature_type": "shops",
    "lat": 46.96138,
    "lon": 7.4548574,
    "tags": {
      "beauty": "hair_removal",
      "email": "mariacosmeticbern@outlook.com",
      "hairdresser": "cosmetics",
      "name": "Maria Cosmetic",
      "opening_hours": "Mo 13:00-18:00; Tu-Fr 09:00-18:30; Sa 09:00-15:00",
      "phone": "+41 31 331 73 76",
      "shop": "beauty",
      "website": "https://www.maria-cosmetic.ch/"
    },
    "distance_to_station": 623.3607912259849
  },
  {
    "feature_type": "shops",
    "lat": 46.9619859,
    "lon": 7.4544789,
    "tags": {
      "contact:addr": "Stauffacherstrasse 35, 3014 Bern",
      "contact:email": "lecoiffeur-bern@gmx.ch",
      "contact:facebook": "https://www.facebook.com/lecoiffeurbern",
      "contact:instagram": "https://www.instagram.com/lecoiffeurbern",
      "contact:phone": "+41 31 3331321",
      "female": "yes",
      "male": "yes",
      "name": "Le Coiffeur",
      "opening_hours": "Tu-Fr 08:00-12:30,13:30-18:30; Sa 09:00-15:00",
      "operator": "St\u00e9phane Bonnerue",
      "shop": "hairdresser",
      "start_date": "Januar 2017",
      "website": "https://www.lecoiffeur-bern.ch"
    },
    "distance_to_station": 599.2532294759925
  },
  {
    "feature_type": "shops",
    "lat": 46.9613707,
    "lon": 7.4486869,
    "tags": {
      "addr:city": "Bern",
      "addr:housenumber": "7",
      "addr:postcode": "3014",
      "addr:street": "Wylerfeldstrasse",
      "contact:facebook": "https://www.facebook.com/Velocitt%C3%A0-141764099503411/",
      "contact:instagram": "https://www.instagram.com/velocitta_bern/",
      "email": "info@velocitta.ch",
      "name": "Velocitt\u00e0",
      "opening_hours": "Tu-Fr 07:30-12:30,14:00-18:00; Sa 08:00-14:00",
      "phone": "+41 31 331 94 24",
      "service:bicycle:pump": "no",
      "service:bicycle:repair": "yes",
      "service:bicycle:retail": "yes",
      "shop": "bicycle",
      "website": "https://www.velocitta.ch/"
    },
    "distance_to_station": 153.82479029221932
  },
  {
    "feature_type": "shops",
    "lat": 46.962429,
    "lon": 7.4514511,
    "tags": {
      "clothes": "workwear",
      "contact:addr": "Standstrasse 32, 3014 Bern",
      "contact:email": "info@spilag.ch",
      "contact:fax": "+41 31 3326484",
      "contact:phone": "+41 31 3326494",
      "name": "Spilag Berufskleidung",
      "opening_hours": "Mo-Fr 08:30-12:30, 13:30-18:00; Sa 09:00-16:00; Su off",
      "operator": "Spilag AG",
      "shop": "clothes",
      "website": "https://www.spilag.ch/spilag_verkaufsfilialen/bern.php"
    },
    "distance_to_station": 384.78210835179453
  },
  {
    "feature_type": "shops",
    "lat": 46.9627305,
    "lon": 7.4517993,
    "tags": {
      "alt_name": "Coiffure Silvia",
      "contact:addr": "Scheibenstrasse 45, 3014 Bern",
      "contact:phone": "+41 31 3321815",
      "female": "yes",
      "male": "yes",
      "name": "Silvia",
      "shop": "hairdresser"
    },
    "distance_to_station": 421.3437300136569
  },
  {
    "feature_type": "shops",
    "lat": 46.9628776,
    "lon": 7.4526798,
    "tags": {
      "addr:city": "Bern",
      "addr:housenumber": "42",
      "addr:postcode": "3014",
      "addr:street": "Standstrasse",
      "branch": "Coop Pronto Bern Standstrasse",
      "brand": "Coop Pronto",
      "brand:wikidata": "Q1129777",
      "brand:wikipedia": "de:Coop Mineraloel",
      "cash_withdrawal": "postfinance_card",
      "cash_withdrawal:fee": "no",
      "cash_withdrawal:purchase_required": "no",
      "cash_withdrawal:type": "checkout",
      "name": "Coop Pronto",
      "opening_hours": "Mo-Su,PH 06:00-22:00",
      "shop": "convenience"
    },
    "distance_to_station": 489.6989246660012
  },
  {
    "feature_type": "shops",
    "lat": 46.9636143,
    "lon": 7.4555071,
    "tags": {
      "addr:city": "Bern",
      "addr:housenumber": "56",
      "addr:postcode": "3014",
      "addr:street": "Winkelriedstrasse",
      "contact:addr": "Winkelriedstrasse 56, 3014 Bern",
      "contact:phone": "+41 31 331 57 33",
      "email": "info@haarlokau.ch",
      "name": "Haarlokau",
      "opening_hours": "Tu-Fr 09:00-18:00; Sa 09:-15:00",
      "shop": "hairdresser",
      "source": "survey",
      "website": "https://www.haarlokau.ch"
    },
    "distance_to_station": 719.9381580571774
  },
  {
    "feature_type": "shops",
    "lat": 46.9549531,
    "lon": 7.4455806,
    "tags": {
      "check_date": "2023-04-28",
      "contact:addr": "Lorrainestrasse 2a, 3013 Bern",
      "contact:email": "info@casalusitania.ch",
      "contact:fax": "+41 31 3323405",
      "contact:phone": "+41 31 3311280",
      "name": "Casa Luisitania",
      "opening_hours": "Mo 14:00-18:30; Tu,Th-Fr 09:00-12:30,14:00-18:30; Sa 08:30-16:00",
      "operator": "Casa Lusitania Bern GmbH",
      "shop": "convenience",
      "source": "survey and website",
      "website": "https://www.casalusitania.ch/",
      "wheelchair": "limited"
    },
    "distance_to_station": 711.3274505057626
  },
  {
    "feature_type": "shops",
    "lat": 46.9550397,
    "lon": 7.4454937,
    "tags": {
      "contact:addr": "Lorrainestrasse 4, 3013 Bern",
      "name": "Rrrevolve",
      "opening_hours": "Mo-Fr 10:00-12:30, 14:00-18:30; Sa 10:00-16:00",
      "phone": "+41 31 331 46 51",
      "shop": "clothes",
      "tagline": "Fair Fashion & Eco Design",
      "website": "https://rrrevolve.ch/",
      "wheelchair": "limited"
    },
    "distance_to_station": 702.577150145684
  },
  {
    "feature_type": "shops",
    "lat": 46.9555828,
    "lon": 7.4453864,
    "tags": {
      "check_date:opening_hours": "2024-08-13",
      "contact:addr": "Lorrainestrasse 10, 3013 Bern",
      "contact:email": "sinwel@sinwel.ch",
      "contact:phone": "+41 31 3325205",
      "name": "Sinwel",
      "opening_hours": "Mo-Fr 09:00-18:30; Sa 09:00-16:00; Su off; PH off",
      "operator": "Sinwel Buchhandlung und Verlag Daniel Stehelin (Einzelunternehmen)",
      "post_office": "post_partner",
      "shop": "books",
      "website": "https://www.sinwel.ch",
      "wheelchair": "yes"
    },
    "distance_to_station": 643.9235289008784
  },
  {
    "feature_type": "shops",
    "lat": 46.9566433,
    "lon": 7.4468168,
    "tags": {
      "alt_name": "Coiffure Colette",
      "contact:addr": "Lagerweg 1, 3013 Bern",
      "contact:phone": "+41 31 3332391",
      "name": "Colette",
      "operator": "Colette L\u00e4sser",
      "shop": "hairdresser"
    },
    "distance_to_station": 518.7209505383166
  },
  {
    "feature_type": "shops",
    "lat": 46.9569086,
    "lon": 7.4446631,
    "tags": {
      "alt_name": "Lederatelier l'apostrophe",
      "contact:addr": "Lorrainestrasse 19, 3013 Bern",
      "contact:email": "lapostroph@gmx.ch",
      "contact:mobile": "+41 79 5747800",
      "contact:phone": "+41 313330024",
      "craft": "saddler",
      "name": "L'apostrophe",
      "opening_hours": "Mo off; Tu 13:30-18:00; We-Fr 09:00-12:00, 13:30-18:00; Sa 12:00-17:00; Su off",
      "operator": "Marilyne L'Eplattenier",
      "shop": "leather",
      "source": "survey and website",
      "website": "https://www.lederatelier-lapostrophe.ch/"
    },
    "distance_to_station": 512.3545517929814
  },
  {
    "feature_type": "shops",
    "lat": 46.9572365,
    "lon": 7.4438269,
    "tags": {
      "contact:addr": "Jurastrasse 9, 3031 Bern",
      "contact:phone": "+41 31 3331933",
      "name": "Coiffeur Peter",
      "operator": "Peter Mosimann",
      "shop": "hairdresser"
    },
    "distance_to_station": 501.6496836365392
  },
  {
    "feature_type": "shops",
    "lat": 46.9571334,
    "lon": 7.4437528,
    "tags": {
      "alt_name": "Garage Chr. B\u00e4rtschi",
      "contact:addr": "Jurastrasse 9, 3031 Bern",
      "contact:phone": "+41 31 3324477",
      "name": "Garage B\u00e4rtschi",
      "operator": "B\u00e4rtschi Chr. & Co.",
      "shop": "car_repair"
    },
    "distance_to_station": 514.4230812557593
  },
  {
    "feature_type": "shops",
    "lat": 46.9572353,
    "lon": 7.4446062,
    "tags": {
      "alt_name": "Lorraine Laden",
      "check_date:opening_hours": "2023-06-21",
      "contact:city": "Bern",
      "contact:email": "lola.bern@contactmail.ch",
      "contact:housenumber": "23",
      "contact:phone": "+41 31 332 00 22",
      "contact:postcode": "3013",
      "contact:street": "Lorrainestrasse",
      "contact:website": "https://lola.ch/",
      "diet:vegetarian": "yes",
      "name": "LOLA",
      "opening_hours": "Mo-Th 08:00-12:30,15:00-19:00; Fr 08:00-19:00; Sa 08:00-16:00",
      "operator": "CONTACT, Stiftung f\u00fcr Suchthilfe",
      "organic": "only",
      "payment:american_express": "yes",
      "payment:maestro": "yes",
      "payment:mastercard": "yes",
      "payment:visa": "yes",
      "post_office": "post_partner",
      "post_office:service_provider": "Die Post",
      "shop": "convenience",
      "wheelchair": "yes"
    },
    "distance_to_station": 479.20648822085917
  },
  {
    "feature_type": "shops",
    "lat": 46.9580228,
    "lon": 7.4444536,
    "tags": {
      "addr:city": "Bern",
      "addr:country": "CH",
      "addr:housenumber": "3",
      "addr:postcode": "3013",
      "addr:street": "Schmiedweg",
      "brand": "Denner",
      "check_date:opening_hours": "2023-02-06",
      "contact:phone": "+41 31 3325664",
      "name": "Denner",
      "opening_hours": "Mo-Fr 08:00-19:00; Sa 08:00-17:00; Su off",
      "shop": "convenience",
      "wheelchair": "yes"
    },
    "distance_to_station": 402.2483744281264
  },
  {
    "feature_type": "shops",
    "lat": 46.9570536,
    "lon": 7.4446366,
    "tags": {
      "check_date": "2023-04-28",
      "contact:addr": "Lorrainestrasse 21, 3013 Bern",
      "contact:email": "info@schnittpunkt-bern.ch",
      "contact:phone": "+41 31 3310628",
      "description": "de:Haar- und Stoffschneiderei",
      "name": "Schnittpunkt",
      "opening_hours": "Mo off; Th-Fr 08:00-18:00; Sa-Su off",
      "shop": "hairdresser",
      "source": "survey and website",
      "website": "https://www.schnittpunkt-bern.ch/"
    },
    "distance_to_station": 497.6125397166608
  },
  {
    "feature_type": "shops",
    "lat": 46.9570681,
    "lon": 7.4449825,
    "tags": {
      "name": "Schuh Discount",
      "shop": "shoes"
    },
    "distance_to_station": 488.51614923927923
  },
  {
    "feature_type": "shops",
    "lat": 46.9578266,
    "lon": 7.4445873,
    "tags": {
      "contact:email": "mailto:falafingo@gmail.com",
      "contact:phone": "+41 77 468 94 34",
      "name": "falafingo",
      "opening_hours": "Mo-Th 08:00-20:00; Sa-Su 09:00-20:00",
      "operator": "Emrah T\u00fcys\u00fcz",
      "shop": "kiosk",
      "website": "https://www.falafingo.ch",
      "wheelchair": "yes"
    },
    "distance_to_station": 418.1934762943275
  },
  {
    "feature_type": "shops",
    "lat": 46.9554708,
    "lon": 7.4382641,
    "tags": {
      "contact:addr": "Fischerweg 20, 3012 Bern",
      "contact:phone": "+41 799041770",
      "name": "The Corner Shop",
      "note": "Shop address:  Bierh\u00fcbeliweg 25, 3012 Bern",
      "shop": "hairdresser",
      "website": "https://the-corner-shop.ch/"
    },
    "distance_to_station": 911.2010305449346
  },
  {
    "feature_type": "shops",
    "lat": 46.9550697,
    "lon": 7.4456067,
    "tags": {
      "addr:floor": "2",
      "contact:addr": "Lorrainestrasse 4, 3013 Bern",
      "contact:email": "info@divaobscura.com",
      "contact:facebook": "https://www.facebook.com/DivaObscura",
      "contact:mobile": "+41 78 8880678",
      "name": "Diva Obscura",
      "shop": "hairdresser",
      "source": "survey and website",
      "website": "https://www.divaobscura.com/"
    },
    "distance_to_station": 698.2220740663953
  },
  {
    "feature_type": "shops",
    "lat": 46.9572843,
    "lon": 7.4375458,
    "tags": {
      "addr:city": "Bern",
      "addr:housenumber": "72",
      "addr:postcode": "3012",
      "addr:street": "Neubr\u00fcckstrasse",
      "check_date": "2025-06-10",
      "contact:addr": "Neubr\u00fcckstrasse 72, 3012 Bern",
      "contact:email": "info@diespeiche.ch",
      "contact:phone": "+41 31 3013855",
      "name": "Die Speiche",
      "opening_hours": "Mo 13:00-18:30; Tu-Fr 09:00-12:00,13:00-18:30; Mar-Oct Sa 09:00-16:00",
      "operator": "Stefan Czaja",
      "shop": "bicycle",
      "source": "survey and website",
      "website": "https://www.diespeiche.ch/"
    },
    "distance_to_station": 825.9460160055071
  },
  {
    "feature_type": "shops",
    "lat": 46.956866,
    "lon": 7.4359982,
    "tags": {
      "addr:city": "Bern",
      "addr:country": "CH",
      "addr:housenumber": "37",
      "addr:postcode": "3012",
      "addr:street": "Berchtoldstrasse",
      "contact:email": "info@rolfgerber.ch",
      "contact:fax": "+41 31 3027462",
      "contact:phone": "+41 31 3077676",
      "craft": "electrician",
      "name": "Rolf Gerber Elektro",
      "operator": "Rolf Gerber AG",
      "shop": "electronics",
      "source": "survey and website",
      "website": "https://www.rolfgerber.ch/"
    },
    "distance_to_station": 950.4770115731025
  },
  {
    "feature_type": "shops",
    "lat": 46.9577466,
    "lon": 7.4371692,
    "tags": {
      "alt_name": "Schuhmacherei B\u00fchler",
      "check_date": "2024-12-10",
      "contact:addr": "Neubr\u00fcckstrasse 82, 3012 Bern",
      "contact:phone": "+41 31 3019100",
      "name": "Schuh-Service",
      "opening_hours": "Tu-Fr 08:00-12:15,13:30-18:00",
      "operator": "Christina B\u00fchler",
      "shop": "shoes",
      "website": "https://www.schuhwerkstatt.ch"
    },
    "distance_to_station": 824.2990468366465
  },
  {
    "feature_type": "shops",
    "lat": 46.958442,
    "lon": 7.4533843,
    "tags": {
      "contact:addr:full": "Breitenrainstrasse 10, 3013 Bern",
      "contact:phone": "+41 31 3317993",
      "female": "yes",
      "male": "yes",
      "name": "Hair seven ty seven",
      "opening_hours": "Tu-Fr 08:00-18:00; Sa 08:00-14:00",
      "shop": "hairdresser",
      "source": "survey",
      "website": "https://www.seven-ty-seven.ch/"
    },
    "distance_to_station": 602.3777991500235
  },
  {
    "feature_type": "shops",
    "lat": 46.960985,
    "lon": 7.454907,
    "tags": {
      "contact:addr:full": "Stauffacherstrasse 16, 3014 Bern",
      "contact:email": "info@shiatsuatelier-bern.ch",
      "contact:phone": "+41 76 3763637",
      "healthcare": "alternative",
      "massage": "shiatsu",
      "name": "Shiatsu-Atelier",
      "opening_hours:signed": "no",
      "operator": "Erich Zbinden",
      "shop": "massage",
      "source": "website and survey",
      "website": "https://www.shiatsuatelier-bern.ch/"
    },
    "distance_to_station": 628.1155911108062
  },
  {
    "feature_type": "shops",
    "lat": 46.9589094,
    "lon": 7.4471619,
    "tags": {
      "addr:full": "Nordring 27a, 3013 Bern",
      "name": "Das kleine Br\u00f6ckli",
      "opening_hours": "Mo-We off; Th 13:30-18:30; Fr 10:00-12:00; 13:30-18:30; Sa 09:00-16:00; Su off",
      "shop": "second_hand"
    },
    "distance_to_station": 269.31236970708994
  },
  {
    "feature_type": "shops",
    "lat": 46.9583403,
    "lon": 7.4465424,
    "tags": {
      "addr:city": "Bern",
      "addr:housenumber": "1",
      "addr:postcode": "3013",
      "addr:street": "Quartierhof",
      "check_date:opening_hours": "2025-03-17",
      "email": "q@lorraine.ch",
      "name": "Q-Laden",
      "opening_hours": "Mo-Fr 07:30-12:00, 15:00-19:00; Sa 07:30-16:00; Su 08:00-13:00",
      "operator": "Verein Die Q",
      "organic": "only",
      "payment:cash": "yes",
      "payment:coins": "yes",
      "phone": "+41 31 331 66 67",
      "shop": "convenience",
      "website": "https://www.q-laden.ch/"
    },
    "distance_to_station": 330.0798587595037
  },
  {
    "feature_type": "shops",
    "lat": 46.9563625,
    "lon": 7.4537375,
    "tags": {
      "addr:city": "Bern",
      "addr:country": "CH",
      "addr:housenumber": "21",
      "addr:postcode": "3013",
      "addr:street": "Beundenfeldstrasse",
      "brand": "Bernina",
      "contact:email": "mail@berninabern.ch",
      "contact:phone": "+41 31 3316555",
      "name": "Bernina-Kundendienst Pulfer",
      "opening_hours": "Mo-Fr 08:00-11:45,13:30-18:00; Sa 09:00-11:45",
      "operator": "Pulfer Bernina N\u00e4hcenter AG",
      "sewing": "sewing_machines",
      "shop": "sewing",
      "source": "survey and website",
      "website": "https://www.berninabern.ch/die-firma/kundendienst",
      "wheelchair": "no"
    },
    "distance_to_station": 769.3145344516655
  },
  {
    "feature_type": "shops",
    "lat": 46.9560884,
    "lon": 7.451677,
    "tags": {
      "check_date": "2025-07-16",
      "contact:addr": "Moserstrasse 11, 3014 Bern",
      "contact:email": "info@laluna.ch",
      "contact:fax": "+41 31 3113137",
      "contact:phone": "+41 31 3113113",
      "name": "La Luna",
      "opening_hours": "Mo off; Tu-Fr 10:00-18:30; Sa 10:00-16:00; Su off",
      "operator": "La Luna GmbH",
      "organic": "yes",
      "shop": "furniture",
      "source": "survey",
      "website": "https://www.laluna.ch/"
    },
    "distance_to_station": 694.3302761491822
  },
  {
    "feature_type": "shops",
    "lat": 46.9579746,
    "lon": 7.4559025,
    "tags": {
      "name": "Olga-O",
      "opening_hours": "Mo-Fr 15:00-19:00; Sa 10:00-17:00",
      "shop": "second_hand",
      "source": "website"
    },
    "distance_to_station": 794.5914747711676
  },
  {
    "feature_type": "shops",
    "lat": 46.960479,
    "lon": 7.4543675,
    "tags": {
      "contact:addr": "Scheibenstrasse 16, 3014 Bern",
      "contact:phone": "+41 31 3328877",
      "name": "Hairvorragend",
      "opening_hours": "Mo off; Tu-Fr 08:00-18:00; Sa 07:30-14:00; Su off",
      "operator": "HAIRVORRAGEND by Marlene GmbH",
      "shop": "hairdresser",
      "source": "website and survey",
      "website": "https://www.hairvorragend.ch/"
    },
    "distance_to_station": 593.2337397234119
  },
  {
    "feature_type": "shops",
    "lat": 46.9555614,
    "lon": 7.4518678,
    "tags": {
      "check_date": "2025-07-18",
      "name": "Hauptsitz",
      "phone": "+41 31 333 40 00",
      "shop": "hairdresser",
      "website": "https://www.hauptsitz.be/",
      "wheelchair": "no"
    },
    "distance_to_station": 751.5365701681884
  },
  {
    "feature_type": "shops",
    "lat": 46.9570701,
    "lon": 7.4523871,
    "tags": {
      "check_date": "2025-08-06",
      "contact:addr": "Moserstrasse 23, 3014 Bern",
      "contact:email": "info@haudejacobian.ch",
      "contact:phone": "+41 31 3330633",
      "name": "haudejacobian - brillen linsen optometrie",
      "opening_hours": "Mo,Su off; Tu-Fr 09:00-13:00,14:00-18:30; Sa 09:00-16:00",
      "operator": "Haude Jacobian AG",
      "shop": "optician",
      "source": "website and survey",
      "website": "https://www.haudejacobian.ch/"
    },
    "distance_to_station": 641.4650374623659
  },
  {
    "feature_type": "shops",
    "lat": 46.9647735,
    "lon": 7.4567435,
    "tags": {
      "alt_name": "PLANETSPADE SHOP",
      "contact:addr": "Wankdorffeldstrasse 96, 3014",
      "contact:email": "info@planetspade.ch",
      "contact:facebook": "https://www.facebook.com/pages/Planetspade/1457832357830435?sk",
      "contact:phone": "+41 79 3451820",
      "level": "1",
      "name": "Planetspade",
      "opening_hours": "Mo-We off; Th 18:00-21:00; Fr off; Sa 10:00-16:00; Su off",
      "operator": "Reezon GmbH",
      "shop": "clothes",
      "website": "https://www.planetspade.ch/"
    },
    "distance_to_station": 858.1659672557091
  },
  {
    "feature_type": "shops",
    "lat": 46.9565463,
    "lon": 7.4447744,
    "tags": {
      "addr:city": "Bern",
      "addr:country": "CH",
      "addr:housenumber": "15",
      "addr:postcode": "3013",
      "addr:street": "Lorrainestrasse",
      "alt_name": "Akkara Asian Supermarket",
      "check_date": "2023-04-28",
      "contact:facebook": "https://www.facebook.com/AkkaraAsianSupermarket",
      "contact:phone": "+41 31 3322817",
      "name": "Akkara",
      "opening_hours": "Mo-Fr 10:00-19:00; Sa 10:00-17:00; Su 10:00-18:00",
      "shop": "convenience"
    },
    "distance_to_station": 548.6484201876218
  },
  {
    "feature_type": "shops",
    "lat": 46.9600466,
    "lon": 7.4475066,
    "tags": {
      "addr:city": "Bern",
      "addr:country": "CH",
      "addr:housenumber": "48",
      "addr:postcode": "3013",
      "addr:street": "Pappelweg",
      "contact:phone": "+41 31 311 03 00",
      "name": "Sisters of scissors S.O.S",
      "shop": "hairdresser",
      "website": "https://sistersofscissors.com"
    },
    "distance_to_station": 154.0959796644981
  },
  {
    "feature_type": "shops",
    "lat": 46.9582869,
    "lon": 7.4565484,
    "tags": {
      "contact:addr:full": "Milit\u00e4rstrasse 39, 3014 Bern",
      "contact:phone": "+41 79 3915519",
      "name": "Lifestyle Cosmetics",
      "shop": "cosmetics",
      "source": "survey and website",
      "website": "http://www.lifestyle-cosmetics.ch"
    },
    "distance_to_station": 823.6324420404618
  },
  {
    "feature_type": "shops",
    "lat": 46.9573289,
    "lon": 7.4369172,
    "tags": {
      "addr:city": "Bern",
      "addr:housenumber": "71",
      "addr:postcode": "3012",
      "addr:street": "Neubr\u00fcckstrasse",
      "alt_name": "B\u00e4ckerei Konditorei Sterchi",
      "check_date:opening_hours": "2025-05-06",
      "email": "info@sterchi-beck.ch",
      "name": "Sterchi",
      "opening_hours": "Mo-Fr 06:00-18:30; Sa 07:00-13:00; Su 07:30-12:30",
      "operator": "B\u00e4ckerei Konditorei Sterchi AG",
      "phone": "+41 31 302 20 77",
      "shop": "bakery",
      "website": "https://www.sterchi-beck.ch"
    },
    "distance_to_station": 864.004330548445
  },
  {
    "feature_type": "shops",
    "lat": 46.9588812,
    "lon": 7.4559115,
    "tags": {
      "contact:addr": "Milit\u00e4rstrasse 56, 3014 Bern",
      "contact:email": "elektro.haldemann@bluewin.ch",
      "contact:fax": "+41 31 3311755",
      "contact:phone": "+41 31 3319805",
      "craft": "electrician",
      "name": "Haldemann Elektro",
      "operator": "Haldemann Elektro GmbH",
      "shop": "electronics",
      "source": "survey and website",
      "website": "https://www.haldemannelektro.ch/"
    },
    "distance_to_station": 753.5159079658533
  },
  {
    "feature_type": "shops",
    "lat": 46.9562944,
    "lon": 7.4448576,
    "tags": {
      "alt_name": "Coiffure H\u00e4nsel & Gretel",
      "check_date": "2023-04-28",
      "contact:addr": "Lorrainestrasse 13, 3013 Bern",
      "contact:facebook": "https://www.facebook.com/coiffurehaenselundgretelbern",
      "contact:phone": "+41 31 3311188",
      "name": "H\u00e4nsel & Gretel",
      "opening_hours": "Tu,Th-Fr 09:00-18:30; We 09:00-20:00; Sa 08:30-15:00",
      "operator": "Andrea Heinrich",
      "shop": "hairdresser",
      "source": "survey and website",
      "website": "https://www.coiffurehaenselundgretel.ch/"
    },
    "distance_to_station": 574.1631948612331
  },
  {
    "feature_type": "shops",
    "lat": 46.9571831,
    "lon": 7.4370431,
    "tags": {
      "check_date:opening_hours": "2021-09-22",
      "contact:addr": "Neubr\u00fcckstrasse 65, 3012 Bern",
      "contact:email": "info@lamarra.ch",
      "contact:phone": "+41 31 3018747",
      "craft": "pastamaker",
      "name": "La Marra",
      "opening_hours": "Mo-Fr 08:30-18:30",
      "operator": "La Marra GmbH",
      "shop": "deli",
      "source": "survey and website",
      "website": "http://www.lamarra.ch"
    },
    "distance_to_station": 864.2779126360297
  },
  {
    "feature_type": "shops",
    "lat": 46.9654593,
    "lon": 7.4581924,
    "tags": {
      "alt_name": "Migrol Auto Service Wankdorf",
      "branch": "Bern Wankdorf MParc",
      "name": "Migrol Auto Service",
      "opening_hours": "Mo-Fr 07:30-18:30; Sa 07:30-16:00; Jun-Sep, Jan-Mar Sa 07:30-13:00",
      "operator": "Migrol",
      "shop": "car_repair",
      "website": "https://www.migrol.ch/de/mobilit\u00e4t/auto-service/"
    },
    "distance_to_station": 991.0989570042985
  },
  {
    "feature_type": "shops",
    "lat": 46.9613375,
    "lon": 7.4565169,
    "tags": {
      "contact:addr": "Melchtalstrasse 17, 3014 Bern",
      "contact:facebook": "https://www.facebook.com/praxis4",
      "contact:mobile": "+41 79 3019232",
      "contact:mobile_1": "+41 79 7348478",
      "name": "PRAXIS4",
      "shop": "massage",
      "source": "Survey and website",
      "website": "https://www.praxis4.ch"
    },
    "distance_to_station": 749.6229896473465
  },
  {
    "feature_type": "shops",
    "lat": 46.9542467,
    "lon": 7.44255,
    "tags": {
      "contact:addr": "Uferweg 42, 3013 Bern",
      "contact:email": "info@atelierlorraine.ch",
      "contact:fax": "+41 31 3330660",
      "contact:phone": "+41 31 3330640",
      "name": "Atelier Lorraine Gmbh",
      "shop": "hardware",
      "website": "https://www.atelierlorraine.ch/"
    },
    "distance_to_station": 845.2873295496205
  },
  {
    "feature_type": "shops",
    "lat": 46.9611612,
    "lon": 7.4531347,
    "tags": {
      "brand": "Alnatura",
      "brand:wikidata": "Q876811",
      "cash_withdrawal": "postfinance_card",
      "cash_withdrawal:fee": "no",
      "cash_withdrawal:purchase_required": "no",
      "cash_withdrawal:type": "checkout",
      "contact:addr": "Scheibenstrasse 27, 3014 Bern",
      "name": "Alnatura Super Natur Markt",
      "opening_hours": "Mo-Th 08:00-19:00; Fr 08:00-20:00; Sa 08:00-17:00",
      "operator": "Migros",
      "organic": "only",
      "shop": "supermarket",
      "short_name": "Alnatura",
      "wheelchair": "yes"
    },
    "distance_to_station": 492.4657741071213
  },
  {
    "feature_type": "shops",
    "lat": 46.9567508,
    "lon": 7.4374557,
    "tags": {
      "name": "Aria Teppich Galerie",
      "shop": "carpet"
    },
    "distance_to_station": 865.067497936254
  },
  {
    "feature_type": "shops",
    "lat": 46.9595939,
    "lon": 7.4580211,
    "tags": {
      "addr:city": "Bern",
      "addr:country": "CH",
      "addr:housenumber": "86",
      "addr:postcode": "3014",
      "addr:street": "Rodtmattstrasse",
      "contact:facebook": "https://www.facebook.com/emovemotorstore",
      "contact:instagram": "https://www.instagram.com/emovemotorstore/",
      "contact:website": "https://emovemotors.ch/kontakt/",
      "email": "bern@emovemotors.ch",
      "name": "Emovemotors",
      "opening_hours": "Tu-Fr 09:30-18:00; Sa 09:30-15:30; Mo 13:00-18:00; Su off",
      "operator": "Emovemotorstore GmbH",
      "phone": "+41 31 333 07 75",
      "shop": "motorcycle",
      "source": "website;survey",
      "website": "https://emovemotors.ch/"
    },
    "distance_to_station": 884.8822568446154
  },
  {
    "feature_type": "shops",
    "lat": 46.9599953,
    "lon": 7.4460275,
    "tags": {
      "addr:city": "Bern",
      "addr:housenumber": "1",
      "addr:postcode": "3014",
      "addr:street": "Talweg",
      "female": "yes",
      "male": "yes",
      "name": "Zum Goldenen Kamm",
      "shop": "hairdresser"
    },
    "distance_to_station": 153.87885112118775
  },
  {
    "feature_type": "shops",
    "lat": 46.9567393,
    "lon": 7.4462057,
    "tags": {
      "clothes": "women;men",
      "contact:addr": "Lagerweg 8, 3013 Bern",
      "contact:email": "kontakt@etris.ch",
      "contact:phone": "+41 79 3432883",
      "name": "etris Studio",
      "opening_hours": "Mo off; Tu 10:00-18:00; We off; Th 10:00-18:00; Fr off; Sa[-1] 12:00-17:00; PH off || closed \"Nach Vereinbarung jederzeit offen\"",
      "operator": "Fairkleid GmbH",
      "shop": "clothes",
      "website": "https://www.etris.ch"
    },
    "distance_to_station": 509.14166701339957
  },
  {
    "feature_type": "shops",
    "lat": 46.9587618,
    "lon": 7.4543511,
    "tags": {
      "contact:addr:full": "Breitenrainplatz 38, 3014 Bern",
      "contact:email": "info@laboulotte.ch",
      "contact:facebook": "https://www.facebook.com/metzgereilaboulotte",
      "contact:phone": "+41 31 5253014",
      "name": "La Boulotte",
      "note": "Bis 2017 Metzgerei Schori",
      "old_name": "Metzgerei Schori",
      "opening_hours": "Mo off; Sa 08:00-16:00; Su off; Tu-Fr 10:00-14:00,15:30-18:30",
      "operator": "La Boulotte AG",
      "shop": "butcher",
      "website": "https://www.laboulotte.ch"
    },
    "distance_to_station": 649.7033553091907
  },
  {
    "feature_type": "shops",
    "lat": 46.9611765,
    "lon": 7.447717,
    "tags": {
      "alt_name": "Salon Coiffeur Angelo",
      "contact:addr": "Wylerstrasse 95, 3014 Bern",
      "contact:phone": "+41 31 3313881",
      "name": "Angelo",
      "opening_hours": "Tu-Fr 08:00-18:00; Sa 08:00-13:00",
      "operator": "Angelo Molinara",
      "shop": "hairdresser",
      "wheelchair": "no"
    },
    "distance_to_station": 81.17924301346991
  },
  {
    "feature_type": "shops",
    "lat": 46.9564826,
    "lon": 7.4467912,
    "tags": {
      "alt_name": "B\u00e4ckerei Bohnenblust Filiale Lorraine",
      "check_date": "2025-01-22",
      "contact:addr": "Schulweg 2, 3013 Bern",
      "contact:email": "hallo@chnebubrot.ch",
      "contact:phone": "+41 31 3330800",
      "name": "Bohnenblust",
      "opening_hours": "Mo-Fr 06:30-18:30; Sa 06:30-14:00; Su off; PH off",
      "operator": "B\u00e4ckerei Bohnenblust AG",
      "shop": "bakery",
      "website": "https://www.baeckerei-bohnenblust.ch"
    },
    "distance_to_station": 536.5442270969895
  },
  {
    "feature_type": "shops",
    "lat": 46.9588029,
    "lon": 7.4528711,
    "tags": {
      "contact:addr:full": "Stockerenweg 15, 3014 Bern",
      "contact:email": "info@werbetechnik.ch",
      "contact:phone": "+41 31 372 33 30",
      "name": "Werbetechnik Siegenthaler",
      "office": "advertising_agency",
      "opening_hours": "Mo-Fr 07:30-12:00,13:00-17:00",
      "operator": "Werbetechnik Siegenthaler AG",
      "shop": "print_shop",
      "website": "https://www.werbetechnik.ch/"
    },
    "distance_to_station": 548.1682038790448
  },
  {
    "feature_type": "shops",
    "lat": 46.9614531,
    "lon": 7.455815,
    "tags": {
      "alt_name": "Hanz Spirituosen",
      "contact:addr": "Melchtalstrasse 21, 3014 Bern",
      "contact:email": "info@hanz.ch",
      "contact:facebook": "http://www.facebook.com/hanz-vodka",
      "contact:instagram": "https://www.instagram.com/hanzvodka",
      "contact:phone": "+41 31 3323332",
      "name": "Hanz",
      "shop": "alcohol",
      "source": "Survey and website",
      "website": "https://hanz.ch"
    },
    "distance_to_station": 696.3792819098584
  },
  {
    "feature_type": "shops",
    "lat": 46.956067,
    "lon": 7.4531011,
    "tags": {
      "brand": "carvelo2go",
      "brand:wikidata": "Q110278232",
      "cargo_bike": "yes",
      "name": "Harry vs. Larry eBullit Clockwork",
      "opening_hours": "Mo-Fr 09:00-18:30; Sa 09:00-16:00",
      "operator": "carvelo2go",
      "service:bicycle:rental": "yes",
      "shop": "bicycle",
      "website": "https://www.carvelo2go.ch/"
    },
    "distance_to_station": 761.0947102876297
  },
  {
    "feature_type": "shops",
    "lat": 46.9579552,
    "lon": 7.4364575,
    "tags": {
      "brand": "BestDrive",
      "brand:wikidata": "Q63057183",
      "name": "BestDrive",
      "opening_hours": "Mo-Fr 07:30-12:00,13:30-18:00; Mar-May, Oct-Dec Sa 07:30-11:30",
      "phone": "+41 58 200 70 21",
      "shop": "car_repair",
      "website": "https://www.bestdrive.ch/"
    },
    "distance_to_station": 861.917741494633
  },
  {
    "feature_type": "shops",
    "lat": 46.9588962,
    "lon": 7.437438,
    "tags": {
      "alt_name": "Schnapp  Secondhandkleider & Accessoires",
      "contact:addr": "Daxelhoferstrasse 11, 3012 Bern",
      "contact:email": "schnapp@bluemail.ch",
      "contact:mobile": "+41 79 6478543",
      "contact:website": "https://www.schnapp-bern.ch/kontakt/",
      "name": "Schnapp",
      "second_hand": "only",
      "shop": "clothes",
      "website": "https://www.schnapp-bern.ch"
    },
    "distance_to_station": 751.9460474200458
  },
  {
    "feature_type": "shops",
    "lat": 46.9618659,
    "lon": 7.4510527,
    "tags": {
      "contact:addr": "Standstrasse 25, 3014 Bern",
      "contact:email": "info@pomphair.ch",
      "contact:phone": "+41 31 3310210",
      "female:signed": "no",
      "male:signed": "no",
      "name": "PompHair",
      "opening_hours": "Sa 09:00-14:00; Tu-Fr 09:00-18:00",
      "shop": "hairdresser",
      "website": "http://www.pomphair.ch/"
    },
    "distance_to_station": 339.43950506898
  },
  {
    "feature_type": "shops",
    "lat": 46.9641813,
    "lon": 7.4579271,
    "tags": {
      "name": "Issa Barber Shop",
      "shop": "hairdresser"
    },
    "distance_to_station": 914.5152886145435
  },
  {
    "feature_type": "shops",
    "lat": 46.9581546,
    "lon": 7.4537816,
    "tags": {
      "addr:city": "Bern",
      "addr:housenumber": "11",
      "addr:postcode": "3013",
      "addr:street": "Breitenrainstrasse",
      "alt_name": "Migros Breitenrain",
      "branch": "Bern Breitenrain",
      "brand": "Migros",
      "brand:wikidata": "Q680727",
      "brand:wikipedia": "de:Migros",
      "cash_withdrawal": "migros_bank;postfinance_card",
      "cash_withdrawal:fee": "no",
      "cash_withdrawal:purchase_required": "no",
      "cash_withdrawal:type": "checkout",
      "check_date:opening_hours": "2024-02-06",
      "contact:addr": "Breitenrainstrasse 11, 3013 Bern",
      "contact:phone": "+41 58 5676080",
      "level": "-1",
      "name": "Migros",
      "opening_hours": "Mo-Fr 07:30-20:00, Sa 07:30-17:00; PH off",
      "operator": "Genossenschaft Migros Aare",
      "shop": "supermarket",
      "toilets:wheelchair": "yes",
      "website": "https://filialen.migros.ch/de/migros-supermarkt-bern-breitenrain",
      "wheelchair": "yes"
    },
    "distance_to_station": 645.0380970941874
  },
  {
    "feature_type": "shops",
    "lat": 46.9568465,
    "lon": 7.4373457,
    "tags": {
      "check_date": "2024-12-10",
      "contact:addr": "Neubr\u00fcckstrasse 51, 3012 Bern",
      "contact:email": "info@beauty-in-balance.ch",
      "contact:phone": "+41 31 3187888",
      "name": "Beauty in Balance",
      "opening_hours": "Mo 13:30-19:00; Tu,Th-Fr 09:00-19:00",
      "operator": "Daniela D. Wittwer",
      "shop": "cosmetics",
      "website": "https://beauty-in-balance.ch"
    },
    "distance_to_station": 865.7280657836043
  },
  {
    "feature_type": "shops",
    "lat": 46.9557983,
    "lon": 7.4499734,
    "tags": {
      "alt_name": "The Black Mandarin Records",
      "buying": "yes",
      "contact:addr": "Optingenstrasse 31, 3013 Bern",
      "contact:email": "info@blackmandarin.ch",
      "contact:mobile": "+41 79 5321849",
      "contact:website": "http://www.blackmandarin.ch/record-store/kontakt",
      "music": "vinyl",
      "name": "Black Mandarin",
      "opening_hours": "Mo off; Tu-Fr 13:00-18:30; Sa 12:00-16:30; Su off; PH off",
      "operator": "The Black Mandarin GmbH",
      "second_hand": "only",
      "shop": "music",
      "website": "https://www.blackmandarin.ch/"
    },
    "distance_to_station": 662.1943362503838
  },
  {
    "feature_type": "shops",
    "lat": 46.958528,
    "lon": 7.4553943,
    "tags": {
      "contact:addr": "Herzogstrasse 22, 3014 Bern",
      "contact:facebook": "https://www.facebook.com/wyrschangelina",
      "contact:instagram": "https://www.instagram.com/angelina.wyrsch",
      "contact:phone": "+41 31 7313511",
      "name": "Angelina Wyrsch",
      "opening_hours": "\"Termine nach Vereinbarung\"",
      "shop": "beauty",
      "website": "https://www.angelina-wyrsch.ch"
    },
    "distance_to_station": 732.5826626378122
  },
  {
    "feature_type": "shops",
    "lat": 46.9585464,
    "lon": 7.4477852,
    "tags": {
      "addr:city": "Bern",
      "addr:housenumber": "20",
      "addr:postcode": "3013",
      "addr:street": "Turnweg",
      "name": "Lorraine Brocki",
      "opening_hours:signed": "no",
      "phone": "+41 31 331 09 18",
      "shop": "second_hand"
    },
    "distance_to_station": 318.58915177756245
  },
  {
    "feature_type": "shops",
    "lat": 46.9604095,
    "lon": 7.4534381,
    "tags": {
      "contact:addr": "Waffenweg 4a, 3014 Bern",
      "contact:email": "info@schneiderkurier.ch",
      "contact:phone": "+41 79 7463441",
      "contact:website": "http://schneiderkurier.ch/kontakt.html",
      "name": "Atelier Mancini",
      "opening_hours": "Mo-Fr 13:30-18:00",
      "shop": "tailor",
      "website": "http://schneiderkurier.ch"
    },
    "distance_to_station": 524.8864116132434
  },
  {
    "feature_type": "shops",
    "lat": 46.9561591,
    "lon": 7.4517112,
    "tags": {
      "check_date:opening_hours": "2023-10-01",
      "contact:addr": "Moserstrasse 13, 3014 Bern",
      "contact:email": "info@cantinadelmulino.ch",
      "contact:phone": "+41 31 3484950",
      "name": "Cantina del Mulino",
      "opening_hours": "We,Th 14:00-19:00; Fr 10:00-12:00,14:00-19:00; Sa 10:00-16:00",
      "shop": "wine",
      "website": "https://cantinadelmulino.ch/"
    },
    "distance_to_station": 689.2213653746793
  },
  {
    "feature_type": "shops",
    "lat": 46.9571458,
    "lon": 7.4376536,
    "tags": {
      "alt_name": "Coiffure Lotti",
      "check_date": "2025-06-10",
      "contact:addr": "Neubr\u00fcckstrasse 70, 3012 Bern",
      "contact:phone": "+41 31 3015656",
      "female:signed": "no",
      "male:signed": "no",
      "name": "Lotti",
      "opening_hours": "Tu,Th-Fr 10:00+",
      "owner": "Lotti Stuker",
      "shop": "hairdresser"
    },
    "distance_to_station": 827.5711089839256
  },
  {
    "feature_type": "shops",
    "lat": 46.9568481,
    "lon": 7.4521899,
    "tags": {
      "check_date": "2025-07-16",
      "clothes": "children;women",
      "fair_trade": "yes",
      "name": "Petite Puce",
      "phone": "+41 31 506 02 77",
      "second_hand": "yes",
      "shop": "clothes",
      "website": "https://www.petitepuce.ch/"
    },
    "distance_to_station": 650.0003736834899
  },
  {
    "feature_type": "shops",
    "lat": 46.964916,
    "lon": 7.4569152,
    "tags": {
      "alt_name": "Rosa Brockenhaus",
      "contact:addr": "Wankdorffeldstrasse 96, 3014 Bern",
      "contact:email": "mail@rosabrockenhaus.ch",
      "contact:phone": "+41 31 9917700",
      "name": "Rosa",
      "opening_hours": "Mo-Fr 09:00-18:30; Sa 09:00-17:00; Su off",
      "operator": "Rosa Brockenhaus Hilfswerkverein",
      "shop": "second_hand",
      "source": "survey and website",
      "website": "https://www.rosabrockenhaus.ch/",
      "wheelchair": "yes"
    },
    "distance_to_station": 876.9928284536535
  },
  {
    "feature_type": "shops",
    "lat": 46.9637339,
    "lon": 7.455829,
    "tags": {
      "addr:city": "Bern",
      "addr:housenumber": "56",
      "addr:postcode": "3014",
      "addr:street": "Winkelriedstrasse",
      "contact:addr": "Winkelriedstrasse 56, 3014 Bern",
      "name": "Lebensmittel Baumgartner",
      "opening_hours": "Mo-Fr 06:30-12:15,15:00-20:00; Sa 08:00-17:00; So 08:00-18:00",
      "phone": "0319217557",
      "shop": "supermarket",
      "website": "https://baumgartner-lebensmittel.ch"
    },
    "distance_to_station": 747.574842602113
  },
  {
    "feature_type": "shops",
    "lat": 46.9591629,
    "lon": 7.4566108,
    "tags": {
      "addr:city": "Bern",
      "addr:housenumber": "97",
      "addr:postcode": "3014",
      "addr:street": "Rodtmattstrasse",
      "contact:addr": "Rodtmattstrasse 97, 3014 Bern",
      "contact:email": "info@miranails.ch",
      "contact:facebook": "https://de-de.facebook.com/nailsstudiomiranails",
      "contact:instagram": "https://www.instagram.com/nailsstudiomiranails",
      "contact:mobile": "+41 76 4153093",
      "contact:website": "http://www.miranails.ch/kontakt",
      "email": "info@miranails.ch",
      "name": "Mira Nails",
      "opening_hours": "\"nach Vereinbarung\"",
      "operator": "Cristina Mira",
      "phone": "+41 76 415 30 93",
      "shop": "beauty",
      "source": "website;survey",
      "website": "https://www.miranails.ch/"
    },
    "distance_to_station": 793.4683371430865
  },
  {
    "feature_type": "shops",
    "lat": 46.959074,
    "lon": 7.4560786,
    "tags": {
      "addr:city": "Bern",
      "addr:housenumber": "101",
      "addr:postcode": "3014",
      "addr:street": "Rodtmattstrasse",
      "alt_name": "Bettenfachgesch\u00e4ft Schlafwohl",
      "email": "bern@schlafwohl.ch",
      "name": "Schlafwohl",
      "opening_hours": "Mo-Fr 09:30-12:30,13:30-18:30; Sa 09:00-16:00",
      "operator": "Insent AG",
      "phone": "+41 31 994 08 06",
      "shop": "bed",
      "website": "https://www.schlafwohl.ch/ueber-uns/fachgeschaefte/filiale-bern"
    },
    "distance_to_station": 758.1132870843162
  },
  {
    "feature_type": "shops",
    "lat": 46.9566135,
    "lon": 7.4371601,
    "tags": {
      "alt_name": "Coiffeursalon Barbara",
      "contact:addr": "Mittelstrasse 64, 3012 Bern",
      "contact:phone": "+41 31 3016021",
      "name": "Coiffeur Barbara",
      "operator": "Barbara Dubach",
      "shop": "hairdresser"
    },
    "distance_to_station": 892.2448912158
  },
  {
    "feature_type": "shops",
    "lat": 46.9550564,
    "lon": 7.4527099,
    "tags": {
      "brand": "Cinelli;Maap;Kask;Veloine;Void;Rene Herse;Suplest;Fingerscrossed;Albaoptics",
      "contact:addr": "Gotthelfstrasse 31, 3013 Bern",
      "contact:email": "info@tac-tac.com",
      "contact:phone": "+41 78 626 38 62",
      "level": "0",
      "name": "TacTac Cycling",
      "opening_hours": "We-Fr 11:00-19:00; Sa 11:00-17:00",
      "operator": "Keepy Wyss",
      "payment:cash": "yes",
      "payment:credit_cards": "yes",
      "payment:maestro": "yes",
      "payment:mastercard": "yes",
      "payment:postfinance_card": "yes",
      "payment:visa": "yes",
      "service:bicycle:Bicycle_Sales_and_Service": "yes",
      "service:bicycle:repair": "yes",
      "service:bicycle:retail": "yes",
      "shop": "bicycle",
      "wheelchair": "yes"
    },
    "distance_to_station": 833.3909135017459
  },
  {
    "feature_type": "shops",
    "lat": 46.9654091,
    "lon": 7.4579966,
    "tags": {
      "addr:city": "Bern",
      "addr:housenumber": "90",
      "addr:postcode": "3014",
      "addr:street": "Wankdorffeldstrasse",
      "alt_name": "Migrol Shop Wankdorf",
      "branch": "Bern Wankdorf MParc",
      "brand": "Migrol",
      "name": "Migrol Shop",
      "opening_hours": "Mo-Fr 07:30-18:30, Sa 07:30-17:00; PH off",
      "operator": "Migrol",
      "shop": "kiosk",
      "website": "https://www.migrol.ch/de/"
    },
    "distance_to_station": 975.3148795202167
  },
  {
    "feature_type": "shops",
    "lat": 46.9578009,
    "lon": 7.4370722,
    "tags": {
      "brand": "bulthaup",
      "brand:wikidata": "Q1004697",
      "name": "bulthaup Bern",
      "opening_hours": "Mo-Fr 09:00-16:00",
      "phone": "+41 31 951 00 73",
      "shop": "kitchen"
    },
    "distance_to_station": 827.921844381694
  },
  {
    "feature_type": "shops",
    "lat": 46.9623395,
    "lon": 7.4519331,
    "tags": {
      "addr:city": "Bern",
      "addr:housenumber": "33",
      "addr:postcode": "3014",
      "addr:street": "Standstrasse",
      "name": "Outlawz Store",
      "opening_hours": "Mo-Fr 14:00-19:00; Sa 12:00-17:00",
      "shop": "clothes"
    },
    "distance_to_station": 416.8132063574315
  },
  {
    "feature_type": "shops",
    "lat": 46.9614549,
    "lon": 7.4561477,
    "tags": {
      "addr:housenumber": "19",
      "addr:street": "Melchtalstrasse",
      "name": "Shiraz Barber",
      "opening_hours": "Tu-Fr 09:00-19:00; Sa 09:00-17:00",
      "phone": "+41764049988",
      "shop": "hairdresser",
      "website": "https://shirazbarber.ch"
    },
    "distance_to_station": 721.6992836990056
  },
  {
    "feature_type": "shops",
    "lat": 46.954333,
    "lon": 7.4463156,
    "tags": {
      "check_date": "2023-08-11",
      "name": "Pro Style Barber Shop",
      "opening_hours": "Tu-Th 09:30-18:30; Fr 08:30-18:30; Sa 07:30-16:30",
      "shop": "hairdresser"
    },
    "distance_to_station": 775.8966373964365
  },
  {
    "feature_type": "shops",
    "lat": 46.9546193,
    "lon": 7.4519704,
    "tags": {
      "email": "info@winkelbern.ch",
      "name": "Winkel",
      "opening_hours": "Sa 09:00-13:00",
      "operator": "Winkel M\u00f6bel, Inhaberin van Harskamp (Einzelfirma)",
      "second_hand": "only",
      "shop": "furniture",
      "website": "http://www.winkelbern.ch"
    },
    "distance_to_station": 846.0757110754441
  },
  {
    "feature_type": "shops",
    "lat": 46.9590502,
    "lon": 7.4546643,
    "tags": {
      "check_date": "2024-09-11",
      "name": "Casa Sana",
      "shop": "cosmetics",
      "website": "https://sannabis.ch/pages/casa-sana"
    },
    "distance_to_station": 658.3597227922177
  },
  {
    "feature_type": "shops",
    "lat": 46.9598568,
    "lon": 7.4592728,
    "tags": {
      "alt_name": "Monika Schwab f\u00fcr Haare",
      "check_date": "2025-07-16",
      "contact:phone": "+41 78 678 37 50",
      "name": "Monika Schwab",
      "opening_hours": "Mo-Fr 08:00-19:00; Sa 08:00-15:00",
      "shop": "hairdresser"
    },
    "distance_to_station": 972.8568450182223
  },
  {
    "feature_type": "shops",
    "lat": 46.9576916,
    "lon": 7.4538631,
    "tags": {
      "check_date:opening_hours": "2021-08-20",
      "email": "hello@ojodecafe.ch",
      "name": "Ojo de Caf\u00e9",
      "opening_hours": "Tu-Fr 11:00-13:00,14:00-18:00; Sa 11:00-17:00; Mo,Su,PH closed",
      "phone": "+41 79 528 19 05",
      "shop": "coffee",
      "website": "https://www.ojodecafe.ch/"
    },
    "distance_to_station": 679.3912602216908
  },
  {
    "feature_type": "shops",
    "lat": 46.957758,
    "lon": 7.4539282,
    "tags": {
      "addr:postcode": "3014",
      "email": "susanne_kobel@gmx.ch",
      "name": "Rapunzel",
      "opening_hours": "Tu-Fr 10:00-18:00; Sa 10:00-15:00",
      "phone": "+41 77 447 70 75",
      "shop": "hairdresser",
      "website": "https://rapunzel-frisuren.ch/"
    },
    "distance_to_station": 679.0748338562174
  },
  {
    "feature_type": "shops",
    "lat": 46.9632687,
    "lon": 7.4544692,
    "tags": {
      "contact:addr": "Stauffacherstrasse 40, 3014 Bern",
      "contact:email": "sofort@flickerei.ch",
      "contact:phone": "+41 76 3351309",
      "name": "flickerei.ch",
      "opening_hours:url": "https://www.flickerei.ch/wo-wann/",
      "operator": "Verein Flickerei",
      "operator:type": "private_non_profit",
      "shop": "repair",
      "website": "https://www.flickerei.ch/"
    },
    "distance_to_station": 632.4906334691248
  },
  {
    "feature_type": "shops",
    "lat": 46.96045,
    "lon": 7.4538949,
    "tags": {
      "name": "Hi-Fi Studio D. Loeffel",
      "opening_hours": "We-Fr 10:00-18:00; Sa 09:00-14:00",
      "phone": "+41797025131",
      "shop": "hifi"
    },
    "distance_to_station": 558.2704434860292
  },
  {
    "feature_type": "shops",
    "lat": 46.9600104,
    "lon": 7.4548504,
    "tags": {
      "email": "info@bettenland.ch",
      "fax": "+41 31 301 41 13",
      "name": "Bettenland",
      "opening_hours": "Mo,Tu 13:30-18:00; Th 10:00-19:00; Sa 10:00-17:00; We 10:00-18:00; Fr 10:00-18:00; Su off",
      "phone": "+41 31 301 41 13",
      "shop": "bed",
      "website": "https://www.bettenland.ch/Filiale/bern/"
    },
    "distance_to_station": 639.2782579566818
  },
  {
    "feature_type": "shops",
    "lat": 46.9560253,
    "lon": 7.4520401,
    "tags": {
      "addr:housenumber": "14",
      "addr:postcode": "3013",
      "addr:street": "Moserstrasse",
      "check_date": "2024-09-11",
      "email": "info@aengelibeck.ch",
      "name": "\u00c4ngelibeck",
      "opening_hours": "Mo-Fr 06:30-19:00; Sa 07:00-17:00",
      "phone": "+41 31 351 15 05",
      "shop": "bakery",
      "website": "https://www.aengelibeck.ch/"
    },
    "distance_to_station": 715.6278254757311
  },
  {
    "feature_type": "shops",
    "lat": 46.957847,
    "lon": 7.453481,
    "tags": {
      "check_date": "2025-07-16",
      "name": "Printgraphic",
      "opening_hours": "Mo-Fr 08:00-12:00,13:30-18:00",
      "shop": "copyshop",
      "website": "https://printgraphic.ch"
    },
    "distance_to_station": 645.7318219118259
  },
  {
    "feature_type": "shops",
    "lat": 46.9549941,
    "lon": 7.452747,
    "tags": {
      "name": "heicho",
      "repair": "yes",
      "shop": "lighting",
      "website": "http://www.heicho.ch/"
    },
    "distance_to_station": 840.7265354668965
  },
  {
    "feature_type": "shops",
    "lat": 46.9545547,
    "lon": 7.4522964,
    "tags": {
      "addr:housenumber": "29a",
      "addr:street": "Gotthelfstrasse",
      "name": "LeihBar",
      "opening_hours": "Tu,Th,Fr 17:30-19:00; Sa 13:00-14:30; PH off",
      "shop": "rental",
      "website": "https://www.leihbar.ch/"
    },
    "distance_to_station": 864.4199860684299
  },
  {
    "feature_type": "shops",
    "lat": 46.9579755,
    "lon": 7.4451466,
    "tags": {
      "name": "Inky Heart Tattoo",
      "shop": "tattoo"
    },
    "distance_to_station": 388.1690192262093
  },
  {
    "feature_type": "shops",
    "lat": 46.955783,
    "lon": 7.4452904,
    "tags": {
      "name": "Tr\u00f6delecke",
      "shop": "charity"
    },
    "distance_to_station": 623.1210269272938
  },
  {
    "feature_type": "shops",
    "lat": 46.9596441,
    "lon": 7.4583844,
    "tags": {
      "addr:city": "Bern",
      "addr:housenumber": "84",
      "addr:postcode": "3014",
      "addr:street": "Rodtmattstrasse",
      "email": "info@contesports.ch",
      "name": "Conte Hockeyshop",
      "opening_hours": "Tu-Fr 11:00-18:30; Sa 09:00-16:00; Su,Mo off",
      "operator": "TFS TUNED FOR SPORTS AG",
      "phone": "+41 31 348 80 00",
      "shop": "sports",
      "source": "website;survey",
      "sport": "hockey",
      "website": "https://www.contesports.ch/conte-hockeyshop-bern-1"
    },
    "distance_to_station": 910.7539313659848
  },
  {
    "feature_type": "shops",
    "lat": 46.9596341,
    "lon": 7.457746,
    "tags": {
      "addr:city": "Bern",
      "addr:housenumber": "90",
      "addr:postcode": "3014",
      "addr:street": "Rodtmattstrasse",
      "check_date:opening_hours": "2024-02-06",
      "contact:facebook": "https://www.facebook.com/rueckenzentrum.ch",
      "contact:instagram": "https://www.instagram.com/rueckenzentrum.ch/",
      "contact:website": "https://www.rueckenzentrum.ch/de/kontakt",
      "contact:whatsapp": "https://wa.me/+41775277078",
      "contact:youtube": "https://www.youtube.com/channel/UCO9EwNC6C-DhWL6QlG_xSCQ",
      "email": "info@rueckenzentrum.ch",
      "fax": "+41 31 331 32 88",
      "name": "R\u00fcckenzentrum Bern",
      "opening_hours": "Mo-Fr 13:30-18:00; Sa 09:00-12:00",
      "operator": "R\u00fcckenzentrum Bern AG",
      "phone": "+41 31 331 44 88",
      "shop": "furniture",
      "source": "website;survey",
      "website": "https://www.rueckenzentrum.ch/"
    },
    "distance_to_station": 863.4723979895748
  },
  {
    "feature_type": "shops",
    "lat": 46.9574848,
    "lon": 7.4528709,
    "tags": {
      "check_date": "2025-08-06",
      "name": "Rysch Barbershop",
      "opening_hours": "Mo-We,Fr 09:00-19:00; Th 12:00-20:00; Sa 08:00-17:00",
      "phone": "+41 31 331 12 44",
      "shop": "hairdresser",
      "website": "https://rysch.ch/"
    },
    "distance_to_station": 635.2752684656219
  },
  {
    "feature_type": "shops",
    "lat": 46.9597209,
    "lon": 7.4548983,
    "tags": {
      "check_date:opening_hours": "2024-02-06",
      "email": "colette@colette-bern.ch",
      "mobile": "+41 78 871 56 47",
      "name": "Colette",
      "opening_hours": "Mo-Fr 09:00-11:30,14:00-17:00; Sa 09:00-15:00",
      "shop": "clothes",
      "website": "http://www.colette-bern.ch/"
    },
    "distance_to_station": 650.8115306078328
  },
  {
    "feature_type": "shops",
    "lat": 46.9569967,
    "lon": 7.4446818,
    "tags": {
      "check_date": "2023-04-28",
      "name": "Nordf\u00f6hn",
      "shop": "hairdresser"
    },
    "distance_to_station": 502.5834038518787
  },
  {
    "feature_type": "shops",
    "lat": 46.9593947,
    "lon": 7.4567067,
    "tags": {
      "addr:city": "Bern",
      "addr:housenumber": "9",
      "addr:postcode": "3014",
      "addr:street": "R\u00fctlistrasse",
      "check_date": "2025-07-16",
      "contact:instagram": "https://www.instagram.com/vintageboerse_",
      "email": "vintageboerse@gmx.ch",
      "name": "Vintageb\u00f6rse",
      "opening_hours": "Fr 12:00-18:00; Sa 10:00-16:00",
      "shop": "second_hand"
    },
    "distance_to_station": 793.1348980283963
  },
  {
    "feature_type": "shops",
    "lat": 46.9548615,
    "lon": 7.4520455,
    "tags": {
      "addr:housenumber": "70a",
      "addr:street": "Viktoriastrasse",
      "name": "Copain",
      "opening_hours": "Sa 09:00-13:00",
      "shop": "bakery",
      "website": "https://www.copain-brot.ch/"
    },
    "distance_to_station": 825.3311728921542
  },
  {
    "feature_type": "shops",
    "lat": 46.9581286,
    "lon": 7.4436933,
    "tags": {
      "check_date": "2024-08-10",
      "contact:instagram": "https://www.instagram.com/jane_mercedes",
      "email": "jane@jane-b.ch",
      "female:signed": "no",
      "male:signed": "no",
      "name": "Jane",
      "operator": "Jane Mercedes Breuss",
      "phone": "+41 31 331 23 61",
      "shop": "hairdresser",
      "website": "https://jane-b.ch"
    },
    "distance_to_station": 419.768084917768
  },
  {
    "feature_type": "shops",
    "lat": 46.9587,
    "lon": 7.4557116,
    "tags": {
      "brand": "R\u00fcedu",
      "brand:wikidata": "Q112913831",
      "name": "R\u00fcedu",
      "self_service": "only",
      "shop": "convenience",
      "website": "https://ruedu.ch/standort/militaerstrasse/"
    },
    "distance_to_station": 746.9177744418271
  },
  {
    "feature_type": "shops",
    "lat": 46.9600677,
    "lon": 7.4541719,
    "tags": {
      "check_date": "2024-09-04",
      "name": "Herba di Berna",
      "opening_hours": "Tu-Fr 11:00-13:00,14:00-18:30; Sa 10:00-13:00,13:30-17:00",
      "shop": "cannabis",
      "website": "https://www.herbadiberna.ch"
    },
    "distance_to_station": 587.5560985758652
  },
  {
    "feature_type": "shops",
    "lat": 46.9576519,
    "lon": 7.4371719,
    "tags": {
      "check_date": "2024-12-10",
      "name": "N\u00e4hk\u00e4stli",
      "shop": "sewing",
      "website": "https://naehkaestli.ch"
    },
    "distance_to_station": 829.2287906640852
  },
  {
    "feature_type": "shops",
    "lat": 46.9568028,
    "lon": 7.4373902,
    "tags": {
      "check_date": "2024-12-10",
      "name": "Aria N\u00e4hatelier",
      "opening_hours": "Tu-Fr 10:00-18:30; Sa 10:00-16:00",
      "phone": "+41 31 971 26 27",
      "shop": "tailor"
    },
    "distance_to_station": 865.7559114054166
  },
  {
    "feature_type": "shops",
    "lat": 46.9546063,
    "lon": 7.451918,
    "tags": {
      "name": "Pflanzenbrocki",
      "opening_hours": "Tu-Fr 11:30-18:30; Sa 10:00-16:00",
      "shop": "florist"
    },
    "distance_to_station": 845.4537038713578
  },
  {
    "feature_type": "shops",
    "lat": 46.9588683,
    "lon": 7.4557949,
    "tags": {
      "check_date": "2025-07-04",
      "name": "Hin & Hair",
      "shop": "hairdresser"
    },
    "distance_to_station": 745.75687023236
  },
  {
    "feature_type": "shops",
    "lat": 46.9586207,
    "lon": 7.4558908,
    "tags": {
      "check_date": "2025-07-04",
      "name": "Breitsch-L\u00e4deli",
      "opening_hours": "Mo-Tu,Th-Fr 14:00-17:30; Sa 10:30-14:00",
      "second_hand": "only",
      "shop": "clothes",
      "website": "https://www.breitsch-l%C3%A4deli.ch"
    },
    "distance_to_station": 762.9155214745789
  }
]