[
  {
    "feature_type": "museums",
    "lat": 46.9528038,
    "lon": 7.4352054,
    "tags": {
      "addr:city": "Bern",
      "addr:housenumber": "12",
      "addr:postcode": "3012",
      "addr:street": "Hallerstrasse",
      "alt_name": "Universit\u00e4t Bern - Antikensammlung",
      "contact:addr": "Hallerstrasse 12, 3012 Bern",
      "contact:email": "antikensammlung@iaw.unibe.ch",
      "fee": "no",
      "name": "Antikensammlung",
      "name:en": "University of Berne \u2013 collection of antiques",
      "note": "Abguss-Sammlung (Originalsammlung Mittelstrasse 43, 3012 Bern)",
      "opening_hours": "Mo-Tu off; We 18:00-20:00; Th-Su off; PH off",
      "tourism": "museum",
      "website": "https://www.iaw.unibe.ch/forschung/archaeologie_des_mittelmeerraumes/antikensammlung/index_ger.html",
      "wikidata": "Q27479777"
    },
    "distance_to_station": 319.8147946613104
  },
  {
    "feature_type": "museums",
    "lat": 46.9491447,
    "lon": 7.4364402,
    "tags": {
      "addr:city": "Bern",
      "addr:country": "CH",
      "addr:housenumber": "15",
      "addr:postcode": "3008",
      "addr:street": "Schanzenstrasse",
      "email": "info@sapa.swiss",
      "heritage": "2",
      "heritage:operator": "babs",
      "image": "https://commons.wikimedia.org/wiki/File:SAPA_Bern_Frontend.jpg",
      "name": "Stiftung SAPA",
      "name:de": "Stiftung SAPA",
      "name:en": "SAPA Foundation",
      "name:fr": "Fondation SAPA",
      "name:it": "Fondazione SAPA",
      "opening_hours": "Tu-Th 13:00-16:00 \"Or on demand\"",
      "operator": "SAPA Foundation, Swiss Archive of the Performing Arts",
      "operator:type": "foundation",
      "operator:wikidata": "Q50920401",
      "phone": "+41 31 301 52 52",
      "ref:kgs": "650",
      "tourism": "museum",
      "website": "https://sapa.swiss",
      "wikidata": "Q50920401",
      "wikimedia_commons": "Category:SAPA_Foundation,_Swiss_Archive_of_the_Performing_Arts",
      "wikipedia": "de:Stiftung SAPA, Schweizer Archiv der Darstellenden K\u00fcnste",
      "wikipedia:fr": "Archives suisses des arts de la sc\u00e8ne"
    },
    "distance_to_station": 272.30090301878386
  },
  {
    "feature_type": "museums",
    "lat": 46.9512018,
    "lon": 7.4431395,
    "tags": {
      "addr:city": "Bern",
      "addr:housenumber": "12",
      "addr:postcode": "3011",
      "addr:street": "Hodlerstrasse",
      "building": "public",
      "contact:addr": "Hodlerstrasse 12, 3011 Bern",
      "contact:email": "info@kunstmuseumbern.ch",
      "contact:fax": "+41 31 3280955",
      "contact:phone": "+41 31 3280944",
      "description": "Das Kunstmuseum, Hodlerstrasse 12 ist Teil des Ensembles \"Kunstmuseum und Kunsthistorisches Seminar\", zusammen mit dem Kunsthistorisches Seminar, Hodlerstrasse 8, mit der jeweils gleichen KGS Nummer 634",
      "heritage": "2",
      "heritage:operator": "babs",
      "image": "https://upload.wikimedia.org/wikipedia/commons/thumb/6/69/Kunsthaus_di_berna%2C_ext.%2C_02.JPG/800px-Kunsthaus_di_berna%2C_ext.%2C_02.JPG",
      "museum": "art",
      "name": "Kunstmuseum Bern",
      "name:de": "Kunstmuseum Bern",
      "name:en": "Museum of Fine Arts Bern",
      "name:fr": "Mus\u00e9e des Beaux-Arts de Berne",
      "name:it": "Museo dell'Arte di Berna",
      "opening_hours": "Mo off; Tu 10:00-20:00; We-Su 10:00-17:00",
      "ref:kgs": "634",
      "tourism": "museum",
      "website": "https://www.kunstmuseumbern.ch/",
      "wheelchair": "yes",
      "wikidata": "Q19362502",
      "wikimedia_commons": "Category:Kunstmuseum Bern",
      "wikipedia": "de:Kunstmuseum Bern"
    },
    "distance_to_station": 344.7523842034739
  }
]