[
  {
    "feature_type": "schools",
    "lat": 46.9442527,
    "lon": 7.4599066,
    "tags": {
      "alt_name": "Campus Muristalden Volksschule und Gymnasium",
      "amenity": "school",
      "contact:addr": "Muristrasse 8, 3006 Bern",
      "contact:email": "muristalden@muristalden.ch",
      "contact:fax": "+41 31 3504200",
      "contact:phone": "+41 31 3504250",
      "contact:website": "http://www.muristalden.ch",
      "isced:level": "1-3",
      "name": "Campus Muristalden Volksschule und Gymnasium",
      "source": "website",
      "website": "http://www.muristalden.ch"
    },
    "distance_to_station": 384.21459479294015
  },
  {
    "feature_type": "schools",
    "lat": 46.9450068,
    "lon": 7.4670098,
    "tags": {
      "addr:city": "Bern",
      "addr:housenumber": "29",
      "addr:postcode": "3006",
      "addr:street": "Egelgasse",
      "amenity": "school",
      "contact:phone": "+41 31 3212215",
      "name": "Schulhaus Wyssloch Modul",
      "operator": "Stadt Bern",
      "source": "survey and website",
      "website": "https://kirchenfeld-schosshalde.ch/index.php?page=511"
    },
    "distance_to_station": 474.73668325375047
  },
  {
    "feature_type": "schools",
    "lat": 46.9450249,
    "lon": 7.4670207,
    "tags": {
      "addr:city": "Bern",
      "addr:postcode": "3006",
      "addr:street": "Egelgasse",
      "amenity": "school",
      "name": "Kindergarten & Schule Wyssloch"
    },
    "distance_to_station": 476.8363062938821
  }
]