[
  {
    "feature_type": "supermarkets",
    "lat": 46.9494937,
    "lon": 7.4417109,
    "tags": {
      "addr:full": "Aarbergergasse 53, 3011 Bern",
      "brand": "Coop",
      "brand:wikidata": "Q432564",
      "level": "-1",
      "name": "Coop",
      "opening_hours": "Mo 09:00-19:00; Tu,We 08:00-19:00; Th,Fr 08:00-20:00; Sa 08:00-18:00; PH off",
      "shop": "supermarket",
      "website": "https://www.coop.ch/",
      "wheelchair": "yes"
    },
    "distance_to_station": 296.0768943521377
  },
  {
    "feature_type": "supermarkets",
    "lat": 46.9496923,
    "lon": 7.4428127,
    "tags": {
      "branch": "Bern Aarbergergasse",
      "brand": "Alnatura",
      "brand:wikidata": "Q124414082",
      "full_name": "Alnatura Bio Super Markt",
      "name": "Alnatura",
      "not:brand:wikidata": "Q876811",
      "opening_hours": "Mo 09:00-19:00; Tu,We 08:00-19:00; Th,Fr 08:00-20:00; Sa 08:00-17:00; Su,PH closed; PH -1 day 08:00-17:00",
      "operator": "Alnatura AG",
      "organic": "only",
      "phone": "+41 58 563 90 15",
      "shop": "supermarket",
      "website": "https://www.alnatura.ch/"
    },
    "distance_to_station": 356.02158906520566
  },
  {
    "feature_type": "supermarkets",
    "lat": 46.9486381,
    "lon": 7.4373157,
    "tags": {
      "addr:city": "Bern",
      "addr:housenumber": "4b",
      "addr:postcode": "3008",
      "addr:street": "Schanzenstrasse",
      "email": "info@aggarwal.ch",
      "level": "2",
      "name": "Aggarwal",
      "opening_hours": "Mo-Fr 09:00-20:00; Sa 09:00-17:00",
      "origin": "indian",
      "phone": "+41 313118655",
      "shop": "supermarket",
      "takeaway": "yes",
      "website": "https://www.aggarwal.ch",
      "wheelchair": "yes"
    },
    "distance_to_station": 290.5907782326407
  },
  {
    "feature_type": "supermarkets",
    "lat": 46.9475498,
    "lon": 7.4384684,
    "tags": {
      "alt_name": "Migros Bubenberg (MM)",
      "branch": "Bern Bubenberg",
      "brand": "Migros",
      "brand:wikidata": "Q680727",
      "brand:wikipedia": "de:Migros",
      "cash_withdrawal": "migros_bank;postfinance_card",
      "cash_withdrawal:fee": "no",
      "cash_withdrawal:purchase_required": "no",
      "cash_withdrawal:type": "checkout",
      "contact:addr": "Bubenbergplatz 8, 3011 Bern",
      "contact:phone": "+41 58 567 61 00",
      "internet_access": "wlan",
      "internet_access:fee": "no",
      "internet_access:ssid": "MIGROS WiFi",
      "level": "0",
      "name": "Migros",
      "opening_hours": "Mo-Fr 07:00-19:00, Sa 07:30-17:00; PH off",
      "operator": "Genossenschaft Migros Aare",
      "shop": "supermarket",
      "source": "survey and website",
      "website": "https://filialen.migros.ch/de/migros-supermarkt-bern-bubenberg",
      "wheelchair": "yes"
    },
    "distance_to_station": 394.89059571960235
  },
  {
    "feature_type": "supermarkets",
    "lat": 46.9483336,
    "lon": 7.4432918,
    "tags": {
      "addr:floor": "-1",
      "branch": "Bern Spitalgasse",
      "brand": "Coop",
      "brand:wikidata": "Q432564",
      "contact:addr": "Spitalgasse 2, 3011 Bern",
      "contact:fax": "+41 31 3100121",
      "contact:phone": "+41 31 3100120",
      "level": "-1",
      "name": "Coop",
      "opening_hours": "Mo-We 07:00-19:00; Th 07:00-21:00; Fr 07:00-19:00; Sa 07:00-17:00; Su off",
      "shop": "supermarket",
      "website": "https://www.coop.ch/",
      "wheelchair": "yes"
    },
    "distance_to_station": 470.5918699398933
  },
  {
    "feature_type": "supermarkets",
    "lat": 46.9489976,
    "lon": 7.4375343,
    "tags": {
      "addr:city": "Bern",
      "addr:housenumber": "10",
      "addr:postcode": "3011",
      "addr:street": "Bahnhofplatz",
      "brand": "Coop",
      "brand:wikidata": "Q432564",
      "brand:wikipedia": "de:Coop (Schweiz)",
      "check_date:opening_hours": "2024-03-11",
      "layer": "2",
      "name": "Coop",
      "opening_hours": "Mo-Fr 06:00-20:00; Sa 07:00-18:00; Su,PH closed",
      "shop": "supermarket",
      "wheelchair": "yes"
    },
    "distance_to_station": 247.3761006874299
  },
  {
    "feature_type": "supermarkets",
    "lat": 46.9478029,
    "lon": 7.4362001,
    "tags": {
      "addr:city": "Bern",
      "addr:housenumber": "5",
      "addr:postcode": "3000",
      "addr:street": "Schanzenstrasse",
      "alt_name": "Migros Welle 7",
      "branch": "Bern Welle 7",
      "brand": "Migros",
      "brand:wikidata": "Q680727",
      "brand:wikipedia": "en:Migros",
      "cash_withdrawal": "migros_bank;postfinance_card",
      "cash_withdrawal:fee": "no",
      "cash_withdrawal:purchase_required": "no",
      "cash_withdrawal:type": "checkout",
      "level": "1",
      "name": "Migros",
      "opening_hours": "Mo-Fr 06:00-20:00, Sa 06:00-17:00; PH off",
      "operator": "Genossenschaft Migros Aare",
      "phone": "+41 58 567 49 50",
      "self_service": "yes",
      "shop": "supermarket",
      "source": "https://www.welle7.ch/en/shopping-enjoyment/migros",
      "website": "https://filialen.migros.ch/de/migros-supermarkt-bern-welle-7",
      "wheelchair": "yes"
    },
    "distance_to_station": 409.38486373047124
  },
  {
    "feature_type": "supermarkets",
    "lat": 46.9474933,
    "lon": 7.4416481,
    "tags": {
      "addr:housenumber": "37",
      "addr:street": "Spitalgasse",
      "brand": "Coop",
      "brand:wikidata": "Q432564",
      "contact:addr": "Spitalgasse 37, 3011 Bern",
      "contact:fax": "+41 31 3132786",
      "contact:phone": "+41 31 3132785",
      "contact:website": "https://www.coop.ch/de/unternehmen/standorte-und-oeffnungszeiten/detail.html/5376/",
      "levels": "1",
      "name": "Coop",
      "opening_hours": "Mo-Fr 06:30-20:00; Th 06:30-21:00; Sa 07:00-17:00",
      "shop": "supermarket"
    },
    "distance_to_station": 463.0022874676649
  },
  {
    "feature_type": "supermarkets",
    "lat": 46.9493144,
    "lon": 7.4401916,
    "tags": {
      "alt_name": "Migros Bern Bahnhof (MM)",
      "branch": "Bern Bahnhof",
      "brand": "Migros",
      "brand:wikidata": "Q680727",
      "brand:wikipedia": "en:Migros",
      "cash_withdrawal": "migros_bank;postfinance_card",
      "cash_withdrawal:fee": "no",
      "cash_withdrawal:purchase_required": "no",
      "cash_withdrawal:type": "checkout",
      "check_date:opening_hours": "2021-10-03",
      "contact:city": "Bern",
      "contact:housenumber": "10",
      "contact:postcode": "3011",
      "contact:street": "Bahnhofplatz",
      "internet_access": "wlan",
      "internet_access:fee": "no",
      "internet_access:ssid": "MIGROS WiFi",
      "level": "1",
      "name": "Migros",
      "opening_hours": "Mo-Su,PH 08:00-21:00",
      "payment:cash": "yes",
      "payment:credit_cards": "yes",
      "payment:debit_cards": "yes",
      "phone": "+41 58 567 56 50",
      "shop": "supermarket",
      "website": "https://filialen.migros.ch/de/migros-supermarkt-bern-bahnhof",
      "wheelchair": "yes"
    },
    "distance_to_station": 232.41616748906657
  },
  {
    "feature_type": "supermarkets",
    "lat": 46.9478417,
    "lon": 7.4365282,
    "tags": {
      "brand": "Denner",
      "brand:wikidata": "Q379911",
      "brand:wikipedia": "en:Denner (supermarket)",
      "cash_withdrawal": "migros_bank;postfinance_card",
      "cash_withdrawal:fee": "no",
      "cash_withdrawal:purchase_required": "no",
      "cash_withdrawal:type": "checkout",
      "email": "info@denner.ch",
      "level": "1",
      "name": "Denner",
      "opening_hours": "Mo-Fr 07:00-20:00; Sa 07:00-17:00; Su off",
      "phone": "+41 58 999 14 18",
      "shop": "supermarket",
      "source": "https://www.welle7.ch/en/shopping-enjoyment/denner-express"
    },
    "distance_to_station": 394.96530548156164
  },
  {
    "feature_type": "supermarkets",
    "lat": 46.9475549,
    "lon": 7.4410773,
    "tags": {
      "brand": "Lidl",
      "brand:wikidata": "Q151954",
      "brand:wikipedia": "en:Lidl",
      "level": "-1",
      "name": "Lidl",
      "opening_hours": "Mo-Su,PH 06:00-22:00",
      "shop": "supermarket",
      "toilets:wheelchair": "yes",
      "wheelchair": "yes"
    },
    "distance_to_station": 436.7513655273196
  },
  {
    "feature_type": "supermarkets",
    "lat": 46.9481174,
    "lon": 7.4418654,
    "tags": {
      "brand": "ALDI",
      "brand:wikidata": "Q41171672",
      "check_date": "2023-12-18",
      "name": "ALDI",
      "opening_hours": "Mo-We,Fr 08:00-20:00; Th 08:00-21:00; Sa 07:30-17:00",
      "phone": "+41 31 372 96 37",
      "shop": "supermarket",
      "website": "https://www.aldi-suisse.ch/",
      "wheelchair": "yes"
    },
    "distance_to_station": 414.0391434508243
  },
  {
    "feature_type": "supermarkets",
    "lat": 46.9485438,
    "lon": 7.4397525,
    "tags": {
      "branch": "Bern Bahnhof",
      "brand": "Coop",
      "brand:wikidata": "Q432564",
      "check_date:opening_hours": "2021-02-28",
      "description": "Wegen Umbauarbeiten im Bahnhof Bern derzeit geschlossen. Geplante Wiederer\u00f6ffnung im Sommer 2025.",
      "indoor": "yes",
      "level": "-1",
      "name": "Coop",
      "opening_hours": "closed",
      "shop": "supermarket",
      "wheelchair": "yes"
    },
    "distance_to_station": 297.3943562310176
  },
  {
    "feature_type": "supermarkets",
    "lat": 46.9475531,
    "lon": 7.4406489,
    "tags": {
      "addr:city": "Bern",
      "addr:housenumber": "47-51",
      "addr:postcode": "3011",
      "addr:street": "Spitalgasse",
      "brand": "Lidl",
      "brand:wikidata": "Q151954",
      "brand:wikipedia": "en:Lidl",
      "check_date": "2024-09-20",
      "indoor": "yes",
      "layer": "-1",
      "level": "-1",
      "name": "Lidl",
      "opening_hours": "06:00-22:00",
      "payment:cash": "yes",
      "payment:credit_cards": "yes",
      "payment:notes": "yes",
      "shop": "supermarket",
      "website": "https://www.lidl.ch/s/de-CH/filialfinder/bern/spitalgasse-47-51/",
      "wheelchair": "yes"
    },
    "distance_to_station": 423.9543456204174
  },
  {
    "feature_type": "supermarkets",
    "lat": 46.9477365,
    "lon": 7.4400036,
    "tags": {
      "addr:floor": "-1",
      "alt_name": "Migros Christoffel",
      "branch": "Bern Christoffel",
      "brand": "Migros",
      "brand:wikidata": "Q680727",
      "brand:wikipedia": "de:Migros",
      "check_date": "2024-10-23",
      "contact:addr": "Christoffel-Unterf\u00fchrung, 3011 Bern",
      "indoor": "yes",
      "level": "-1",
      "name": "Migros",
      "opening_hours": "06:00-22:00",
      "operator": "Genossenschaft Migros Aare",
      "payment:american_express": "yes",
      "payment:contactless": "yes",
      "payment:credit_cards": "yes",
      "payment:diners_club": "yes",
      "payment:jcb": "yes",
      "payment:maestro": "yes",
      "payment:mastercard": "yes",
      "payment:postfinance_card": "yes",
      "payment:visa": "yes",
      "shop": "supermarket",
      "website": "https://filialen.migros.ch/de/migros-supermarkt-bern-christoffel",
      "wheelchair": "yes"
    },
    "distance_to_station": 388.88349814716673
  }
]