[
  {
    "feature_type": "cafes",
    "lat": 46.9470165,
    "lon": 7.437509,
    "tags": {
      "addr:postcode": "3008",
      "alt_name": "Starbucks Coffee",
      "amenity": "cafe",
      "brand": "Starbucks",
      "brand:wikidata": "Q37158",
      "check_date": "2025-04-15",
      "check_date:opening_hours": "2025-04-15",
      "contact:addr": "LaupenstrasLaupenstrasse 5, 3008 Bernse",
      "contact:phone": "+41 31 3814700",
      "cuisine": "coffee_shop",
      "internet_access": "wlan",
      "internet_access:fee": "no",
      "name": "Starbucks",
      "official_name": "Starbucks Coffee",
      "opening_hours": "Mo-Fr 06:30-19:00; Sa 07:30-19:00; Su 08:30-19:00",
      "operator": "Starbucks Coffee Switzerland AG",
      "smoking": "no",
      "takeaway": "yes",
      "website": "https://www.starbucks.ch/",
      "wheelchair": "yes"
    },
    "distance_to_station": 461.5547724398889
  },
  {
    "feature_type": "cafes",
    "lat": 46.9487458,
    "lon": 7.4440335,
    "tags": {
      "alt_name": "Starbucks Coffee",
      "amenity": "cafe",
      "brand": "Starbucks",
      "brand:wikidata": "Q37158",
      "check_date": "2023-12-19",
      "contact:addr": "Waisenhausplatz 17 / Waaghausgasse 18, 3011 Bern",
      "contact:phone": "+41 31 3114780",
      "cuisine": "coffee_shop",
      "indoor_seating": "yes",
      "internet_access": "wlan",
      "internet_access:fee": "no",
      "name": "Starbucks",
      "official_name": "Starbucks Coffee",
      "opening_hours": "Mo-Fr 07:00-20:30; Sa 07:30-20:30; Su 08:30-19:30",
      "operator": "Starbucks Coffee Switzerland AG",
      "outdoor_seating": "yes",
      "smoking": "no",
      "source": "website",
      "takeaway": "yes",
      "website": "https://www.starbucks.ch/",
      "wheelchair": "yes"
    },
    "distance_to_station": 488.4958198082999
  },
  {
    "feature_type": "cafes",
    "lat": 46.9514508,
    "lon": 7.4350964,
    "tags": {
      "alt_name": "Caf\u00e9-Bar Parterre",
      "amenity": "cafe",
      "check_date": "2025-07-27",
      "contact:addr": "Hallerstrasse 1, 3012 Bern",
      "contact:facebook": "https://de-de.facebook.com/pages/Caf\u00e9-Bar-Parterre/158071960883541",
      "contact:phone": "+41 31 3057039",
      "name": "Parterre",
      "opening_hours": "Mo-Fr 07:00-23:00; Sa 09:00-23:00; Su off",
      "source": "survey",
      "toilets:wheelchair": "no",
      "wheelchair": "limited"
    },
    "distance_to_station": 268.7823910402491
  },
  {
    "feature_type": "cafes",
    "lat": 46.9530049,
    "lon": 7.4401759,
    "tags": {
      "addr:city": "Bern",
      "addr:housenumber": "8",
      "addr:postcode": "3012",
      "addr:street": "Neubr\u00fcckstrasse",
      "amenity": "cafe",
      "name": "Cafete",
      "opening_hours": "\"by appointment\"",
      "website": "https://cafete.ch/",
      "wheelchair": "limited"
    },
    "distance_to_station": 243.25600013256803
  },
  {
    "feature_type": "cafes",
    "lat": 46.9517603,
    "lon": 7.4383772,
    "tags": {
      "alt_name": "Mensa Gesellschaftsstrasse und Momento - Caff\u00e8 & Take Away",
      "amenity": "cafe",
      "contact:addr": "Gesellschaftsstrasse 2, 3012 Bern",
      "contact:email": "mensaunibe@zfv.ch",
      "contact:fax": "+41 31 6315021",
      "contact:phone": "+41 31 6315020",
      "indoor_seating": "yes",
      "level": "0",
      "name": "Momento - Caff\u00e8 & Take Away",
      "opening_hours": "Mo-Fr 08:00-17:00; Sa-Su off",
      "operator": "Genossenschaft ZFV-Unternehmungen",
      "outdoor_seating": "yes",
      "smoking": "no",
      "source": "survey and website",
      "takeaway": "yes",
      "website": "http://www.mensa.unibe.ch/standorte/gesellschaftsstrasse/"
    },
    "distance_to_station": 75.34444165889015
  },
  {
    "feature_type": "cafes",
    "lat": 46.9490113,
    "lon": 7.444409,
    "tags": {
      "alt_name": "Glatz am Waisenhausplatz",
      "amenity": "cafe",
      "brand": "Glatz",
      "brand:wikidata": "Q111731089",
      "contact:addr": "Waisenhausplatz 21, 3011 Bern",
      "contact:email": "info@glatz-bern.ch",
      "contact:facebook": "https://www.facebook.com/beckglatzconfiseur",
      "contact:fax": "+41 31 3002005",
      "contact:phone": "+41 31 3002021",
      "cuisine": "coffee_shop",
      "internet_access": "wlan",
      "internet_access:fee": "no",
      "name": "Glatz",
      "opening_hours": "Mo-Fr 06:30-19:00; Sa 07:00-17:00; Su 10:00-17:00",
      "smoking": "no",
      "source": "survey and website",
      "website": "https://www.glatz-bern.ch/kontakt/karte/"
    },
    "distance_to_station": 498.3630224248824
  },
  {
    "feature_type": "cafes",
    "lat": 46.9483021,
    "lon": 7.4416729,
    "tags": {
      "alt_name": "Spitalgasse 36, 3011 Bern",
      "amenity": "cafe",
      "contact:addr": "Spitalgasse",
      "contact:email": "info@confiserie-beeler.ch",
      "contact:fax": "+41 31 3125303",
      "contact:phone": "+41 31 3112808",
      "name": "Beeler",
      "operator": "Confiserie Beeler AG",
      "source": "website",
      "website": "https://www.confiserie-beeler.ch",
      "wheelchair": "yes"
    },
    "distance_to_station": 388.8409838632098
  },
  {
    "feature_type": "cafes",
    "lat": 46.9492454,
    "lon": 7.4436254,
    "tags": {
      "amenity": "cafe",
      "check_date:opening_hours": "2024-02-06",
      "contact:addr": "Aarbergergasse 3, 3011 Bern",
      "contact:email": "info@aengelibeck.ch",
      "contact:phone": "+41 31 311 02 11",
      "contact:website": "https://www.aengelibeck.ch/",
      "description": "Das Caf\u00e9 Schlaraffenland befindet sich in der B\u00e4ckerei \u00c4ngelibeck.",
      "level": "1",
      "name": "Schlaraffenland",
      "opening_hours": "Mo-Fr 07:00-18:00; Sa 07:00-16:00; Su,PH closed",
      "operator": "\u00c4ngelibeck",
      "outdoor_seating": "no"
    },
    "distance_to_station": 433.63080000424856
  },
  {
    "feature_type": "cafes",
    "lat": 46.9474178,
    "lon": 7.4408649,
    "tags": {
      "addr:city": "Bern",
      "addr:housenumber": "47-51",
      "addr:postcode": "3001",
      "addr:street": "Spitalgasse",
      "amenity": "cafe",
      "check_date:currency:XBT": "2023-04-18",
      "email": "info@energy-kitchen.ch",
      "indoor_seating": "yes",
      "name": "energyKitchen",
      "opening_hours": "Mo-We 06:30-21:00; Th-Fr 06:30-23:00; Sa 06:30-20:00; Su 10:30-19:00",
      "operator": "Energy Kitchen AG",
      "outdoor_seating": "yes",
      "phone": "+41 31 311 03 07",
      "website": "https://energy-kitchen.ch/cafe-bar-offen-mit-take-away/",
      "wheelchair": "yes"
    },
    "distance_to_station": 444.0716314956423
  },
  {
    "feature_type": "cafes",
    "lat": 46.9482941,
    "lon": 7.4413579,
    "tags": {
      "alt_name": "Tea-Room Eichenberger",
      "amenity": "cafe",
      "contact:addr": "Bahnhofplatz 5, 3011 Bern",
      "contact:email": "info@confiserie-eichenberger.ch",
      "contact:fax": "+41 31 3114267",
      "contact:phone": "+41 31 3113325",
      "name": "Eichenberger",
      "opening_hours": "Mo-Fr 07:00-19:00; Sa 07:00-17:00; Su off",
      "operator": "Confiserie Eichenberger AG",
      "source": "website",
      "website": "https://www.confiserie-eichenberger.ch/filialen/tea-room",
      "wheelchair": "yes"
    },
    "distance_to_station": 375.72465532625245
  },
  {
    "feature_type": "cafes",
    "lat": 46.9475612,
    "lon": 7.4417876,
    "tags": {
      "alt_name": "Confiserie Tea-Room Monnier",
      "amenity": "cafe",
      "check_date": "2024-07-30",
      "contact:addr": "Schauplatzgasse 26, 3011 Bern",
      "contact:email": "info@monniermurten.ch",
      "contact:fax": "+41 31 3117174",
      "contact:phone": "+41 31 3117173",
      "contact:website": "https://www.monniermurten.ch/de/kontakt/",
      "levels": "1",
      "name": "Monnier",
      "opening_hours": "Mo-Fr 07:00-18:30; Sa 07:00-17:30",
      "source": "survey and website",
      "toilets:wheelchair": "yes",
      "website": "https://www.monniermurten.ch/de/standorte/",
      "wheelchair": "yes"
    },
    "distance_to_station": 461.9353116751838
  },
  {
    "feature_type": "cafes",
    "lat": 46.9505859,
    "lon": 7.4434432,
    "tags": {
      "alt_name": "Repair Caf\u00e9 Bern",
      "amenity": "cafe",
      "contact:addr": "Speichergasse 4, 3011 Bern",
      "contact:email": "info@repair-cafe-bern.ch",
      "contact:mobile": "+41 79 2972299",
      "name": "Repair Caf\u00e9",
      "opening_hours:url": "https://www.repair-cafe-bern.ch/Termine.php",
      "operator": "Verein Repair Caf\u00e9 Bern",
      "source": "Survey and website",
      "toilets:wheelchair": "yes",
      "website": "https://www.repair-cafe-bern.ch",
      "wheelchair": "yes"
    },
    "distance_to_station": 372.03875597337804
  },
  {
    "feature_type": "cafes",
    "lat": 46.9474592,
    "lon": 7.43573,
    "tags": {
      "addr:city": "Bern",
      "addr:housenumber": "18a",
      "addr:postcode": "3008",
      "addr:street": "Laupenstrasse",
      "alt_name": "WonderWaffel Bern",
      "amenity": "cafe",
      "branch": "Bern",
      "brand": "WonderWaffel",
      "brand:wikidata": "Q105051786",
      "check_date:opening_hours": "2025-04-15",
      "contact:addr": "Laupenstrasse 18a, 3008 Bern",
      "contact:email": "wonderpartner@gmx.ch",
      "contact:phone": "+41 79 7614084",
      "cuisine": "waffle",
      "drive_through": "no",
      "name": "WonderWaffel",
      "opening_hours": "Mo-Th 10:00-21:00; Fr 10:00-22:00; Sa 10:00-23:00; Su 10:00-20:00",
      "operator": "WonderWaffel Schweiz",
      "payment:american_express": "yes",
      "payment:cash": "yes",
      "payment:debit_cards": "yes",
      "payment:mastercard": "yes",
      "payment:visa": "yes",
      "takeaway": "yes",
      "website": "https://www.wonderwaffel.ch/"
    },
    "distance_to_station": 459.73233316943794
  },
  {
    "feature_type": "cafes",
    "lat": 46.9476764,
    "lon": 7.4391516,
    "tags": {
      "addr:city": "Bern",
      "addr:housenumber": "2",
      "addr:postcode": "3011",
      "addr:street": "Bahnhofplatz",
      "amenity": "cafe",
      "check_date": "2023-06-30",
      "name": "BEGH Caf\u00e9 Bar",
      "opening_hours": "Mo-Sa 09:00-20:00",
      "website": "https://www.begh.ch/cafebar",
      "wheelchair": "yes"
    },
    "distance_to_station": 382.9825799339487
  },
  {
    "feature_type": "cafes",
    "lat": 46.9530146,
    "lon": 7.4330702,
    "tags": {
      "amenity": "cafe",
      "check_date": "2025-03-17",
      "name": "Mira",
      "opening_hours": "Mo 09:00-18:00; Tu-Th 09:00-22:00; Fr 09:00-24:00; Sa 15:00-24:00",
      "website": "https://www.cafemira.ch/"
    },
    "distance_to_station": 470.63221580065016
  },
  {
    "feature_type": "cafes",
    "lat": 46.9479551,
    "lon": 7.4365311,
    "tags": {
      "addr:city": "Bern",
      "addr:housenumber": "5",
      "addr:postcode": "3000",
      "addr:street": "Schanzenstrasse",
      "amenity": "cafe",
      "brand": "Coffee Fellows",
      "brand:wikidata": "Q23461429",
      "cuisine": "coffee_shop",
      "email": "bern.welle7@coffee-fellows.ch",
      "level": "2",
      "name": "Coffee Fellows",
      "opening_hours": "Mo-Fr 06:00-21:00; Sa 07:00-21:00; Su off",
      "takeaway": "yes",
      "website": "https://coffee-fellows.com/en/locations/schweiz-bern-welle-7"
    },
    "distance_to_station": 383.3410269245901
  },
  {
    "feature_type": "cafes",
    "lat": 46.948962,
    "lon": 7.4416905,
    "tags": {
      "amenity": "cafe",
      "brand": "Tchibo",
      "brand:wikidata": "Q564213",
      "levels": "2",
      "name": "Tchibo",
      "opening_hours": "Mo-Fr 08:00-19:00; Sa 08:00-17:00",
      "operator": "Tchibo",
      "outdoor_seating": "no",
      "shop": "coffee"
    },
    "distance_to_station": 333.9889228231143
  },
  {
    "feature_type": "cafes",
    "lat": 46.9478969,
    "lon": 7.4362682,
    "tags": {
      "amenity": "cafe",
      "cuisine": "bubble_tea",
      "name": "CH\u00c1F\u00da Bubble Tea",
      "opening_hours": "Mo-Fr 11:00-19:00; Sa 11:00-18:00",
      "website": "https://www.welle7.ch/en/shopping-enjoyment/chf-bubble-tea"
    },
    "distance_to_station": 397.724112060131
  },
  {
    "feature_type": "cafes",
    "lat": 46.9498828,
    "lon": 7.4407976,
    "tags": {
      "amenity": "cafe",
      "name": "Acai Attendant",
      "opening_hours": "We-Fr 08:00-16:00; Sa,Su 09:00-16:00",
      "website": "https://www.acai-attendant.ch/"
    },
    "distance_to_station": 214.81119651269205
  },
  {
    "feature_type": "cafes",
    "lat": 46.948595,
    "lon": 7.4397872,
    "tags": {
      "amenity": "cafe",
      "description": "Das Caf\u00e9 befindet sich in der Buchhandlung Orell F\u00fcssli.",
      "level": "1",
      "name": "Adriano's",
      "opening_hours": "Mo-Fr 05:45-19:00; Sa 06:45-19:00; Su,PH 08:00-19:00"
    },
    "distance_to_station": 292.75786637017427
  },
  {
    "feature_type": "cafes",
    "lat": 46.9486906,
    "lon": 7.4400074,
    "tags": {
      "addr:city": "Bern",
      "addr:country": "CH",
      "addr:floor": "-1",
      "addr:housenumber": "10a",
      "addr:postcode": "3011",
      "addr:street": "Bahnhofplatz",
      "alt_name": "Caff\u00e8 Spettacolo Bern Bahnhof",
      "amenity": "cafe",
      "branch": "Bern Bahnhof (Halle)",
      "brand": "Caff\u00e8 Spettacolo",
      "brand:wikidata": "Q111728781",
      "contact:fax": "+41 31 3181151",
      "contact:phone": "+41 31 3181150",
      "cuisine": "coffee_shop",
      "indoor": "yes",
      "indoor_seating": "yes",
      "level": "-1",
      "name": "Caff\u00e8 Spettacolo",
      "opening_hours": "Mo-Sa 05:00-21:00; Su 06:00-20:00",
      "operator": "Valora",
      "outdoor_seating": "no",
      "smoking": "yes",
      "source": "website and survey",
      "takeaway": "yes",
      "toilets:wheelchair": "yes",
      "website": "https://www.spettacolo.ch/",
      "wheelchair": "yes"
    },
    "distance_to_station": 288.42681954460613
  },
  {
    "feature_type": "cafes",
    "lat": 46.9489976,
    "lon": 7.4402237,
    "tags": {
      "addr:city": "Bern",
      "addr:country": "CH",
      "addr:floor": "-1",
      "addr:postcode": "3011",
      "addr:street": "Bahnhofplatz",
      "alt_name": "Starbucks Coffee",
      "amenity": "cafe",
      "brand": "Starbucks",
      "brand:wikidata": "Q37158",
      "cuisine": "coffee_shop",
      "indoor": "yes",
      "indoor_seating": "yes",
      "level": "-1",
      "name": "Starbucks",
      "official_name": "Starbucks Coffee",
      "outdoor_seating": "no",
      "takeaway": "yes",
      "toilets:wheelchair": "no",
      "wheelchair": "yes"
    },
    "distance_to_station": 264.27519636070554
  }
]