[
  {
    "feature_type": "restaurants",
    "lat": 46.9287608,
    "lon": 7.4162688,
    "tags": {
      "alt_name": "Caf\u00e9 Restaurant Pizzeria Rondell",
      "amenity": "restaurant",
      "check_date": "2025-02-23",
      "contact:email": "restaurant@rondell1.ch",
      "contact:fax": "+41 31 9716842",
      "contact:phone": "+41 31 9726969",
      "name": "Rondell",
      "old_name": "Kebabistan",
      "opening_hours": "09:00-23:30",
      "operator": "Restaurant Rondell Dias Soares (Einzelunternehmen)",
      "website": "https://www.rondell1.ch/",
      "wheelchair": "no"
    },
    "distance_to_station": 290.26144858827365
  },
  {
    "feature_type": "restaurants",
    "lat": 46.9320424,
    "lon": 7.4210797,
    "tags": {
      "alt_name": "Landhaus Liebefeld",
      "amenity": "restaurant",
      "email": "info@landhaus-liebefeld.ch",
      "name": "Landhaus",
      "opening_hours": "Mo-Fr 07:00-00:30, Sa 09:00-00:30, Su off",
      "phone": "+41 31 9710758",
      "website": "https://www.landhaus-liebefeld.ch/"
    },
    "distance_to_station": 231.22406648880957
  },
  {
    "feature_type": "restaurants",
    "lat": 46.9326961,
    "lon": 7.4221262,
    "tags": {
      "alt_name": "Restaurant Pizzeria Fratelli",
      "amenity": "restaurant",
      "check_date": "2022-09-23",
      "contact:facebook": "https://www.facebook.com/pages/Pizza-Fratelli/153008624753358",
      "cuisine": "italian",
      "delivery": "yes",
      "name": "Fratelli",
      "opening_hours": "Mo-Fr 10:00-14:00,17:00-22:00; Sa,Su 17:00-22:00",
      "opening_hours:delivery": "17:30-22:00",
      "payment:mastercard": "yes",
      "payment:twint": "yes",
      "payment:visa": "yes",
      "phone": "+41 31 9726070",
      "takeaway": "yes",
      "website": "https://pizza-fratelli.ch/",
      "wheelchair": "limited"
    },
    "distance_to_station": 337.4249818113824
  },
  {
    "feature_type": "restaurants",
    "lat": 46.9328058,
    "lon": 7.4222033,
    "tags": {
      "addr:city": "Liebefeld",
      "addr:housenumber": "120",
      "addr:street": "Schwarzenburgstrasse",
      "amenity": "restaurant",
      "check_date": "2025-06-24",
      "cuisine": "chinese",
      "email": "bokybern@gmail.com",
      "name": "Boky",
      "opening_hours": "Tu-Fr 11:30-14:00,18:00-22:00; Sa-Su 18:00-22:00",
      "outdoor_seating": "no",
      "phone": "+41 31 382 28 28",
      "website": "https://www.boky.ch"
    },
    "distance_to_station": 350.5671907023972
  },
  {
    "feature_type": "restaurants",
    "lat": 46.9288686,
    "lon": 7.4157639,
    "tags": {
      "alt_name": "Dschingis Mongolian Barbecue Bern-Liebefeld",
      "amenity": "restaurant",
      "contact:facebook": "http://www.facebook.com/pages/HAN-Mongolian-Barbecue/106362449407289",
      "contact:fax": "+41 31 9710266",
      "contact:phone": "+41 31 9710224",
      "name": "Dschingis Mongolian Barbecue",
      "opening_hours": "Mo-Th 11:00-14:00,18:00-23:30, Fr,Sa 11:00-14:00, Su 11:30-14:30,18:00-23:00, Fr,Sa 18:00-24:00",
      "website": "https://www.dschingis.restaurant/bern-liebefeld-1/",
      "wheelchair": "yes"
    },
    "distance_to_station": 314.9496568318105
  },
  {
    "feature_type": "restaurants",
    "lat": 46.9315938,
    "lon": 7.4208469,
    "tags": {
      "amenity": "restaurant",
      "name": "Restaurant Rustica"
    },
    "distance_to_station": 181.10106344637498
  },
  {
    "feature_type": "restaurants",
    "lat": 46.9312673,
    "lon": 7.4197613,
    "tags": {
      "amenity": "restaurant",
      "name": "Culinarium",
      "operator": "SV Service",
      "smoking": "separated",
      "takeaway": "yes"
    },
    "distance_to_station": 107.04644064196239
  },
  {
    "feature_type": "restaurants",
    "lat": 46.9331945,
    "lon": 7.4173533,
    "tags": {
      "amenity": "restaurant",
      "contact:mobile": "+41 78 765 48 89",
      "contact:phone": "+41 31 971 41 41",
      "description": "Buffet mit indischer und sri-lankanischer K\u00fcche. Takeaway ab 11.-",
      "level": "1",
      "name": "Bollyfood Restaurant & Takeaway",
      "opening_hours": "Mo-Fr 11:00-14:30, 18:00-22:30",
      "website": "http://www.bollyfood-liebefeld.ch"
    },
    "distance_to_station": 347.8007341363922
  },
  {
    "feature_type": "restaurants",
    "lat": 46.9299922,
    "lon": 7.4162351,
    "tags": {
      "amenity": "restaurant",
      "check_date": "2025-05-08",
      "cuisine": "indian",
      "email": "info@ganesha-koniz.ch",
      "name": "Ganesha",
      "opening_hours": "Mo-Fr 11:00-22:00; Sa-Su 17:30-22:00",
      "phone": "+41 31 558 16 61",
      "website": "https://www.ganesha-koniz.ch"
    },
    "distance_to_station": 235.54781067643628
  },
  {
    "feature_type": "restaurants",
    "lat": 46.9328294,
    "lon": 7.4198141,
    "tags": {
      "addr:city": "Liebefeld",
      "addr:housenumber": "27",
      "addr:postcode": "3097",
      "addr:street": "Waldeggstrasse",
      "alt_name": "Dreig\u00e4nger Second Hand Shop",
      "amenity": "restaurant",
      "contact:email": "info@dreigaenger.ch",
      "contact:facebook": "https://www.facebook.com/dreigaenger/",
      "diet:vegan": "yes",
      "diet:vegetarian": "yes",
      "name": "Dreig\u00e4nger",
      "opening_hours": "Mo-Fr 09:00-17:00",
      "outdoor_seating": "yes",
      "phone": "+41 31 979 70 70",
      "takeaway": "yes",
      "website": "https://dreigaenger.ch",
      "wheelchair": "yes"
    },
    "distance_to_station": 277.45359236086426
  },
  {
    "feature_type": "restaurants",
    "lat": 46.9328646,
    "lon": 7.415824,
    "tags": {
      "addr:city": "Liebefeld",
      "addr:country": "CH",
      "addr:housenumber": "199",
      "addr:postcode": "3097",
      "addr:street": "K\u00f6nizstrasse",
      "amenity": "restaurant",
      "cuisine": "pizza;kebab",
      "name": "Bro's Pizza & Kebab Haus",
      "opening_hours": "Mo-Fr 11:00-14:00, 17:00-22:00; Sa-Su 11:00-22:00",
      "outdoor_seating": "yes",
      "smoking": "no",
      "takeaway": "yes",
      "website": "https://brospizzakebab.ch",
      "wheelchair": "limited"
    },
    "distance_to_station": 383.1775638735496
  },
  {
    "feature_type": "restaurants",
    "lat": 46.9284544,
    "lon": 7.416711,
    "tags": {
      "addr:city": "Liebefeld",
      "addr:housenumber": "253",
      "addr:postcode": "3097",
      "addr:street": "K\u00f6nizstrasse",
      "amenity": "restaurant",
      "check_date": "2025-07-26",
      "cuisine": "tibetan",
      "diet:vegan": "yes",
      "diet:vegetarian": "yes",
      "name": "Tibetan Snow Lion",
      "opening_hours": "Mo-Fr 10:00-14:00,17:00-22:00; Sa,Su 17:00-22:00",
      "payment:twint": "yes",
      "proposed:amenity": "restaurant",
      "shop": "vacant",
      "start_date": "2020-12",
      "takeaway": "yes"
    },
    "distance_to_station": 288.5315274900788
  },
  {
    "feature_type": "restaurants",
    "lat": 46.9302057,
    "lon": 7.4161589,
    "tags": {
      "alt_name": "Pho Saigon B\u00f9i",
      "amenity": "restaurant",
      "contact:addr": "K\u00f6nizstrasse 236, 3097 Liebefeld",
      "contact:mobile": "+ 41 78 8489198",
      "cuisine": "vietnamese",
      "name": "Pho Saigon",
      "opening_hours": "Mo-Fr 11:00-14:00, 17:00-22:00; Sa 11:00-22:00; Su off; PH off",
      "source": "survey and website",
      "website": "https://pho-saigon.ch"
    },
    "distance_to_station": 238.37413304127267
  }
]