[
  {
    "feature_type": "restaurants",
    "lat": 46.9459784,
    "lon": 7.4351935,
    "tags": {
      "alt_name": "Ristorante Da Carlo - City West",
      "amenity": "restaurant",
      "contact:addr": "Effingerstrasse 14, 3011 Bern",
      "contact:email": "info@da-carlo.ch",
      "contact:fax": "+41 31 3821526",
      "contact:phone": "+41 31 3811818",
      "cuisine": "italian",
      "delivery": "yes",
      "name": "Da Carlo",
      "opening_hours": "Mo-Sa 11:30-14:30, 17:30-23:30; Su off",
      "outdoor_seating": "yes",
      "payment:cards": "yes",
      "payment:cash": "yes",
      "payment:contactless": "yes",
      "reservation": "yes",
      "source": "survey and website",
      "website": "https://www.da-carlo.ch/"
    },
    "distance_to_station": 488.8791629055334
  },
  {
    "feature_type": "restaurants",
    "lat": 46.9415952,
    "lon": 7.4311571,
    "tags": {
      "alt_name": "Eiger Brasserie",
      "amenity": "restaurant",
      "brand": "FONDATION gad STIFTUNG",
      "contact:addr": "Belpstrasse 73, 3007 Bern",
      "contact:email": "geniessen@eigerbern.ch",
      "contact:facebook": "https://www.facebook.com/eigerbern",
      "contact:phone": "+41 31 3711365",
      "contact:website": "http://eigerbrasserie.ch/kontakt-lageplan",
      "name": "Eiger",
      "note": "name operator according to zefix.ch",
      "opening_hours": "Mo-Fr 11:30-23:30; Sa 17:30-23:30; Su off; PH off",
      "operator": "gad Stiftung",
      "outdoor_seating": "yes",
      "source": "survey and website",
      "toilets:wheelchair": "no",
      "website": "http://www.eigerbrasserie.ch",
      "wheelchair": "limited"
    },
    "distance_to_station": 370.5408657146279
  },
  {
    "feature_type": "restaurants",
    "lat": 46.9418223,
    "lon": 7.4312926,
    "tags": {
      "amenity": "restaurant",
      "check_date": "2022-09-12",
      "contact:addr": "Belpstrasse 69. 3007 Bern",
      "cuisine": "thai",
      "diet:vegan": "yes",
      "diet:vegetarian": "yes",
      "name": "Nari",
      "opening_hours": "Mo-Fr 11:00-14:00,18:00-21:00",
      "outdoor_seating": "yes",
      "payment:american_express": "yes",
      "payment:cash": "yes",
      "payment:diners_club": "yes",
      "payment:jcb": "yes",
      "payment:maestro": "yes",
      "payment:mastercard": "yes",
      "payment:postfinance_card": "yes",
      "payment:twint": "yes",
      "payment:visa": "yes",
      "phone": "+41 31 372 25 25",
      "source": "survey",
      "takeaway": "yes",
      "website": "https://nari.be/"
    },
    "distance_to_station": 352.66626823121663
  },
  {
    "feature_type": "restaurants",
    "lat": 46.9420149,
    "lon": 7.4314041,
    "tags": {
      "alt_name": "Pizzeria Eigerplatz Da Nino",
      "amenity": "restaurant",
      "contact:addr": "Belpstrasse 65, 3007 Bern",
      "contact:email": "info@pizzeriadanino.ch",
      "contact:facebook": "https://www.facebook.com/Pizzeria-da-Nino-108891017357437/",
      "contact:fax": "+41 31 3721134",
      "contact:phone": "+41 31 3711131",
      "cuisine": "italian",
      "indoor_seating": "yes",
      "name": "da Nino",
      "opening_hours": "Mo-Fr 11:30-22:30",
      "operator": "Antonio Bucolo",
      "outdoor_seating": "yes",
      "payment:cash": "yes",
      "payment:credit_cards": "yes",
      "payment:debit_cards": "yes",
      "smoking": "no",
      "takeaway": "yes",
      "website": "https://pizzeriadanino.ch/",
      "wheelchair": "no"
    },
    "distance_to_station": 338.3544827945224
  },
  {
    "feature_type": "restaurants",
    "lat": 46.9429002,
    "lon": 7.4319485,
    "tags": {
      "addr:postcode": "3007",
      "amenity": "restaurant",
      "check_date": "2025-07-21",
      "contact:addr": "Belpstrasse 45, 3007 Bern",
      "contact:facebook": "yaadeinindianrestaurant.chch",
      "cuisine": "indian",
      "email": "reservations@indian-yaadein.ch",
      "name": "Yaadein",
      "opening_hours": "Mo-Fr 11:00-14:00; Mo-Fr 17:00-22:00; Sa-Su 12:00-22:00",
      "phone": "+41 31 382 51 50",
      "website": "https://www.indian-yaadein.ch/"
    },
    "distance_to_station": 289.3389203540285
  },
  {
    "feature_type": "restaurants",
    "lat": 46.9483374,
    "lon": 7.4282688,
    "tags": {
      "addr:city": "Bern",
      "addr:country": "CH",
      "addr:housenumber": "2",
      "addr:postcode": "3008",
      "addr:street": "Murtenstrasse",
      "alt_name": "Azzurro Terra e Mare",
      "amenity": "restaurant",
      "contact:email": "info@ristorante-azzurro.ch",
      "contact:fax": "+41 31 3858585",
      "contact:phone": "+41 31 3858585",
      "cuisine": "italian",
      "indoor_seating": "yes",
      "name": "Azzurro",
      "opening_hours": "Mo-Th 09:00-23:00; Fr 09:00-23:30; Sa 10:00-23:30; Su 10:00-23:00",
      "outdoor_seating": "yes",
      "source": "survey and website",
      "website": "https://www.ristorante-azzurro.ch/",
      "wheelchair": "no"
    },
    "distance_to_station": 419.08167809295077
  },
  {
    "feature_type": "restaurants",
    "lat": 46.9446901,
    "lon": 7.4322271,
    "tags": {
      "alt_name": "\u00e4ngelibeck Cafeteria und Good Food",
      "amenity": "restaurant",
      "contact:addr": "Schwarztorstrasse 48, 3007 Bern",
      "contact:email": "info@aengelibeck.ch",
      "contact:phone": "+41 31 3813441",
      "name": "\u00e4ngelibeck",
      "opening_hours": "Mo-Fr 08:00-16:00; Sa-Su off",
      "source": "survey and website",
      "website": "https://www.aengelibeck.ch/"
    },
    "distance_to_station": 239.54041367406285
  },
  {
    "feature_type": "restaurants",
    "lat": 46.9454979,
    "lon": 7.4335432,
    "tags": {
      "addr:postcode": "3007",
      "amenity": "restaurant",
      "contact:addr": "Belpstrasse 11, 3007 Bern",
      "contact:email": "info@india4u.ch",
      "contact:phone": "+41 31 3813919",
      "cuisine": "indian",
      "diet:halal": "yes",
      "diet:vegetarian": "yes",
      "name": "India4u",
      "opening_hours": "Mo-Fr 10:30-14:00, 17:00-22:00; Sa-Su 17:00-22:00",
      "outdoor_seating": "no",
      "source": "Visiting",
      "takeaway": "yes",
      "website": "https://www.india4u.ch"
    },
    "distance_to_station": 353.38737910705953
  },
  {
    "feature_type": "restaurants",
    "lat": 46.941157,
    "lon": 7.4306926,
    "tags": {
      "amenity": "restaurant",
      "cuisine": "pizza",
      "name": "Da Rina",
      "source": "survey"
    },
    "distance_to_station": 403.01429330155054
  },
  {
    "feature_type": "restaurants",
    "lat": 46.9408533,
    "lon": 7.4316053,
    "tags": {
      "addr:floor": "5",
      "amenity": "restaurant",
      "contact:addr": "Eigerplatz 5, 3007 Bern",
      "contact:facebook": "https://de-de.facebook.com/pages/category/Halal-Restaurant/Alsafir-Restaurant-1609713135732193/",
      "cuisine": "oriental;lebanese",
      "diet:halal": "yes",
      "level": "1",
      "mobile": "+41 79 479 16 55",
      "name": "Alsafir",
      "old_name": "Tea-Room Bajrami Sadik",
      "opening_hours": "Mo-Fr 11:30-14:00, 17:30-00:00; Sa 10:00-14:00, 17:00-00:30; Su 17:30-23:00",
      "operator": "al safir GmbH",
      "outdoor_seating": "yes",
      "phone": "+41 31 8298787",
      "website": "http://www.alsafir.ch",
      "wheelchair": "limited"
    },
    "distance_to_station": 459.68934570795784
  },
  {
    "feature_type": "restaurants",
    "lat": 46.9419805,
    "lon": 7.4318855,
    "tags": {
      "amenity": "restaurant",
      "check_date": "2024-11-27",
      "contact:addr": "M\u00fchlemattstrasse 62, 3007 Bern",
      "cuisine": "lebanese",
      "diet:vegetarian": "yes",
      "email": "info@mezzedebeirut.com",
      "name": "Mezze de Beirut",
      "opening_hours": "Mo-Th 11:00-14:00,17:30-23:00; Fr-Sa 17:30-23:00",
      "phone": "+41 31 506 00 91",
      "website": "https://mezzedebeirut.com"
    },
    "distance_to_station": 361.89802089173565
  },
  {
    "feature_type": "restaurants",
    "lat": 46.9447836,
    "lon": 7.4294875,
    "tags": {
      "addr:postcode": "3007",
      "amenity": "restaurant",
      "check_date": "2025-05-22",
      "contact:mobile": "+41 76 307 83 38",
      "cuisine": "asian",
      "name": "F\u00f9 Lin",
      "opening_hours": "Mo-Fr 10:30-14:00,17:00-21:00; Sa-Su 17:00-21:30",
      "takeaway": "yes"
    },
    "distance_to_station": 36.927063732930634
  },
  {
    "feature_type": "restaurants",
    "lat": 46.9477884,
    "lon": 7.4289947,
    "tags": {
      "amenity": "restaurant",
      "contact:addr": "Laupenstrasse 57, 3008 Bern",
      "contact:facebook": "https://facebook.com/bigoteverdebern/",
      "cuisine": "mexican",
      "email": "info@bigoteverde.ch",
      "name": "Bigote Verde",
      "old_name": "La Tavola Pronta",
      "opening_hours": "Mo-Fr 11:30-14:00, 17:30-22:00; Sa 14:00-23:00; Su off",
      "operator": "Bigote Verde GmbH",
      "phone": "+41 76 417 65 57",
      "website": "https://www.bigoteverde.com"
    },
    "distance_to_station": 353.60650300320566
  },
  {
    "feature_type": "restaurants",
    "lat": 46.9425205,
    "lon": 7.4334896,
    "tags": {
      "amenity": "restaurant",
      "check_date:opening_hours": "2025-05-26",
      "contact:addr": "M\u00fchlemattstrasse 48, 3007 Bern",
      "contact:email": "contact@musigbistrot.ch",
      "contact:phone": "+41 31 3721032",
      "name": "musigbistrot",
      "opening_hours": "Mo-Fr 10:00-23:30; Sa 18:00-00:30",
      "source": "survey and website",
      "website": "http://www.musigbistrot.ch"
    },
    "distance_to_station": 407.7882003911206
  },
  {
    "feature_type": "restaurants",
    "lat": 46.9461258,
    "lon": 7.4342407,
    "tags": {
      "addr:city": "Bern",
      "addr:country": "CH",
      "addr:housenumber": "20",
      "addr:postcode": "3008",
      "addr:street": "Effingerstrasse",
      "amenity": "restaurant",
      "contact:email": "info@allresto.ch",
      "contact:fax": "+41 31 3820350",
      "contact:phone": "+41 31 3819038",
      "cuisine": "lebanese",
      "name": "Allresto",
      "opening_hours": "Mo-Fr 07:30-22:00; Sa-Su off",
      "operator": "Allresto GmbH",
      "source": "survey and website",
      "website": "https://www.allresto.ch/"
    },
    "distance_to_station": 426.9579905229817
  },
  {
    "feature_type": "restaurants",
    "lat": 46.9424116,
    "lon": 7.4316794,
    "tags": {
      "alt_name": "Restaurant Frohegg",
      "amenity": "restaurant",
      "contact:addr": "Belpstrasse 51, 3007 Bern",
      "contact:email": "frohegg@bluewin.ch",
      "contact:fax": "+41 31 3822527",
      "contact:phone": "+41 31 3822524",
      "cuisine": "french;swiss;local",
      "indoor_seating": "yes",
      "name": "Frohegg",
      "opening_hours": "Mo-Fr 09:00-14:30,17:00-23:30; Sa,Su,PH off",
      "operator": "Andreas Kobel",
      "outdoor_seating": "yes",
      "payment:american_express": "no",
      "payment:cards": "yes",
      "payment:cash": "yes",
      "reservation": "yes",
      "source": "survey and website",
      "toilets:wheelchair": "no",
      "website": "https://www.frohegg.ch/",
      "wheelchair": "no"
    },
    "distance_to_station": 314.34758160491657
  },
  {
    "feature_type": "restaurants",
    "lat": 46.9487525,
    "lon": 7.4289738,
    "tags": {
      "addr:city": "Bern",
      "addr:country": "CH",
      "addr:housenumber": "5",
      "addr:postcode": "3012",
      "addr:street": "Lindenrain",
      "alcohol": "no",
      "alt_name": "Treffpunkt Azzurro",
      "amenity": "restaurant",
      "contact:email": "info@azzurro-bern.ch",
      "contact:phone": "+41 31 3057353",
      "name": "Azzurro",
      "old_name": "Caf\u00e9 Azzurro",
      "opening_hours": "Mo 14:00-21:00; Tu off; We 14:00-21:00; Th 14:00-18:00; Fr 14:00-21:00; Sa off; Su 15:00-21:00",
      "source": "survey and website",
      "website": "https://www.azzurro-bern.ch/"
    },
    "distance_to_station": 460.8210699721647
  },
  {
    "feature_type": "restaurants",
    "lat": 46.9434438,
    "lon": 7.4323312,
    "tags": {
      "alt_name": "Restaurant Ascom",
      "amenity": "restaurant",
      "contact:addr": "Belpstrasse 39, 3007 Bern",
      "contact:email": "mattehof@sv-group.ch",
      "contact:fax": "+41 31 3980747",
      "contact:phone": "+41 31 3980745",
      "indoor_seating": "yes",
      "level": "-1",
      "name": "Mattehof Gastronomie",
      "opening_hours": "Mo-Fr 11:30-13:15",
      "operator": "SV (Schweiz) AG",
      "outdoor_seating": "yes",
      "payment:cash": "yes",
      "payment:credit_cards": "yes",
      "payment:debit_cards": "yes",
      "source": "survey and website",
      "website": "https://mattehof.sv-restaurant.ch/"
    },
    "distance_to_station": 279.1526225488174
  },
  {
    "feature_type": "restaurants",
    "lat": 46.946784,
    "lon": 7.4324659,
    "tags": {
      "access": "private",
      "amenity": "restaurant",
      "contact:addr": "Schl\u00f6sslistrasse 5, 3008 Bern",
      "contact:email": "info@hausderuniversitaet.ch",
      "contact:phone": "+41 31 3818777",
      "name": "Haus der Universit\u00e4t",
      "note": "No public access. Upon request / reservation accessible for private persons as well",
      "opening_hours": "Mo-Fr 07:30-18:00; Sa-Su off",
      "operator": "Genossenschaft ZFV-Unternehmungen",
      "source": "survey and website",
      "website": "https://hausderuniversitaet.ch/restaurant/",
      "wheelchair": "yes"
    },
    "distance_to_station": 353.276426759764
  },
  {
    "feature_type": "restaurants",
    "lat": 46.945812,
    "lon": 7.4276276,
    "tags": {
      "amenity": "restaurant",
      "contact:addr": "Effingerstrasse 92, 3008 Bern",
      "contact:facebook": "https://www.facebook.com/Little-Panda-1328041447262313",
      "contact:phone": "+41 79 2382988",
      "cuisine": "asian;chinese",
      "name": "Little Panda",
      "name:de": "Little Panda",
      "opening_hours": "Mo-Fr 11:30-14:00, 18:00-21:00; Sa 18:00-21:00",
      "source": "survey and website",
      "takeaway": "yes",
      "website": "https://www.little-panda.ch/"
    },
    "distance_to_station": 173.07231914462193
  },
  {
    "feature_type": "restaurants",
    "lat": 46.9459817,
    "lon": 7.4290492,
    "tags": {
      "amenity": "restaurant",
      "contact:addr": "Effingerstrasse 64, 3008 Bern",
      "contact:email": "info@prima-luna.ch",
      "contact:phone": "+41 31 3111122",
      "name": "Prima Luna",
      "opening_hours": "Mo-Fr 07:00-15:00; Sa-Su off; PH off"
    },
    "distance_to_station": 152.6710293869791
  },
  {
    "feature_type": "restaurants",
    "lat": 46.946742,
    "lon": 7.4257487,
    "tags": {
      "amenity": "restaurant",
      "level": "1",
      "level:ref": "U2",
      "name": "Sole",
      "opening_hours": "Mo-Fr 07:30-16:00",
      "outdoor_seating": "no",
      "self_service": "yes"
    },
    "distance_to_station": 346.3830192768318
  },
  {
    "feature_type": "restaurants",
    "lat": 46.9489948,
    "lon": 7.4297054,
    "tags": {
      "addr:city": "Bern",
      "addr:housenumber": "1",
      "addr:postcode": "3012",
      "addr:street": "Niesenweg",
      "amenity": "restaurant",
      "name": "Gurtenblick",
      "opening_hours": "Mo-Su 08:00-18:00",
      "phone": "+41 31 300 36 36",
      "reservation": "no",
      "website": "https://www.tertianum.ch/de/tertianum-wohn-und-pflegezentrum-residence-bern/restaurant-gurtenblick"
    },
    "distance_to_station": 490.0512225845982
  },
  {
    "feature_type": "restaurants",
    "lat": 46.9476613,
    "lon": 7.4275556,
    "tags": {
      "amenity": "restaurant",
      "contact:addr": "Freiburgstrasse 3, 3010 Bern",
      "contact:email": "flavourkitchen@zfv.ch",
      "contact:phone": "+41 31 5334265",
      "indoor_seating": "yes",
      "level": "0",
      "name": "Flavour Kitchen",
      "old_name": "Lilly Jo",
      "operator": "ZFV",
      "outdoor_seating": "yes",
      "self_service": "only",
      "smoking": "outside",
      "takeaway": "yes",
      "website": "https://flavourkitchen.ch/",
      "wheelchair": "yes"
    },
    "distance_to_station": 358.4572143988869
  },
  {
    "feature_type": "restaurants",
    "lat": 46.9481147,
    "lon": 7.4275898,
    "tags": {
      "amenity": "restaurant",
      "check_date": "2024-12-05",
      "cuisine": "lebanese;kebab",
      "diet:vegan": "yes",
      "diet:vegetarian": "yes",
      "indoor_seating": "yes",
      "name": "Orient Grill",
      "old_name": "Sultan Grill",
      "opening_hours": "Mo-Sa 10:30-21:00; Su 10:00-20:00",
      "outdoor_seating": "yes",
      "payment:cash": "yes",
      "payment:mastercard": "yes",
      "payment:visa": "yes",
      "phone": "+41 31 382 29 59",
      "takeaway": "yes"
    },
    "distance_to_station": 405.79060249463413
  },
  {
    "feature_type": "restaurants",
    "lat": 46.9407874,
    "lon": 7.4306266,
    "tags": {
      "alt_name": "Al Taglio da Rina",
      "amenity": "restaurant",
      "capacity": "10",
      "contact:addr": "Eigerplatz 10, 3007 Bern",
      "contact:email": "info@darina.ch",
      "contact:phone": "+41 31 3724161",
      "cuisine": "italian;pizza",
      "indoor_seating": "yes",
      "name": "Da Rina",
      "opening_hours": "Mo-Th 10:00-23:00; Fr,Sa 10:00-23:30; Su,PH off",
      "operator": "DaRina AG",
      "outdoor_seating": "yes",
      "website": "https://www.darina.ch"
    },
    "distance_to_station": 440.9668196153364
  },
  {
    "feature_type": "restaurants",
    "lat": 46.9472818,
    "lon": 7.423821,
    "tags": {
      "amenity": "restaurant",
      "level": "1",
      "level:ref": "A",
      "name": "Punto",
      "opening_hours": "Mo-Fr 08:30-16:00",
      "opening_hours:kitchen": "Mo-Fr 11:00-14:00",
      "outdoor_seating": "yes",
      "self_service": "only",
      "wheelchair": "yes"
    },
    "distance_to_station": 497.34079684586703
  },
  {
    "feature_type": "restaurants",
    "lat": 46.9472282,
    "lon": 7.4238939,
    "tags": {
      "amenity": "restaurant",
      "diet:vegetarian": "only",
      "level": "6",
      "level:ref": "G",
      "name": "Terrazza",
      "opening_hours": "Mo-Fr 08:30-16:00",
      "opening_hours:kitchen": "Mo-Fr 11:00-14:00",
      "outdoor_seating": "yes",
      "self_service": "only",
      "wheelchair": "yes"
    },
    "distance_to_station": 489.3443082128997
  },
  {
    "feature_type": "restaurants",
    "lat": 46.9448852,
    "lon": 7.4295033,
    "tags": {
      "addr:city": "Bern",
      "addr:housenumber": "30",
      "addr:postcode": "3007",
      "addr:street": "Zieglerstrasse",
      "amenity": "restaurant",
      "check_date": "2025-02-26",
      "contact:instagram": "famii.ramen",
      "cuisine": "ramen",
      "delivery": "yes",
      "delivery:partner": "Just Eat",
      "email": "famii.ramen@outlook.com",
      "name": "Famii Ramen",
      "opening_hours": "Mo-Fr 11:00-13:30,18:00-21:00",
      "website": "https://www.famii.ch/",
      "website:menu": "https://www.famii.ch/men%C3%BC"
    },
    "distance_to_station": 44.801418141833494
  }
]