[
  {
    "feature_type": "museums",
    "lat": 46.9476741,
    "lon": 7.449971,
    "tags": {
      "addr:city": "Bern",
      "addr:housenumber": "49",
      "addr:postcode": "3011",
      "addr:street": "Kramgasse",
      "alt_name": "Einstein Haus",
      "contact:addr": "Kramgasse 49, 3011 Bern",
      "contact:fax": "+41 31 3120041",
      "contact:phone": "+41 31 3120091",
      "contact:website": "http://www.einstein-bern.ch",
      "fee": "yes",
      "name": "Einsteinhaus",
      "name:de": "Einsteinhaus",
      "name:en": "Einstein House",
      "name:es": "Casa de Einstein",
      "name:fr": "Maison Einstein",
      "name:it": "Casa di Einstein",
      "name:ko": "\uc544\uc778\uc288\ud0c0\uc778 \ud558\uc6b0\uc2a4",
      "name:ru": "\u041c\u0443\u0437\u0435\u0439 \u042d\u0439\u043d\u0448\u0442\u0435\u0439\u043d\u0430",
      "name:zh": "\u7231\u56e0\u65af\u5766\u6545\u5c45",
      "opening_hours": "Feb, Mar Mo-Sa 13:00-17:00; Apr-Dec Mo-Su 13:00-17:00; 24/7 off",
      "source": "survey and website",
      "tourism": "museum",
      "website": "https://www.einstein-bern.ch",
      "wheelchair": "no",
      "wikidata": "Q390003",
      "wikimedia_commons": "Category:Einsteinhaus Bern"
    },
    "distance_to_station": 935.2804960071959
  },
  {
    "feature_type": "museums",
    "lat": 46.9481247,
    "lon": 7.4492337,
    "tags": {
      "addr:city": "Bern",
      "addr:housenumber": "60",
      "addr:postcode": "3011",
      "addr:street": "Kramgasse",
      "alt_name": "Zentrum f\u00fcr historische Musikinstrumente",
      "contact:addr": "Kramgasse 60, 3011 Bern",
      "contact:email": "kontakt@klingende-sammlung.ch",
      "contact:phone": "+41 31 3110137",
      "fee": "yes",
      "internet_access": "wlan",
      "level": "-1",
      "museum": "musical_instruments",
      "name": "Klingendes Museum Bern",
      "name:ko": "\ud074\ub9c1\uc5d4\ub4dc \uc0bc\ub871",
      "old_name": "Klingende Sammlung",
      "opening_hours": "Mo-Tu off; We-Sa 14:00-17:00; Su 11:00-17:00; PH off",
      "operator": "Stiftung Instrumentensammlung Burri",
      "source": "survey and website",
      "tourism": "museum",
      "website": "https://klingendes-museum-bern.ch/",
      "wheelchair": "yes",
      "wikidata": "Q85857777",
      "wikipedia": "de:Klingendes Museum Bern"
    },
    "distance_to_station": 903.0200314277415
  },
  {
    "feature_type": "museums",
    "lat": 46.9591844,
    "lon": 7.4503837,
    "tags": {
      "addr:city": "Bern",
      "addr:housenumber": "22",
      "addr:postcode": "3014",
      "addr:street": "Sch\u00fctzenweg",
      "contact:addr": "Sch\u00fctzenweg 22, 3014 Bern",
      "contact:email": "info@kulturmuseum.ch",
      "contact:facebook": "https://www.facebook.com/Kulturmuseum/",
      "contact:instagram": "https://www.instagram.com/kulturmuseum",
      "contact:website": "https://kulturmuseum.ch/kontakt",
      "name": "Kulturmuseum Bern",
      "source": "Orthofotos Bern",
      "tourism": "museum",
      "website": "https://kulturmuseum.ch"
    },
    "distance_to_station": 422.81245931161135
  },
  {
    "feature_type": "museums",
    "lat": 46.9512018,
    "lon": 7.4431395,
    "tags": {
      "addr:city": "Bern",
      "addr:housenumber": "12",
      "addr:postcode": "3011",
      "addr:street": "Hodlerstrasse",
      "building": "public",
      "contact:addr": "Hodlerstrasse 12, 3011 Bern",
      "contact:email": "info@kunstmuseumbern.ch",
      "contact:fax": "+41 31 3280955",
      "contact:phone": "+41 31 3280944",
      "description": "Das Kunstmuseum, Hodlerstrasse 12 ist Teil des Ensembles \"Kunstmuseum und Kunsthistorisches Seminar\", zusammen mit dem Kunsthistorisches Seminar, Hodlerstrasse 8, mit der jeweils gleichen KGS Nummer 634",
      "heritage": "2",
      "heritage:operator": "babs",
      "image": "https://upload.wikimedia.org/wikipedia/commons/thumb/6/69/Kunsthaus_di_berna%2C_ext.%2C_02.JPG/800px-Kunsthaus_di_berna%2C_ext.%2C_02.JPG",
      "museum": "art",
      "name": "Kunstmuseum Bern",
      "name:de": "Kunstmuseum Bern",
      "name:en": "Museum of Fine Arts Bern",
      "name:fr": "Mus\u00e9e des Beaux-Arts de Berne",
      "name:it": "Museo dell'Arte di Berna",
      "opening_hours": "Mo off; Tu 10:00-20:00; We-Su 10:00-17:00",
      "ref:kgs": "634",
      "tourism": "museum",
      "website": "https://www.kunstmuseumbern.ch/",
      "wheelchair": "yes",
      "wikidata": "Q19362502",
      "wikimedia_commons": "Category:Kunstmuseum Bern",
      "wikipedia": "de:Kunstmuseum Bern"
    },
    "distance_to_station": 909.6763875203267
  }
]