[
  {
    "feature_type": "pharmacies",
    "lat": 46.9481155,
    "lon": 7.4480727,
    "tags": {
      "alt_name": "Central-Apotheke Volz",
      "amenity": "pharmacy",
      "contact:addr": "Zytgloggelaube 2, 3011 Bern",
      "contact:email": "info@central-apotheke-volz.ch",
      "contact:fax": "+41 31 3111024",
      "contact:phone": "+41 31 3111094",
      "dispensing": "yes",
      "healthcare": "pharmacy",
      "name": "Volz",
      "old_name": "Centralapotheke Volz",
      "opening_hours": "Mo-We 08:00-18:30; Th 08:00-20:00; Fr 08:00-19:00; Sa 08:00-17:00; Su off",
      "operator": "Centralapotheke Volz AG",
      "source": "survey and website",
      "website": "https://www.central-apotheke-volz.ch/",
      "wheelchair": "yes"
    },
    "distance_to_station": 213.00396320019962
  },
  {
    "feature_type": "pharmacies",
    "lat": 46.9430736,
    "lon": 7.4519886,
    "tags": {
      "addr:city": "Bern",
      "addr:country": "CH",
      "addr:housenumber": "15",
      "addr:postcode": "3005",
      "addr:street": "Thunstrasse",
      "amenity": "pharmacy",
      "contact:email": "info@kirchenfeldapotheke.ch",
      "contact:emergency_phone": "+41 0900989900",
      "contact:fax": "+41 31 3515788",
      "contact:phone": "+41 31 3511780",
      "dispensing": "yes",
      "healthcare": "pharmacy",
      "name": "Kirchenfeld Apotheke",
      "opening_hours": "Mo-Fr 08:00-18:30; Sa 08:00-16:00",
      "website": "https://www.kirchenfeldapotheke.ch/"
    },
    "distance_to_station": 456.0640273852644
  },
  {
    "feature_type": "pharmacies",
    "lat": 46.9481671,
    "lon": 7.4521896,
    "tags": {
      "addr:city": "Bern",
      "alt_name": "TopPharm Rathaus Apotheke",
      "amenity": "pharmacy",
      "branch": "Rathaus",
      "brand": "TopPharm",
      "brand:wikidata": "Q110277794",
      "check_date": "2025-03-07",
      "check_date:opening_hours": "2024-09-13",
      "contact:addr": "Kramgasse 2, 3011 Bern",
      "contact:email": "rathaus-apo.be@ovan.ch",
      "contact:fax": "+41 31 3122401",
      "contact:phone": "+41 31 3111481",
      "contact:website": "http://rathaus-bern.apotheke.ch/site/kontakt.html",
      "dispensing": "yes",
      "healthcare": "pharmacy",
      "name": "TopPharm",
      "opening_hours": "Mo 14:00-19:00; Tu-Fr 09:00-19:00; Sa 09:00-17:00",
      "source": "survey and website",
      "website": "http://www.rathaus-bern.apotheke.ch",
      "wheelchair": "no"
    },
    "distance_to_station": 379.7586706574492
  },
  {
    "feature_type": "pharmacies",
    "lat": 46.9478697,
    "lon": 7.4479358,
    "tags": {
      "alt_name": "B\u00e4ren Apotheke",
      "amenity": "pharmacy",
      "contact:addr": "Bim Zytglogge 1, 3011 Bern",
      "contact:email": "apobaeren@bluewin.ch",
      "contact:fax": "+41 31 3126330",
      "contact:phone": "+41 31 3110242",
      "dispensing": "yes",
      "healthcare": "pharmacy",
      "name": "B\u00e4ren",
      "opening_hours": "Mo 10:00-18:30; Tu,We 08:00-18:30; Th 08:00-18:30; Fr 08:00-18:30; Sa 08:00-17:00",
      "source": "survey and website",
      "website": "https://www.apotheke-baeren.ch/",
      "wheelchair": "yes"
    },
    "distance_to_station": 186.080096777062
  },
  {
    "feature_type": "pharmacies",
    "lat": 46.9475139,
    "lon": 7.4420831,
    "tags": {
      "amenity": "pharmacy",
      "branch": "Bern Storcheng\u00e4sschen",
      "brand": "Amavita",
      "brand:wikidata": "Q93733901",
      "check_date:opening_hours": "2023-06-28",
      "email": "ama334@amavita.ch",
      "fax": "+41 58 878 33 59",
      "healthcare": "pharmacy",
      "level": "0",
      "name": "Amavita",
      "opening_hours": "Mo-We,Fr 08:00-19:00; Th 08:00-19:30; Sa 08:00-17:00",
      "phone": "+41 58 878 33 50",
      "website": "https://www.amavita.ch/de/amavita-apotheke-storchengasschen-bern",
      "wheelchair": "yes"
    },
    "distance_to_station": 479.5412638107407
  },
  {
    "feature_type": "pharmacies",
    "lat": 46.9472577,
    "lon": 7.442915,
    "tags": {
      "addr:city": "Bern",
      "addr:housenumber": "7",
      "addr:postcode": "3011",
      "addr:street": "Schauplatzgasse",
      "alt_name": "Dr. Noyer Apotheke Pf\u00f6tli Schauplatzgasse",
      "amenity": "pharmacy",
      "check_date": "2023-01-04",
      "dispensing": "yes",
      "drive_through": "no",
      "email": "schau@drnoyer.ch",
      "fax": "+41 31 326 28 14",
      "healthcare": "pharmacy",
      "name": "Apotheke Dr. Noyer",
      "opening_hours": "Mo-Fr 08:00-18:30; Sa 08:00-17:00",
      "operator": "Apotheke Dr. Noyer AG",
      "phone": "+41 31 326 28 15",
      "website": "https://www.drnoyer.ch/tierapotheke-schauplatzgasse",
      "wheelchair": "yes"
    },
    "distance_to_station": 410.7912015365225
  },
  {
    "feature_type": "pharmacies",
    "lat": 46.9487927,
    "lon": 7.4429172,
    "tags": {
      "addr:city": "Bern",
      "addr:housenumber": "15",
      "addr:postcode": "3011",
      "addr:street": "Neuengasse",
      "alt_name": "Apotheke Dr. Noyer Neuengasse Hauptgesch\u00e4ft",
      "amenity": "pharmacy",
      "dispensing": "yes",
      "email": "apotheke@drnoyer.ch",
      "fax": "+41 31 326 28 29",
      "healthcare": "pharmacy",
      "name": "Apotheke Dr. Noyer",
      "opening_hours": "Mo-Fr 08:00-19:00; Sa 08:00-17:00",
      "operator": "Apotheke Dr. Noyer AG",
      "phone": "+41 31 326 28 28",
      "website": "https://www.drnoyer.ch/neuengasse-hauptgeschaeft",
      "wheelchair": "yes"
    },
    "distance_to_station": 487.7450938946009
  },
  {
    "feature_type": "pharmacies",
    "lat": 46.9478815,
    "lon": 7.4476189,
    "tags": {
      "addr:city": "Bern",
      "addr:housenumber": "5",
      "addr:postcode": "3011",
      "addr:street": "Bim Zytglogge",
      "alt_name": "Zytglogge Apotheke",
      "amenity": "pharmacy",
      "check_date": "2025-05-14",
      "check_date:opening_hours": "2025-05-14",
      "contact:addr": "Bim Zytglogge 5, 3011 Bern",
      "contact:email": "zytglogge@drgurtner.ch",
      "contact:fax": "+41 31 311 39 93",
      "contact:phone": "+41 31 311 48 33",
      "dispensing": "yes",
      "healthcare": "pharmacy",
      "name": "Zytglogge Apotheke",
      "opening_hours": "Mo 10:00-18:30; Tu-Fr 08:00-18:30; Sa 08:00-17:00",
      "operator": "Dr. H. & K. Gurtner AG",
      "source": "survey and website",
      "website": "https://www.drgurtner.ch/de/apotheken-drogerien/zytglogg-apotheke/?oid=91"
    },
    "distance_to_station": 190.5074957822571
  }
]