[
  {
    "feature_type": "nightclubs",
    "lat": 46.9534063,
    "lon": 7.4399394,
    "tags": {
      "alt_name": "ISC Club Bern",
      "amenity": "nightclub",
      "contact:addr": "Neubr\u00fcckstrasse 10, 3012 Bern",
      "contact:email": "info@isc-club.ch",
      "contact:fax": "+41 31 3025226",
      "contact:phone": "+41 31 3025236",
      "name": "ISC Club",
      "opening_hours": "\"by appointment\"",
      "source": "survey and website",
      "website": "https://www.isc-club.ch/",
      "wheelchair": "no"
    },
    "distance_to_station": 275.86508953078305
  },
  {
    "feature_type": "nightclubs",
    "lat": 46.9527878,
    "lon": 7.4405467,
    "tags": {
      "addr:city": "Bern",
      "addr:country": "CH",
      "addr:housenumber": "8",
      "addr:postcode": "3012",
      "addr:street": "Neubr\u00fcckstrasse",
      "amenity": "nightclub",
      "contact:email": "info@dachstock.ch",
      "contact:fax": "+41 31 3066962",
      "contact:phone": "+41 31 3066961",
      "name": "Dachstock",
      "opening_hours": "\"by appointment\"",
      "source": "survey and website",
      "toilets:wheelchair": "yes",
      "website": "https://www.dachstock.ch/",
      "wheelchair": "yes"
    },
    "distance_to_station": 238.8617206832898
  },
  {
    "feature_type": "nightclubs",
    "lat": 46.949496,
    "lon": 7.4425041,
    "tags": {
      "amenity": "nightclub",
      "contact:addr": "Aarbergergasse 33-35, 3011 Bern",
      "name": "Einspruch Diskothek"
    },
    "distance_to_station": 345.87504806815423
  },
  {
    "feature_type": "nightclubs",
    "lat": 46.9494742,
    "lon": 7.4424661,
    "tags": {
      "alt_name": "Belmondo Club Events Bar",
      "amenity": "nightclub",
      "contact:addr": "Aarbergergasse 35, 3011 Bern",
      "contact:email": "info@divino-bar.ch",
      "contact:phone": "+41 31 3118803",
      "contact:website": "http://www.belmondo-bern.ch/kontakt.html",
      "name": "Belmondo",
      "opening_hours": "Mo-We off; Th 21:00-01:30; Fr-Sa 22:00-03:30; Su off",
      "operator": "swiss gastro invent AG",
      "source": "survey and website",
      "website": "https://www.belmondo-bern.ch/",
      "wheelchair": "limited"
    },
    "distance_to_station": 344.6722120576855
  },
  {
    "feature_type": "nightclubs",
    "lat": 46.9538111,
    "lon": 7.4388019,
    "tags": {
      "access": "members",
      "addr:full": "Neubr\u00fcckstrasse 19, 3012 Bern",
      "amenity": "nightclub",
      "name": "Dead End",
      "opening_hours": "Th-Su 00:00-06:00; Mo-We off",
      "source": "survey and website",
      "website": "https://www.dead-end.ch/"
    },
    "distance_to_station": 301.84982646779457
  },
  {
    "feature_type": "nightclubs",
    "lat": 46.9494038,
    "lon": 7.4375818,
    "tags": {
      "addr:city": "Bern",
      "addr:housenumber": "16",
      "addr:postcode": "3012",
      "addr:street": "Parkterrasse",
      "amenity": "nightclub",
      "layer": "4",
      "name": "Stellwerk",
      "opening_hours": "Tu-Fr 09:30-22:00",
      "website": "https://www.stellwerk.be/"
    },
    "distance_to_station": 203.8296946895842
  },
  {
    "feature_type": "nightclubs",
    "lat": 46.9496875,
    "lon": 7.4410291,
    "tags": {
      "alt_name": "Club Rondel",
      "amenity": "nightclub",
      "contact:addr": "Genfergasse 10, 3011 Bern",
      "contact:email": "info@rondelbern.ch",
      "contact:facebook": "https://www.facebook.com/rondelbern",
      "contact:phone": "+41 31 9519826",
      "name": "Rondel",
      "old_name": "Liquid",
      "opening_hours": "Mo-Th off; Fr-Sa 23:00-04:00; Su off",
      "source": "survey and website",
      "website": "https://www.rondelbern.ch/",
      "wheelchair": "no",
      "wheelchair:description": "Steps only, no elevator"
    },
    "distance_to_station": 242.2088969735446
  },
  {
    "feature_type": "nightclubs",
    "lat": 46.949807,
    "lon": 7.4430667,
    "tags": {
      "amenity": "nightclub",
      "contact:addr": "Sterneng\u00e4sschen 1, 3011 Bern",
      "contact:website": "https://www.studio-club.ch",
      "name": "Studio Club Bern"
    },
    "distance_to_station": 368.27006734634153
  },
  {
    "feature_type": "nightclubs",
    "lat": 46.951697,
    "lon": 7.4417414,
    "tags": {
      "addr:city": "Bern",
      "addr:housenumber": "41",
      "addr:postcode": "3011",
      "addr:street": "Bollwerk",
      "alt_name": "KAPITEL Bollwerk",
      "amenity": "nightclub",
      "contact:email": "info@kapitel.ch",
      "contact:facebook": "https://www.facebook.com/kapitelbollwerk/events",
      "contact:instagram": "https://instagram.com/kapitel_bollwerk",
      "contact:phone": "+41 31 3116090",
      "contact:website": "http://www.kapitel.ch",
      "contact:youtube": "https://www.youtube.com/user/KapitelBern",
      "name": "Kapitel",
      "opening_hours": "Tu-We 17:00-24:00; Th 17:00-03:30; Fr-Sa 17:00-06:00",
      "toilets:wheelchair": "no",
      "wheelchair": "limited"
    },
    "distance_to_station": 247.5121345231714
  },
  {
    "feature_type": "nightclubs",
    "lat": 46.9513864,
    "lon": 7.4412746,
    "tags": {
      "alt_name": "Le Ciel Bar Lounge Club",
      "amenity": "nightclub",
      "check_date": "2023-04-28",
      "contact:addr": "Bollwerk 31, 3011 Bern",
      "contact:email": "info@le-ciel.ch",
      "contact:phone": "+41 78 7866242",
      "name": "Le Ciel",
      "opening_hours": "Fr-Sa 23:00-03:30",
      "source": "survey and website",
      "website": "https://le-ciel.ch/"
    },
    "distance_to_station": 205.49530930073888
  },
  {
    "feature_type": "nightclubs",
    "lat": 46.9494324,
    "lon": 7.4430259,
    "tags": {
      "amenity": "nightclub",
      "name": "Sir Edward Rabe",
      "opening_hours": "closed",
      "website": "https://www.siredwardrabe.ch/"
    },
    "distance_to_station": 383.7261441788989
  },
  {
    "feature_type": "nightclubs",
    "lat": 46.9497669,
    "lon": 7.4435004,
    "tags": {
      "alt_name": "Taxi Bar & Club",
      "amenity": "nightclub",
      "contact:addr": "Speichergasse 13, 3011 Bern",
      "contact:email": "info@taxibarbern.ch",
      "contact:facebook": "https://www.facebook.com/taxibarbern",
      "contact:instagram": "http://www.instagram.com/taxibarbern",
      "name": "Taxi",
      "source": "survey and website",
      "website": "https://taxibarbern.ch"
    },
    "distance_to_station": 400.414112837543
  }
]