[
  {
    "feature_type": "restaurants",
    "lat": 46.9548055,
    "lon": 7.4456326,
    "tags": {
      "alt_name": "Caf\u00e9 du Nord",
      "amenity": "restaurant",
      "contact:addr": "Lorrainestrasse 2, 3013 Bern",
      "contact:email": "geniessen@du-nord.ch",
      "contact:phone": "+41 31 3329090",
      "diet:vegan": "yes",
      "diet:vegetarian": "yes",
      "name": "Du Nord",
      "opening_hours": "Mo-Th 11:30-23:30, Fr 11:30-00:30, Sa 10:30-00:30, Su 10:30-23:30",
      "operator": "KG Gastrokultur GmbH",
      "source": "survey and website",
      "toilets:wheelchair": "yes",
      "website": "https://www.du-nord.ch/",
      "wheelchair": "yes"
    },
    "distance_to_station": 727.187666488768
  },
  {
    "feature_type": "restaurants",
    "lat": 46.9586076,
    "lon": 7.4550161,
    "tags": {
      "alt_name": "Restaurant Grotto Ticino, Pizzeria Cafiero",
      "amenity": "restaurant",
      "contact:addr": "Breitenrainplatz 26, 3014 Bern",
      "contact:email": "info@grotto-ticino.ch",
      "contact:fax": "+41 31 3317255",
      "contact:phone": "+41 31 3319677",
      "contact:website": "http://www.grotto-ticino.ch/kontakt/",
      "cuisine": "italian;pizza",
      "name": "Grotto Ticino",
      "opening_hours": "Tu-Sa 12:00-23:00",
      "operator": "Fam. Cafiero",
      "source": "survey and website",
      "website": "https://www.grotto-ticino.ch/"
    },
    "distance_to_station": 702.7623626414734
  },
  {
    "feature_type": "restaurants",
    "lat": 46.9581818,
    "lon": 7.4564389,
    "tags": {
      "amenity": "restaurant",
      "contact:addr": "Herzogstrasse 2, 3014 Bern",
      "contact:phone": "+41 31 3313038",
      "name": "Palette",
      "operator": "Videira Manuel and Estewao Jose",
      "source": "survey"
    },
    "distance_to_station": 820.9084946038543
  },
  {
    "feature_type": "restaurants",
    "lat": 46.9579807,
    "lon": 7.445612,
    "tags": {
      "addr:full": "Quartiergasse 17, 3013 Bern",
      "alt_name": "Restaurant Genossenschaft Brasserie Lorraine",
      "amenity": "restaurant",
      "contact:email": "info@brasserie-lorraine.ch",
      "contact:fax": "+41 31 3339545",
      "contact:phone": "+41 31 3323929",
      "name": "Brasserie Lorraine",
      "opening_hours": "Mo off; Tu-Sa 09:00-00:30; Su 10:00-00:30",
      "operator": "Genossenschaft Restaurant Brasserie Lorraine",
      "outdoor_seating": "yes",
      "source": "website",
      "website": "https://www.brasserie-lorraine.ch/",
      "wheelchair": "yes"
    },
    "distance_to_station": 378.54801731408446
  },
  {
    "feature_type": "restaurants",
    "lat": 46.9580433,
    "lon": 7.4465318,
    "tags": {
      "addr:city": "Bern",
      "addr:housenumber": "3",
      "addr:postcode": "3013",
      "addr:street": "Quartiergasse",
      "amenity": "restaurant",
      "capacity": "100",
      "cuisine": "italian",
      "currency:CHF": "yes",
      "currency:EUR": "yes",
      "email": "info@lacarbonara.ch",
      "fax": "+41 31 332 14 42",
      "indoor_seating": "yes",
      "name": "La Carbonara",
      "opening_hours": "Mo-Fr 08:00-23:30; Sa 10:00-23:30; Su off",
      "outdoor_seating": "yes",
      "payment:american_express": "yes",
      "payment:cash": "yes",
      "payment:contactless": "yes",
      "payment:maestro": "yes",
      "payment:mastercard": "yes",
      "payment:postcard": "yes",
      "payment:visa": "yes",
      "phone": "+41 31 332 14 40",
      "reservation": "yes",
      "takeaway": "yes",
      "website": "http://www.lacarbonara.ch",
      "wheelchair": "limited"
    },
    "distance_to_station": 363.106907382057
  },
  {
    "feature_type": "restaurants",
    "lat": 46.957451,
    "lon": 7.4467117,
    "tags": {
      "amenity": "restaurant",
      "name": "Hof-Bistro",
      "old_name": "Dixie",
      "opening_hours": "Mo-Fr 10:00-16:00"
    },
    "distance_to_station": 428.8180726394058
  },
  {
    "feature_type": "restaurants",
    "lat": 46.9561265,
    "lon": 7.4448525,
    "tags": {
      "alt_name": "Restaurant & Take away OKRA",
      "amenity": "restaurant",
      "contact:addr": "Lorrainestrasse 9, 3013 Bern",
      "contact:email": "info@okra.ch",
      "contact:facebook": "https://www.facebook.com/pages/Restaurant-OKRA/127068844074364",
      "contact:phone": "+41 31 3321844",
      "cuisine": "indian",
      "diet:vegan": "yes",
      "diet:vegetarian": "yes",
      "name": "Okra",
      "opening_hours": "Mo off; Tu-Fr 11:00-14:00, 17:30-23:30; Sa-Su 17:30-23:30",
      "operator": "Okra GmbH",
      "source": "survey and website",
      "takeaway": "yes",
      "website": "https://www.okra.ch/",
      "wheelchair": "no"
    },
    "distance_to_station": 592.3905871752096
  },
  {
    "feature_type": "restaurants",
    "lat": 46.9637361,
    "lon": 7.4560047,
    "tags": {
      "addr:city": "Bern",
      "addr:housenumber": "56",
      "addr:postcode": "3014",
      "addr:street": "Winkelriedstrasse",
      "alt_name": "Ristorante Il Profeta",
      "amenity": "restaurant",
      "contact:addr": "Winkelriedstrasse 56, 3014 Bern",
      "contact:phone": "+41 31 3317393",
      "cuisine": "italian",
      "name": "Il Profeta",
      "opening_hours": "Mo-Fr 11:00-23:30; Sa-Su off",
      "source": "survey and website",
      "website": "https://www.ilprofeta.ch/"
    },
    "distance_to_station": 760.1490162855922
  },
  {
    "feature_type": "restaurants",
    "lat": 46.9611333,
    "lon": 7.4502091,
    "tags": {
      "amenity": "restaurant",
      "contact:city": "Bern",
      "contact:email": "info@restaurant-ludmilla.ch",
      "contact:housenumber": "24",
      "contact:phone": "+41 31 302 33 33",
      "contact:postcode": "3014",
      "contact:street": "Flurstrasse",
      "contact:website": "https://www.restaurant-ludmilla.ch",
      "cuisine": "regional",
      "indoor_seating": "yes",
      "name": "Ludmilla",
      "opening_hours": "Mo-Fr 11:30-23:00; Sa 18:00-23:00",
      "outdoor_seating": "yes"
    },
    "distance_to_station": 270.224737434814
  },
  {
    "feature_type": "restaurants",
    "lat": 46.9587028,
    "lon": 7.446406,
    "tags": {
      "alt_name": "Caf\u00e9 Kairo",
      "amenity": "restaurant",
      "contact:addr": "Dammweg 43, 3013 Bern",
      "contact:email": "kairo@lorraine.ch",
      "contact:phone": "+41 31 3302625",
      "cuisine": "regional",
      "name": "Kairo",
      "opening_hours": "Mo-Fr 08:30-00:30; Sa 09:30-00:30; Su off",
      "outdoor_seating": "yes",
      "source": "survey and website",
      "toilets:wheelchair": "no",
      "website": "https://www.cafe-kairo.ch",
      "wheelchair": "no"
    },
    "distance_to_station": 290.3276189274078
  },
  {
    "feature_type": "restaurants",
    "lat": 46.9583991,
    "lon": 7.4477306,
    "tags": {
      "alt_name": "Ristorante Pizzeria R\u00f6mer",
      "amenity": "restaurant",
      "contact:addr": "Turnweg 18, 3013 Bern",
      "contact:email": "info@roemer-bern.ch",
      "contact:fax": "+41 31 3312501",
      "contact:phone": "+41 31 3310088",
      "contact:website": "http://www.roemer-bern.ch/index2.html",
      "cuisine": "italian",
      "name": "R\u00f6mer",
      "opening_hours": "Mo",
      "operator": "Alessandro La Marra",
      "source": "survey and website",
      "website": "http://www.roemer-bern.ch",
      "wheelchair": "no"
    },
    "distance_to_station": 333.3663091780265
  },
  {
    "feature_type": "restaurants",
    "lat": 46.9623208,
    "lon": 7.4551664,
    "tags": {
      "addr:full": "Weingartstrasse 32, 3014 Bern",
      "amenity": "restaurant",
      "contact:phone": "+41 31 9915151",
      "cuisine": "italian",
      "email": "calabrisella.info@gmail.com",
      "name": "Calabrisella",
      "opening_hours": "Tu-Su 09:00-23:30; Fr 09:00-00:30; Sa 10:00-00:30; Su 10:00-23:30",
      "operator": "Hilkka Helinae und Giovanni Pungillo",
      "website": "https://www.calabrisella-bern.ch/"
    },
    "distance_to_station": 656.5449222411482
  },
  {
    "feature_type": "restaurants",
    "lat": 46.9571668,
    "lon": 7.456573,
    "tags": {
      "alt_name": "Restaurant & Vinothek B\u00fcner",
      "amenity": "restaurant",
      "contact:addr": "Kasernenstrasse 31. 3013 Bern",
      "contact:email": "info@buener.ch",
      "contact:fax": "+41 31 3331516",
      "contact:phone": "+41 31 3331515",
      "diet:vegan": "no",
      "diet:vegetarian": "yes",
      "name": "B\u00fcner",
      "opening_hours": "Mo-Fr 10:00-14:00, Sa 17:30-24:00, Mo-Fr 17:30-23:00; Su off",
      "operator": "B\u00fcner Gastrokultur AG",
      "source": "survey and website",
      "website": "https://www.buener.ch/"
    },
    "distance_to_station": 883.3774290465218
  },
  {
    "feature_type": "restaurants",
    "lat": 46.9608671,
    "lon": 7.4534189,
    "tags": {
      "alt_name": "Ristorante Dolce Vita",
      "amenity": "restaurant",
      "contact:addr": "Scheibenstrasse 25, 3014 Bern",
      "contact:email": "info@la-dolcevita.ch",
      "contact:phone": "+41 31 3315515",
      "contact:website": "http://www.la-dolcevita.ch/index.php?page=kontakt",
      "cuisine": "italian",
      "name": "Dolce Vita",
      "opening_hours": "Mo-Th 08:00-23:30; Fr-Sa 08:00-00:30; Su 08:00-23:30",
      "source": "survey and website",
      "website": "http://www.la-dolcevita.ch"
    },
    "distance_to_station": 516.1613324356114
  },
  {
    "feature_type": "restaurants",
    "lat": 46.9587854,
    "lon": 7.4568571,
    "tags": {
      "alt_name": "Restaurant Lokal",
      "amenity": "restaurant",
      "contact:addr": "Milit\u00e4rstrasse 42, 3014 Bern",
      "contact:email": "restaurant@lokal-bern.ch",
      "contact:facebook": "https://www.facebook.com/lokalbern",
      "contact:phone": "+41 31 3327000",
      "name": "Lokal",
      "opening_hours": "Mo-Tu 9:30-23:30; Fr 9:30-00:00; Sa 15:00-00:00; Su off; PH off",
      "source": "survey and website",
      "website": "https://www.lokal-bern.ch/"
    },
    "distance_to_station": 824.6819144506254
  },
  {
    "feature_type": "restaurants",
    "lat": 46.9530929,
    "lon": 7.4488673,
    "tags": {
      "addr:city": "Bern",
      "addr:country": "CH",
      "addr:housenumber": "3",
      "addr:postcode": "3013",
      "addr:street": "Kornhausstrasse",
      "amenity": "restaurant",
      "cuisine": "italian",
      "email": "giardino@kursaal-bern.ch",
      "name": "Restaurant Giardino",
      "opening_hours": "Mo-Th 11:00-24:00; Fr-Sa 11:00-24:30; Su 09:00-24:00",
      "opening_hours:kitchen": "11:30-14:00,18:00-22:00",
      "operator": "Kongress + Kursaal Bern AG",
      "phone": "+41 31 339 52 65",
      "website": "https://kursaal-restaurant.ch/giardino-restaurant-bar"
    },
    "distance_to_station": 928.5117930806988
  },
  {
    "feature_type": "restaurants",
    "lat": 46.9563407,
    "lon": 7.4522871,
    "tags": {
      "amenity": "restaurant",
      "contact:addr:full": "Moserstrasse 14b, 3013 Bern",
      "contact:phone": "+41 31 3330788",
      "cuisine": "italian",
      "diet:vegetarian": "yes",
      "name": "Del Gusto",
      "opening_hours": "Mo-Su 08:00-23:30",
      "website": "https://del-gusto.ch"
    },
    "distance_to_station": 698.4947805773979
  },
  {
    "feature_type": "restaurants",
    "lat": 46.9571464,
    "lon": 7.4525114,
    "tags": {
      "addr:city": "Bern",
      "addr:housenumber": "25",
      "addr:postcode": "3014",
      "addr:street": "Moserstrasse",
      "amenity": "restaurant",
      "diet:vegetarian": "only",
      "email": "ks@3dosha.ch",
      "name": "3dosha ayurveda",
      "opening_hours": "Mo-Fr 11:00-14:00,18:00-22:00; Sa 17:30-22:00",
      "operator": "3dosha ayurveda GmbH",
      "phone": "+41 31 331 13 73",
      "takeaway": "yes",
      "website": "https://www.3dosha.ch/",
      "wheelchair": "limited"
    },
    "distance_to_station": 641.7808349579255
  },
  {
    "feature_type": "restaurants",
    "lat": 46.9583817,
    "lon": 7.4471237,
    "tags": {
      "alt_name": "Suban Thai Eatery",
      "amenity": "restaurant",
      "contact:addr": "Nordring 42, 3031 Bern",
      "contact:email": "info@suban.be",
      "contact:facebook": "https://www.facebook.com/Suban-1855042881429074/",
      "contact:phone": "+41 31 3336262",
      "cuisine": "thai;asian",
      "delivery": "no",
      "name": "Suban Thai Eatery",
      "opening_hours": "Mo-Th 11:00-14:00, 17:00-20:00; Fr 11:00-14:00, 17:00-22:00; Sa-Su off; PH off",
      "outdoor_seating": "yes",
      "smoking": "outside",
      "source": "Survey and website",
      "takeaway": "yes",
      "website": "https://suban.be",
      "wheelchair": "yes"
    },
    "distance_to_station": 327.1836393133784
  },
  {
    "feature_type": "restaurants",
    "lat": 46.9603909,
    "lon": 7.4544306,
    "tags": {
      "addr:postcode": "3014",
      "alt_name": "Pizzeria Michelangelo",
      "amenity": "restaurant",
      "check_date:opening_hours": "2024-02-06",
      "contact:addr": "Scheibenstrasse 16, 3014 Bern",
      "contact:email": "info@pizzeria-michelangelo.ch",
      "contact:fax": "+41 31 3329950",
      "contact:phone": "+41 31 3329950",
      "cuisine": "italian",
      "delivery": "yes",
      "name": "Michelangelo",
      "opening_hours": "Mo-Sa 10:00-22:00; Su 12:00-22:00",
      "source": "survey and website",
      "takeaway": "yes",
      "website": "http://www.michelangelo-bern.ch/",
      "wheelchair": "limited"
    },
    "distance_to_station": 599.5669005674775
  },
  {
    "feature_type": "restaurants",
    "lat": 46.9614225,
    "lon": 7.4464629,
    "tags": {
      "addr:city": "Bern",
      "addr:country": "CH",
      "addr:housename": "Wylerpark",
      "addr:housenumber": "125",
      "addr:postcode": "3014",
      "addr:street": "Wylerstrasse",
      "alt_name": "SBB Restaurant WylerPark",
      "amenity": "restaurant",
      "capacity": "107",
      "contact:email": "wylerpark@zfv.ch",
      "contact:phone": "+41 31 332 95 72",
      "contact:website": "https://zfv.ch/de/microsites/sbb-restaurant-wylerpark/ueber-uns",
      "name": "Chez SBB",
      "old_name": "Personalrestaurant SBB",
      "opening_hours": "Mo-Fr 07:30-16:00; Sa,Su off",
      "opening_hours:kitchen": "Mo-Fr 11:15-13:30",
      "operator": "ZFV",
      "outdoor_seating": "yes",
      "source": "website",
      "takeaway": "yes",
      "wheelchair": "yes"
    },
    "distance_to_station": 20.12227583829694
  },
  {
    "feature_type": "restaurants",
    "lat": 46.9641604,
    "lon": 7.4527535,
    "tags": {
      "alt_name": "Bistro Wylerhuus",
      "amenity": "restaurant",
      "contact:addr": "Wylerringstrasse 60, 3014 Bern",
      "contact:email": "wylerhuus@bluewin.ch",
      "contact:phone": "+41 31 3329322",
      "name": "Wylerhuus",
      "old_name": "Caf\u00e9 Wylerhuus",
      "opening_hours": "Mo-Tu 08:30-21:00; We 08:30-18:00; Th-Fr 08:30-23:30; Sa 10:00-18:00; Su off",
      "smoking": "no",
      "source": "survey and website",
      "website": "https://www.wylerhuus.ch/bistro"
    },
    "distance_to_station": 561.3056529472925
  },
  {
    "feature_type": "restaurants",
    "lat": 46.9558918,
    "lon": 7.4447901,
    "tags": {
      "access": "yes",
      "addr:city": "Bern",
      "addr:country": "CH",
      "addr:housenumber": "5a",
      "addr:postcode": "3013",
      "addr:street": "Lorrainestrasse",
      "amenity": "restaurant",
      "name": "mensa Five",
      "opening_hours": "Mo-Fr 11:00-14:00; Sa-Su off",
      "operator": "Migros",
      "wheelchair": "yes"
    },
    "distance_to_station": 618.8721285338796
  },
  {
    "feature_type": "restaurants",
    "lat": 46.9569927,
    "lon": 7.4449947,
    "tags": {
      "amenity": "restaurant",
      "contact:addr": "Lorrainestrasse 32, 3013 Bern",
      "contact:website": "https://restaurant-namsan.ch/",
      "cuisine": "korean",
      "name": "Namsan",
      "opening_hours": "Mo-Fr 11:00-14:00,17:30-22:00; Tu off; Sa,Su 17:00-22:00"
    },
    "distance_to_station": 496.3700426248912
  },
  {
    "feature_type": "restaurants",
    "lat": 46.9569712,
    "lon": 7.4450707,
    "tags": {
      "amenity": "restaurant",
      "contact:addr": "Lorrainestrasse 32, 3013 Bern",
      "cuisine": "chinese",
      "level": "-1",
      "name": "Gl\u00fcckskeks",
      "opening_hours": "Tu-Fr 11:00-14:00,17:30-21:30; Sa 17:30-22:00",
      "wheelchair": "no"
    },
    "distance_to_station": 497.23473054129096
  },
  {
    "feature_type": "restaurants",
    "lat": 46.9652021,
    "lon": 7.4524241,
    "tags": {
      "addr:city": "Bern",
      "addr:country": "CH",
      "addr:housenumber": "65e",
      "addr:postcode": "3014",
      "addr:street": "Scheibenstrasse",
      "alt_name": "Restaurant Wyler-Lorrainebad",
      "amenity": "restaurant",
      "contact:email": "info@bbbgmbh.ch",
      "name": "Wylerbad",
      "opening_hours": "Mo-Fr 08:30-17:00",
      "operator": "Berner Badi Beizli GmbH",
      "outdoor_seating": "yes",
      "source": "website",
      "website": "http://www.bbbgmbh.ch/"
    },
    "distance_to_station": 615.8861241551978
  },
  {
    "feature_type": "restaurants",
    "lat": 46.9663233,
    "lon": 7.4544525,
    "tags": {
      "addr:city": "Bern",
      "addr:country": "CH",
      "addr:housenumber": "65",
      "addr:postcode": "3014",
      "addr:street": "Stauffacherstrasse",
      "alt_name": "RUAG al parco",
      "amenity": "restaurant",
      "contact:email": "alparco@sv-group.ch",
      "contact:fax": "+41 31 3327743",
      "contact:phone": "+41 31 3485775",
      "diet:vegan": "no",
      "diet:vegetarian": "yes",
      "indoor_seating": "yes",
      "name": "al parco",
      "note": "addr:housenumber is 61 according to Parzellenplan Bern",
      "opening_hours": "Mo-Fr 08:30-13:30; Sa,Su off",
      "operator": "SV (Schweiz) AG",
      "outdoor_seating": "yes",
      "source": "website",
      "website": "http://alparco.sv-group.ch"
    },
    "distance_to_station": 813.5440320141819
  },
  {
    "feature_type": "restaurants",
    "lat": 46.9570893,
    "lon": 7.4377268,
    "tags": {
      "alt_name": "Ristorante Pizzeria La Vita",
      "amenity": "restaurant",
      "check_date": "2025-06-10",
      "contact:addr": "Neubr\u00fcckstrasse 70, 3012 Bern",
      "contact:email": "info@lavita-bern.ch",
      "contact:fax": "+41 31 302 20 17",
      "contact:phone": "+41 31 302 20 16",
      "cuisine": "italian",
      "name": "La Vita",
      "old_name": "Rotonda",
      "opening_hours": "Mo-Sa 09:00-23:30; Su off; PH off",
      "outdoor_seating": "yes",
      "source": "survey and website",
      "website": "https://www.lavita-bern.ch",
      "wheelchair": "no"
    },
    "distance_to_station": 826.5061915930431
  },
  {
    "feature_type": "restaurants",
    "lat": 46.954986,
    "lon": 7.4516808,
    "tags": {
      "amenity": "restaurant",
      "contact:phone": "+41 31 331 53 00",
      "contact:website": "https://www.nooch.ch/de/bern-viktoriaplatz",
      "cuisine": "sushi",
      "highchair": "yes",
      "name": "Nooch",
      "opening_hours": "Mo-Sa 11:00-23:00; Su 12:00-22:00",
      "outdoor_seating": "yes",
      "takeaway": "yes",
      "wheelchair": "yes"
    },
    "distance_to_station": 799.7311499941624
  },
  {
    "feature_type": "restaurants",
    "lat": 46.9576355,
    "lon": 7.4531969,
    "tags": {
      "alt_name": "Restaurant Mont Liban",
      "amenity": "restaurant",
      "contact:addr": "Moserstrasse 27, 3014 Bern",
      "contact:email": "info@montliban-bern.ch",
      "contact:phone": "+41 31 3330777",
      "cuisine": "lebanese",
      "name": "Mont Liban",
      "opening_hours": "Mo-Fr 11:00-23:00; Sa 18:00-23:30; Su off",
      "source": "survey and website",
      "website": "https://www.montliban-bern.ch/"
    },
    "distance_to_station": 643.1628894562385
  },
  {
    "feature_type": "restaurants",
    "lat": 46.9609593,
    "lon": 7.4393878,
    "tags": {
      "addr:city": "Bern",
      "addr:country": "CH",
      "addr:housenumber": "54",
      "addr:postcode": "3012",
      "addr:street": "Engestrasse",
      "alt_name": "Restaurant Innere Enge",
      "amenity": "restaurant",
      "contact:email": "reservation-ieb@zghotels.ch",
      "contact:fax": "+41 31 3096112",
      "contact:phone": "+41 31 3096111",
      "contact:website": "http://www.innere-enge.ch/de/N444/kontakt.html",
      "name": "Jos\u00e9phine Brasserie",
      "opening_hours": "Mo-Sa 11:30-14:00,18:00-23:30; Su 12:00-18:00",
      "operator": "ZG Hotels - H. Zurbr\u00fcgg & M. Gauer AG",
      "source": "survey and website",
      "website": "http://www.innere-enge.ch/de/N451/restaurant.html",
      "wheelchair": "yes"
    },
    "distance_to_station": 555.4525743890596
  },
  {
    "feature_type": "restaurants",
    "lat": 46.9548532,
    "lon": 7.4446136,
    "tags": {
      "amenity": "restaurant",
      "name": "mensauno",
      "opening_hours": "Mo-Fr 07:00-16:00; Sa 07:00-11:00",
      "operator": "Migros"
    },
    "distance_to_station": 734.4406389778516
  },
  {
    "feature_type": "restaurants",
    "lat": 46.9536925,
    "lon": 7.4462638,
    "tags": {
      "amenity": "restaurant",
      "contact:addr": "Sch\u00e4nzlihalde 31, 3013 Bern",
      "contact:email": "office.bern@sfgb-b.ch",
      "contact:fax": "+41 31 3370338",
      "contact:phone": "+41 31 3370337",
      "name": "Restaurant 2B",
      "opening_hours": "Mo-Fr 07:00-17:00; Sa 07:30-11:00; Su off",
      "website": "https://www.sfgb-b.ch/restaurant-2b"
    },
    "distance_to_station": 847.1960140827845
  },
  {
    "feature_type": "restaurants",
    "lat": 46.9581282,
    "lon": 7.4362924,
    "tags": {
      "amenity": "restaurant",
      "cuisine": "pizza;pinsa",
      "name": "Ponte Nuovo",
      "old_name": "Telpizza",
      "phone": "+41 31 307 00 00",
      "website": "https://pontenuovo.ch/"
    },
    "distance_to_station": 865.2293420178339
  },
  {
    "feature_type": "restaurants",
    "lat": 46.9545832,
    "lon": 7.4521397,
    "tags": {
      "addr:city": "Bern",
      "addr:housenumber": "70",
      "addr:postcode": "3013",
      "addr:street": "Viktoriastrasse",
      "amenity": "restaurant",
      "contact:addr": "Viktoriastrasse 70, 3013 Bern",
      "contact:email": "restaurant@loescher.be",
      "contact:facebook": "https://www.facebook.com/loescherbern",
      "contact:phone": "+41 78 6521100",
      "diet:vegetarian": "yes",
      "name": "L\u00f6scher",
      "name:de": "L\u00f6scher",
      "opening_hours": "Mo off; Tu-Th 09:00-23:30; Fr-Sa 09:00-00:30; Su off; PH off",
      "payment:cash": "yes",
      "payment:credit_cards": "yes",
      "source": "Survey and website",
      "website": "https://loescher.be/",
      "wheelchair": "limited"
    },
    "distance_to_station": 855.8018920658286
  },
  {
    "feature_type": "restaurants",
    "lat": 46.9567891,
    "lon": 7.4486508,
    "tags": {
      "amenity": "restaurant",
      "check_date": "2022-07-07",
      "contact:addr": "Kyburgstrasse 12, 3013 Bern",
      "name": "Bistro Breiten",
      "opening_hours": "Mo-Sa 08:00-22:30",
      "outdoor_seating": "yes",
      "website": "http://www.bistrobreiten.ch/"
    },
    "distance_to_station": 524.5694353883351
  },
  {
    "feature_type": "restaurants",
    "lat": 46.9568231,
    "lon": 7.4399127,
    "tags": {
      "addr:housenumber": "35",
      "addr:street": "Engehaldenstrasse",
      "amenity": "restaurant",
      "contact:email": "restaurant-engehalde@sv-group.ch",
      "contact:fax": "+41 31 302 12 58",
      "contact:phone": "+41 31 302 12 54",
      "contact:website": "http://restaurant-engehalde.sv-restaurant.ch",
      "name": "Restaurant Engehalde",
      "opening_hours": "Mo-Th 07:00-15:30; Fr 07:00-14:00; PH off",
      "outdoor_seating": "yes"
    },
    "distance_to_station": 716.2241995137578
  },
  {
    "feature_type": "restaurants",
    "lat": 46.9641631,
    "lon": 7.4577302,
    "tags": {
      "alt_name": "Nordring Restaurant-Pizzeria K\u00fcrekci",
      "amenity": "restaurant",
      "contact:addr": "Winkelriedstrasse 42, 3014 Bern",
      "contact:phone": "+41 31 3322290",
      "name": "Nordring",
      "opening_hours": "Mo-Sa 08:00-00:30, Su 10:00-23:00"
    },
    "distance_to_station": 899.7728423127721
  },
  {
    "feature_type": "restaurants",
    "lat": 46.9582362,
    "lon": 7.4537282,
    "tags": {
      "addr:city": "Bern",
      "addr:housenumber": "11",
      "addr:postcode": "3013",
      "addr:street": "Breitenrainstrasse",
      "alt_name": "Migros Restaurant Breitenrain",
      "amenity": "restaurant",
      "branch": "Bern Breitenrain",
      "brand": "Migros Restaurant",
      "brand:wikidata": "Q111803848",
      "check_date": "2025-07-16",
      "cuisine": "international",
      "name": "Migros Restaurant",
      "opening_hours": "Mo-Sa 07:30-17:00; PH off",
      "operator": "Genossenschaft Migros Aare",
      "self_service": "yes",
      "website": "https://filialen.migros.ch/de/migros-restaurant-bern-breitenrain"
    },
    "distance_to_station": 636.7185466882386
  },
  {
    "feature_type": "restaurants",
    "lat": 46.9601297,
    "lon": 7.4538513,
    "tags": {
      "addr:full": "Scheibenstrasse 15a, 3014 Bern",
      "alt_name": "nomnom",
      "amenity": "restaurant",
      "cuisine": "vietnamese;asian",
      "name": "nom nom",
      "restaurant": "take_away"
    },
    "distance_to_station": 562.219093138844
  },
  {
    "feature_type": "restaurants",
    "lat": 46.9563625,
    "lon": 7.4451577,
    "tags": {
      "addr:city": "Bern",
      "addr:country": "CH",
      "addr:housenumber": "20",
      "addr:postcode": "3013",
      "addr:street": "Lorrainestrasse",
      "amenity": "restaurant",
      "check_date:opening_hours": "2022-10-08",
      "email": "info@werkstadt-lorraine.ch",
      "indoor_seating": "yes",
      "name": "WerkStadt Lorraine",
      "opening_hours": "Mo 08:00-21:00; Tu-We 08:00-20:00; Th-Fr 08:00-21:00; Sa-Su 09:00-19:00",
      "outdoor_seating": "yes",
      "phone": "+41 77 508 30 16",
      "website": "https://werkstadt-lorraine.ch/"
    },
    "distance_to_station": 561.7010706146832
  },
  {
    "feature_type": "restaurants",
    "lat": 46.955392,
    "lon": 7.4470493,
    "tags": {
      "amenity": "restaurant",
      "check_date": "2025-06-09",
      "cuisine": "italian",
      "diet:vegetarian": "yes",
      "name": "Celina",
      "opening_hours": "Mo-Sa 11:00-14:00,17:00-23:00; Su 11:30-14:00,17:30-22:00",
      "takeaway": "yes",
      "website": "https://www.celinabern.ch/"
    },
    "distance_to_station": 658.3444956663054
  },
  {
    "feature_type": "restaurants",
    "lat": 46.9532271,
    "lon": 7.4487876,
    "tags": {
      "addr:city": "Bern",
      "addr:housenumber": "3",
      "addr:postcode": "3013",
      "addr:street": "Kornhausstrasse",
      "amenity": "restaurant",
      "cuisine": "asian;buffet;chinese",
      "email": "yu@kursaal-bern.ch",
      "name": "Restaurant Y\u00f9",
      "phone": "+41 31 339 52 50",
      "website": "https://www.kursaal-restaurant.ch/asiatisches-restaurant-yu"
    },
    "distance_to_station": 912.7493422466933
  },
  {
    "feature_type": "restaurants",
    "lat": 46.9531895,
    "lon": 7.4486186,
    "tags": {
      "addr:city": "Bern",
      "addr:housenumber": "3",
      "addr:postcode": "3013",
      "addr:street": "Kornhausstrasse",
      "amenity": "restaurant",
      "cuisine": "bar_and_grill",
      "email": "fb@kursaal-bern.ch",
      "name": "Rooftop Grill",
      "opening_hours": "Tu-Sa 17:00-23:00",
      "phone": "+41 31 339 52 60",
      "website": "https://www.rooftop-grill.ch"
    },
    "distance_to_station": 914.6877904508517
  },
  {
    "feature_type": "restaurants",
    "lat": 46.9570012,
    "lon": 7.4569605,
    "tags": {
      "addr:city": "Bern",
      "addr:housenumber": "29",
      "addr:postcode": "3013",
      "addr:street": "Kasernenstrasse",
      "amenity": "restaurant",
      "check_date": "2025-07-20",
      "check_date:opening_hours": "2025-07-20",
      "contact:instagram": "https://www.instagram.com/darling.restaurant",
      "cuisine": "regional",
      "diet:vegan": "yes",
      "diet:vegetarian": "yes",
      "name": "Darling Restaurant",
      "opening_hours": "Tu-Th 18:00-22:30; Fr,Sa 18:00-23:00",
      "payment:cash": "yes",
      "payment:mastercard": "yes",
      "payment:twint": "yes",
      "payment:visa": "yes",
      "phone": "+41 31 335 66 55",
      "website": "https://darling.restaurant/",
      "wheelchair": "limited"
    },
    "distance_to_station": 918.1449684655503
  },
  {
    "feature_type": "restaurants",
    "lat": 46.9576217,
    "lon": 7.4445968,
    "tags": {
      "amenity": "restaurant",
      "cuisine": "indian",
      "name": "Indian Kitchen"
    },
    "distance_to_station": 439.10051395844795
  },
  {
    "feature_type": "restaurants",
    "lat": 46.9589795,
    "lon": 7.4554698,
    "tags": {
      "addr:city": "Bern",
      "addr:housenumber": "64",
      "addr:postcode": "3014",
      "addr:street": "Milit\u00e4rstrasse",
      "amenity": "restaurant",
      "email": "hallo@olympiabern.ch",
      "name": "OLYMPIA",
      "opening_hours": "Mo-Do  07:30-22:30  Fr  07:30-23:30  Sa  08:30-23:30  So  09:30-17:00",
      "phone": "+41315292910",
      "website": "https://www.olympiabern.ch"
    },
    "distance_to_station": 718.2148535042602
  }
]