[
  {
    "feature_type": "libraries",
    "lat": 46.9592396,
    "lon": 7.4551492,
    "tags": {
      "addr:city": "Bern",
      "addr:country": "CH",
      "addr:housenumber": "2",
      "addr:postcode": "3014",
      "addr:street": "Stauffacherstrasse",
      "alt_name": "Kornhaus Bibliothek Breitenrain mit Ludothek",
      "amenity": "library",
      "contact:email": "breitenrain@kornhausbibliotheken.ch",
      "contact:phone": "+41 31 332 47 50",
      "contact:website": "https://www.kob.ch/standort/bibliothek-und-ludothek-breitenrain/",
      "internet_access": "wlan",
      "internet_access:fee": "customers",
      "level": "1",
      "name": "Bibliothek Breitenrain mit Ludothek",
      "opening_hours": "Tu 10:00-18:30; We 14:00-18:30; Th-Fr 10:00-18:30; Sa 10:00-16:00; Su,Mo,PH off",
      "operator": "Stiftung Kornhausbibliotheken",
      "operator:short": "KOB",
      "operator:type": "public",
      "operator:wikidata": "Q1784554",
      "ref:isil": "CH-002073-3",
      "wheelchair": "yes",
      "wikidata": "Q107145685"
    },
    "distance_to_station": 685.2705442420583
  },
  {
    "feature_type": "libraries",
    "lat": 46.9535191,
    "lon": 7.4453194,
    "tags": {
      "addr:city": "Bern",
      "addr:housenumber": "21",
      "addr:postcode": "3013",
      "addr:street": "Altenbergrain",
      "amenity": "library",
      "contact:email": "ips@ub.unibe.ch",
      "contact:phone": "+41 31 6318022",
      "name": "Bibliothek Pflanzenwissenschaft",
      "opening_hours": "Mo-Fr 07:30-17:30",
      "operator": "Universit\u00e4tsbibliothek Bern UB",
      "ref:isil": "CH-000752-2",
      "source": "Survey and website",
      "website": "https://www.unibe.ch/universitaet/dienstleistungen/universitaetsbibliothek/teilbibliotheken/philosophisch_naturwissenschaftliche_faecher/pflanzenwissenschaften/index_ger.html"
    },
    "distance_to_station": 871.9766105116898
  },
  {
    "feature_type": "libraries",
    "lat": 46.9535402,
    "lon": 7.4401902,
    "tags": {
      "addr:city": "Bern",
      "addr:housenumber": "14",
      "addr:postcode": "3012",
      "addr:street": "Sch\u00fctzenmattstrasse",
      "amenity": "library",
      "email": "economics.ub@unibe.ch",
      "name": "Lernort Engehalde",
      "operator": "Universit\u00e4tsbibliothek Bern UB",
      "phone": "+41 31 684 80 82",
      "website": "https://www.ub.unibe.ch/teilbibliotheken/wirtschaftswissenschaft/lernort_engehalde/index_ger.html",
      "wheelchair": "yes"
    },
    "distance_to_station": 994.4134674678197
  }
]