[
  {
    "feature_type": "cafes",
    "lat": 46.9487458,
    "lon": 7.4440335,
    "tags": {
      "alt_name": "Starbucks Coffee",
      "amenity": "cafe",
      "brand": "Starbucks",
      "brand:wikidata": "Q37158",
      "check_date": "2023-12-19",
      "contact:addr": "Waisenhausplatz 17 / Waaghausgasse 18, 3011 Bern",
      "contact:phone": "+41 31 3114780",
      "cuisine": "coffee_shop",
      "indoor_seating": "yes",
      "internet_access": "wlan",
      "internet_access:fee": "no",
      "name": "Starbucks",
      "official_name": "Starbucks Coffee",
      "opening_hours": "Mo-Fr 07:00-20:30; Sa 07:30-20:30; Su 08:30-19:30",
      "operator": "Starbucks Coffee Switzerland AG",
      "outdoor_seating": "yes",
      "smoking": "no",
      "source": "website",
      "takeaway": "yes",
      "website": "https://www.starbucks.ch/",
      "wheelchair": "yes"
    },
    "distance_to_station": 418.83265715872903
  },
  {
    "feature_type": "cafes",
    "lat": 46.9486716,
    "lon": 7.4478755,
    "tags": {
      "addr:postcode": "3011",
      "alt_name": "Pyri",
      "amenity": "cafe",
      "contact:addr": "Kornhausplatz 17, 3011 Bern",
      "contact:fax": "+41 31 3129204",
      "contact:phone": "+41 31 3113063",
      "contact:website": "http://www.pyri.ch/kontakt/",
      "indoor_seating": "yes",
      "name": "Caf\u00e9 des Pyren\u00e9es",
      "opening_hours": "Mo-Sa 08:00-00:30; Su 12:00-23:00",
      "outdoor_seating": "yes",
      "source": "survey and website",
      "website": "http://www.pyri.ch",
      "wheelchair": "yes"
    },
    "distance_to_station": 275.3572337236793
  },
  {
    "feature_type": "cafes",
    "lat": 46.9478322,
    "lon": 7.4472221,
    "tags": {
      "addr:floor": "0",
      "alt_name": "Adriano's Bar & Caf\u00e9",
      "amenity": "cafe",
      "contact:addr": "Theaterplatz 2, 3011 Bern",
      "contact:email": "kontakt@adrianos.ch",
      "contact:phone": "+41 31 3188831",
      "cuisine": "sandwich",
      "diet:vegan": "no",
      "diet:vegetarian": "yes",
      "name": "Adriano's",
      "opening_hours": "Mo-Sa 07:00-00:30; Su 10:00-23:30",
      "smokefree": "yes",
      "source": "survey and website",
      "website": "https://www.adrianos.ch/",
      "wheelchair": "limited",
      "wifi": "no"
    },
    "distance_to_station": 193.34048403634233
  },
  {
    "feature_type": "cafes",
    "lat": 46.9482771,
    "lon": 7.4524423,
    "tags": {
      "alt_name": "Caf\u00e9 Bar Rathaus Odeon",
      "amenity": "cafe",
      "check_date": "2023-07-25",
      "contact:addr": "Gerechtigkeitsgasse 78, 3011 Bern",
      "name": "Rathaus Bar",
      "name:en": "Rathaus Odeon"
    },
    "distance_to_station": 402.48573445355044
  },
  {
    "feature_type": "cafes",
    "lat": 46.9428952,
    "lon": 7.4524618,
    "tags": {
      "alt_name": "Caf\u00e9 Royal",
      "amenity": "cafe",
      "contact:addr": "Luisenstrasse 14, 3005 Bern",
      "contact:email": "royal@vatter.ch",
      "contact:fax": "+41 31 3515715",
      "contact:phone": "+41 31 3021000",
      "name": "Royal",
      "opening_hours": "Mo-Fr 07:15-18:30; Sa 07:15-14:00; Su 09:00-13:00",
      "source": "survey and website",
      "website": "https://www.vatter.ch/royal"
    },
    "distance_to_station": 494.65064466141416
  },
  {
    "feature_type": "cafes",
    "lat": 46.9420991,
    "lon": 7.4499084,
    "tags": {
      "alt_name": "Caf\u00e9 Pavillon",
      "amenity": "cafe",
      "contact:addr": "Helvetiastrasse 16a, 3005 Bern",
      "contact:email": "cafepavillon@mfk.ch",
      "contact:phone": "+41 31 3575529",
      "indoor_seating": "yes",
      "name": "Pavillon",
      "opening_hours": "Mo off; Tu-Su 10:00-17:00",
      "outdoor_seating": "yes",
      "website": "https://www.mfk.ch/information/cafe-pavillon/"
    },
    "distance_to_station": 476.21625703026365
  },
  {
    "feature_type": "cafes",
    "lat": 46.9421477,
    "lon": 7.4488032,
    "tags": {
      "amenity": "cafe",
      "contact:addr": "Bernastrasse 15, 3005 Bern",
      "name": "Cafeteria & Shop",
      "opening_hours": "Mo 14:00-17:00; Tu 09:00-17:00; We 09:00-18:00; Th-Fr 09:00-17:00; Sa-Su 10:00-17:00",
      "outdoor_seating": "yes"
    },
    "distance_to_station": 453.74634716846003
  },
  {
    "feature_type": "cafes",
    "lat": 46.9469509,
    "lon": 7.4467875,
    "tags": {
      "alt_name": "Xenia-Caf\u00e9",
      "amenity": "cafe",
      "contact:addr": "Kochergasse 4, 3011 Bern",
      "contact:phone": "+41 31 3113340",
      "name": "Xenia",
      "source": "survey",
      "wheelchair": "limited"
    },
    "distance_to_station": 129.9933931887289
  },
  {
    "feature_type": "cafes",
    "lat": 46.9490113,
    "lon": 7.444409,
    "tags": {
      "alt_name": "Glatz am Waisenhausplatz",
      "amenity": "cafe",
      "brand": "Glatz",
      "brand:wikidata": "Q111731089",
      "contact:addr": "Waisenhausplatz 21, 3011 Bern",
      "contact:email": "info@glatz-bern.ch",
      "contact:facebook": "https://www.facebook.com/beckglatzconfiseur",
      "contact:fax": "+41 31 3002005",
      "contact:phone": "+41 31 3002021",
      "cuisine": "coffee_shop",
      "internet_access": "wlan",
      "internet_access:fee": "no",
      "name": "Glatz",
      "opening_hours": "Mo-Fr 06:30-19:00; Sa 07:00-17:00; Su 10:00-17:00",
      "smoking": "no",
      "source": "survey and website",
      "website": "https://www.glatz-bern.ch/kontakt/karte/"
    },
    "distance_to_station": 419.78719046873084
  },
  {
    "feature_type": "cafes",
    "lat": 46.9478112,
    "lon": 7.4499623,
    "tags": {
      "alt_name": "Einstein Kaffee und Rauchsalon",
      "amenity": "cafe",
      "contact:addr": "Kramgasse 49, 3011 Bern",
      "contact:email": "info@einstein-kaffee.ch",
      "contact:fax": "+41 31 3117968",
      "contact:phone": "+41 31 3122828",
      "name": "Einstein",
      "opening_hours": "Mo-We 08:30-22:30; Th-Fr 08:30-00:30; Sa 07:00-00:30; Su 09:00-17:00",
      "operator": "Einstein Kaffee AG",
      "smoking": "separated",
      "source": "survey and website",
      "toilets:wheelchair": "no",
      "website": "http://www.einstein-kaffee.ch",
      "wheelchair": "limited"
    },
    "distance_to_station": 228.2147651601418
  },
  {
    "feature_type": "cafes",
    "lat": 46.9488485,
    "lon": 7.4443175,
    "tags": {
      "amenity": "cafe",
      "check_date": "2024-07-22",
      "cuisine": "bubble_tea",
      "name": "Tea Time",
      "opening_hours": "Mo-Sa 10:00-19:30; Su 11:00-17:00",
      "takeaway": "yes"
    },
    "distance_to_station": 411.30497380014714
  },
  {
    "feature_type": "cafes",
    "lat": 46.9492454,
    "lon": 7.4436254,
    "tags": {
      "amenity": "cafe",
      "check_date:opening_hours": "2024-02-06",
      "contact:addr": "Aarbergergasse 3, 3011 Bern",
      "contact:email": "info@aengelibeck.ch",
      "contact:phone": "+41 31 311 02 11",
      "contact:website": "https://www.aengelibeck.ch/",
      "description": "Das Caf\u00e9 Schlaraffenland befindet sich in der B\u00e4ckerei \u00c4ngelibeck.",
      "level": "1",
      "name": "Schlaraffenland",
      "opening_hours": "Mo-Fr 07:00-18:00; Sa 07:00-16:00; Su,PH closed",
      "operator": "\u00c4ngelibeck",
      "outdoor_seating": "no"
    },
    "distance_to_station": 479.6276232678608
  },
  {
    "feature_type": "cafes",
    "lat": 46.947951,
    "lon": 7.4527632,
    "tags": {
      "alt_name": "Bistro Blue Cat",
      "amenity": "cafe",
      "check_date": "2025-07-18",
      "contact:addr": "Gerechtigkeitsgasse 75, 3011 Bern",
      "contact:phone": "+41 31 3110729",
      "name": "Blue Cat",
      "opening_hours": "Mo off; Tu-We 09:00-20:00; Th-Sa 09:00-00:30; Su off",
      "operator": "Bistro Blue Cat GmbH",
      "source": "survey"
    },
    "distance_to_station": 403.9960429791289
  },
  {
    "feature_type": "cafes",
    "lat": 46.9465534,
    "lon": 7.4524055,
    "tags": {
      "amenity": "cafe",
      "contact:addr": "M\u00fcnsterplattform 5, 3011 Bern",
      "contact:email": "info@einstein-jardin.ch",
      "indoor_seating": "no",
      "name": "Einstein au jardin",
      "old_name": "Pl\u00e4ffe-Kafi",
      "opening_hours": "Mo-Su,PH 10:00-sunset",
      "operator": "Einstein Kaffee AG",
      "outdoor_seating": "yes",
      "source": "survey and website",
      "website": "https://www.einstein-jardin.ch/"
    },
    "distance_to_station": 329.18798008113976
  },
  {
    "feature_type": "cafes",
    "lat": 46.9471711,
    "lon": 7.4500725,
    "tags": {
      "amenity": "cafe",
      "contact:addr": "Herrengasse 10, 3011 Bern",
      "contact:phone": "+41 43 8176330",
      "name": "Weinkabinett Bergdorf",
      "operator": "Bergdorf Homes AG",
      "website": "http://www.weinkabinett.com"
    },
    "distance_to_station": 184.60777254275504
  },
  {
    "feature_type": "cafes",
    "lat": 46.9474781,
    "lon": 7.4434539,
    "tags": {
      "addr:city": "Bern",
      "addr:housenumber": "8",
      "addr:postcode": "3011",
      "addr:street": "B\u00e4renplatz",
      "air_conditioning": "no",
      "amenity": "cafe",
      "building:levels": "1",
      "contact:addr": "B\u00e4renplatz 8, 3011 Bern",
      "contact:email": "bern.baerenplatz@coffee-fellows.ch",
      "cuisine": "coffee_shop",
      "internet_access": "yes",
      "internet_access:fee": "customers",
      "name": "Coffee Fellows",
      "opening_hours": "Mo-We 07:00-19:00; Th 07:00-21:00; Fr 07:00-19:00; Sa 08:00-18:00; Su off; PH off",
      "outdoor_seating": "yes",
      "website": "https://www.coffee-fellows.com/locations/schweiz-bern-baerenplatz"
    },
    "distance_to_station": 380.2436151791091
  },
  {
    "feature_type": "cafes",
    "lat": 46.9472648,
    "lon": 7.4430795,
    "tags": {
      "amenity": "cafe",
      "name": "Kafi am Bundesplatz"
    },
    "distance_to_station": 399.0761955393081
  },
  {
    "feature_type": "cafes",
    "lat": 46.947348,
    "lon": 7.4487192,
    "tags": {
      "amenity": "cafe",
      "changing_table": "yes",
      "changing_table:count": "1",
      "changing_table:fee": "no",
      "changing_table:location": "wheelchair_toilet",
      "contact:addr": "M\u00fcnstergasse 61-63, 3011 Bern",
      "contact:email": "willkommen@lesbar.ch",
      "contact:facebook": "https://www.facebook.com/CafeLoungeLesbar",
      "contact:phone": "+41 31 311 72 72",
      "internet_access": "wlan",
      "internet_access:fee": "no",
      "name": "Lesbar",
      "opening_hours": "Mo 08:00-20.00, Di-Fr 07:30-20:00; Sa 07:00-18:00",
      "smoking": "no",
      "toilets": "yes",
      "toilets:access": "customers",
      "toilets:wheelchair": "designated",
      "website": "https://www.lesbar.ch",
      "wheelchair": "yes"
    },
    "distance_to_station": 136.0305775602338
  },
  {
    "feature_type": "cafes",
    "lat": 46.9490065,
    "lon": 7.4488208,
    "tags": {
      "amenity": "cafe",
      "start_date": "2014"
    },
    "distance_to_station": 316.82889478110405
  },
  {
    "feature_type": "cafes",
    "lat": 46.9468771,
    "lon": 7.4416898,
    "tags": {
      "amenity": "cafe",
      "changing_table": "yes",
      "changing_table:location": "room",
      "indoor_seating": "yes",
      "name": "R\u00f6sterei",
      "opening_hours": "Mo-We 06:30-19:00; Th 06:30-21:00; Fr 06:30-20:00; Sa 08:00-17:00",
      "outdoor_seating": "yes",
      "shop": "coffee",
      "toilets:wheelchair": "no",
      "wheelchair": "no"
    },
    "distance_to_station": 492.39238417685993
  },
  {
    "feature_type": "cafes",
    "lat": 46.9479964,
    "lon": 7.4461579,
    "tags": {
      "amenity": "cafe",
      "cuisine": "bubble_tea",
      "level": "-1",
      "name": "Cha Yii",
      "outdoor_seating": "no",
      "wheelchair": "no"
    },
    "distance_to_station": 248.2624733208059
  },
  {
    "feature_type": "cafes",
    "lat": 46.9489714,
    "lon": 7.4488987,
    "tags": {
      "addr:city": "Bern",
      "addr:housenumber": "52",
      "addr:postcode": "3011",
      "addr:street": "Brunngasse",
      "amenity": "cafe",
      "cuisine": "coffee_shop",
      "email": "hello@jusqa.ch",
      "food": "no",
      "name": "jusq'\u00e0",
      "opening_hours": "Mo-Fr 12:00-18:00",
      "website": "https://www.jusqa.ch/"
    },
    "distance_to_station": 314.07304569576183
  },
  {
    "feature_type": "cafes",
    "lat": 46.9477472,
    "lon": 7.4433616,
    "tags": {
      "amenity": "cafe",
      "contact:instagram": "yogurtlandia_bubbletea_bern",
      "cuisine": "bubble_tea",
      "name": "Yoghurtlandia",
      "website": "https://tastytime.ch/contactus/"
    },
    "distance_to_station": 398.7183064434635
  },
  {
    "feature_type": "cafes",
    "lat": 46.9480878,
    "lon": 7.449528,
    "tags": {
      "amenity": "cafe",
      "contact:addr": "Kramgasse 58, 3011 Bern",
      "contact:email": "info@quericobistro.ch",
      "contact:phone": "+41 41 9301919",
      "cuisine": "mexican",
      "name": "Qu\u00e9 Rico Bistro",
      "operator": "Qu\u00e9 Rico GmbH",
      "website": "https://www.quericobistro.ch"
    },
    "distance_to_station": 236.25021678641255
  },
  {
    "feature_type": "cafes",
    "lat": 46.9478428,
    "lon": 7.4462961,
    "tags": {
      "addr:housenumber": "19",
      "addr:street": "Marktgasse",
      "amenity": "cafe",
      "level": "-1",
      "name": "Friend or Foe Specialty Coffee Market",
      "opening_hours": "Tu-Fr 07:00-16:00; Sa 09:00-17:00",
      "shop": "coffee",
      "wheelchair": "no"
    },
    "distance_to_station": 228.29717038797844
  },
  {
    "feature_type": "cafes",
    "lat": 46.9443887,
    "lon": 7.4491711,
    "tags": {
      "addr:full": "Helvetiaplatz 1, 3005 Bern",
      "alt_name": "Kunsthalle Bar",
      "amenity": "cafe",
      "area": "yes",
      "artist:wikidata": "Q56298882",
      "artist_name": "Lang/Baumann",
      "artwork_type": "installation",
      "image": "https://upload.wikimedia.org/wikipedia/commons/thumb/b/b3/Installation_Module_5_(Kunsthalle_Bar)_(Lang\u2044Baumann_2018)_11.JPG/800px-Installation_Module_5_(Kunsthalle_Bar)_(Lang\u2044Baumann_2018)_11.JPG",
      "location:description:de": "\u00dcber dem Aareabhang auf der n\u00f6rdlichen Seite vor der Kunsthalle Helvetiaplatz 1 in 3005 Bern",
      "name": "Module #5",
      "start_date": "2018",
      "tourism": "artwork",
      "type": "multipolygon",
      "wikidata": "Q98124913",
      "wikimedia_commons": "Category:Installation Module 5 (Kunsthalle Bar) (Lang\u2044Baumann 2018)"
    },
    "distance_to_station": 217.20083472169236
  }
]