[
  {
    "feature_type": "shops",
    "lat": 46.9494937,
    "lon": 7.4417109,
    "tags": {
      "addr:full": "Aarbergergasse 53, 3011 Bern",
      "brand": "Coop",
      "brand:wikidata": "Q432564",
      "level": "-1",
      "name": "Coop",
      "opening_hours": "Mo 09:00-19:00; Tu,We 08:00-19:00; Th,Fr 08:00-20:00; Sa 08:00-18:00; PH off",
      "shop": "supermarket",
      "website": "https://www.coop.ch/",
      "wheelchair": "yes"
    },
    "distance_to_station": 296.0768943521377
  },
  {
    "feature_type": "shops",
    "lat": 46.9536977,
    "lon": 7.4349247,
    "tags": {
      "addr:housenumber": "1",
      "addr:postcode": "3012",
      "addr:street": "Ahornweg",
      "check_date": "2022-10-27",
      "contact:addr": "Ahornweg 1, 3012 Bern",
      "name": "Fenix Textilreinigung",
      "opening_hours": "Mo-Fr 08:30-18:00; Sa 10:00-15:00",
      "phone": "+41 31 889 19 19",
      "shop": "dry_cleaning",
      "website": "https://www.fenix-textilreinigung.ch/",
      "wheelchair": "no"
    },
    "distance_to_station": 401.56653527760733
  },
  {
    "feature_type": "shops",
    "lat": 46.9489422,
    "lon": 7.441825,
    "tags": {
      "brand": "Orell F\u00fcssli",
      "brand:wikidata": "Q15837687",
      "check_date": "2023-08-29",
      "contact:addr": "Neuengasse 25-37, 3011 Bern",
      "contact:email": "info@stauffacher.ch",
      "contact:fax": "+41 31 3136339",
      "contact:phone": "+41 31 3136363",
      "kids_area": "yes",
      "levels": "6",
      "name": "Stauffacher",
      "opening_hours": "Mo-We 09:00-19:00; Th 09:00-21:00; Fr 09:00-19:00; Sa 09:00-17:00; Su off",
      "operator": "Orell F\u00fcssli Thalia AG",
      "shop": "books",
      "source": "survey and website",
      "website": "http://www.stauffacher.ch",
      "wheelchair": "yes"
    },
    "distance_to_station": 342.77463890859144
  },
  {
    "feature_type": "shops",
    "lat": 46.9508572,
    "lon": 7.4351803,
    "tags": {
      "contact:addr": "Falkenplatz 5, 3012 Bern",
      "contact:email": "info@formundraum.ch",
      "contact:facebook": "https://www.facebook.com/Form-Raum-AG-611878275677888",
      "contact:instagram": "https://www.instagram.com/formundraum",
      "contact:phone": "+41 31 3810808",
      "name": "Form+Raum",
      "opening_hours": "Mo-Fr 08:30-17:00; Sa-Su off; PH off",
      "operator": "Form & Raum Hofer AG",
      "shop": "furniture",
      "source": "survey and website",
      "website": "https://formundraum.ch"
    },
    "distance_to_station": 260.97023753544664
  },
  {
    "feature_type": "shops",
    "lat": 46.9496923,
    "lon": 7.4428127,
    "tags": {
      "branch": "Bern Aarbergergasse",
      "brand": "Alnatura",
      "brand:wikidata": "Q124414082",
      "full_name": "Alnatura Bio Super Markt",
      "name": "Alnatura",
      "not:brand:wikidata": "Q876811",
      "opening_hours": "Mo 09:00-19:00; Tu,We 08:00-19:00; Th,Fr 08:00-20:00; Sa 08:00-17:00; Su,PH closed; PH -1 day 08:00-17:00",
      "operator": "Alnatura AG",
      "organic": "only",
      "phone": "+41 58 563 90 15",
      "shop": "supermarket",
      "website": "https://www.alnatura.ch/"
    },
    "distance_to_station": 356.02158906520566
  },
  {
    "feature_type": "shops",
    "lat": 46.9492814,
    "lon": 7.4436419,
    "tags": {
      "check_date:opening_hours": "2024-02-06",
      "contact:addr": "Aarbergergasse 3, 3011 Bern",
      "contact:email": "info@aengelibeck.ch",
      "contact:phone": "+41 31 311 02 11",
      "contact:website": "https://www.aengelibeck.ch/",
      "level": "0",
      "name": "\u00c4ngelibeck",
      "opening_hours": "Mo-Fr 07:00-18:00; Sa 07:00-16:00; Su,PH closed",
      "organic": "only",
      "shop": "bakery",
      "wheelchair": "yes"
    },
    "distance_to_station": 432.8482911742187
  },
  {
    "feature_type": "shops",
    "lat": 46.9523916,
    "lon": 7.4333199,
    "tags": {
      "addr:full": "L\u00e4nggassstrasse 19, 3012 Bern",
      "addr:housenumber": "19",
      "addr:street": "L\u00e4nggassstrasse",
      "check_date": "2022-10-25",
      "email": "bela@copyquick.ch",
      "name": "CopyQuick",
      "opening_hours": "Mo-Fr 08:00-18:00",
      "opening_hours:covid19": "Mo-Fr 09:00-17:00",
      "operator": "CopyQuick Pierre Alain Mouttet AG",
      "phone": "+41 313111919",
      "shop": "copyshop",
      "website": "https://www.copyquick.ch/"
    },
    "distance_to_station": 425.7327808933407
  },
  {
    "feature_type": "shops",
    "lat": 46.9490289,
    "lon": 7.4348334,
    "tags": {
      "addr:city": "Bern",
      "addr:country": "CH",
      "addr:housenumber": "8a",
      "addr:postcode": "3012",
      "addr:street": "Stadtbachstrasse",
      "alt_name": "Galerie Cerny",
      "contact:email": "cerny.inuit@bluewin.ch",
      "contact:fax": "+41 31 3182821",
      "contact:phone": "+41 31 3182820",
      "contact:website": "http://www.cernyinuitcollection.com/Contact-and-Directions-eng/",
      "fee": "yes",
      "name": "Cerny Inuit Collection",
      "old_name": "Stadtbach-Garage",
      "opening_hours": "Mo-Tu off; We-Sa 13:00-18:00; Su off",
      "operator": "Martha und Peter Cerny",
      "shop": "art",
      "source": "website",
      "tourism": "gallery",
      "website": "https://www.cernyinuitcollection.com/"
    },
    "distance_to_station": 367.12182096459577
  },
  {
    "feature_type": "shops",
    "lat": 46.9510033,
    "lon": 7.4351378,
    "tags": {
      "check_date": "2023-12-18",
      "contact:addr": "Falkenplatz 5+7, 3012 Bern",
      "contact:email": "info@moto-schor.ch",
      "contact:fax": "+41 31 3010618",
      "contact:phone": "+41 31 3010616",
      "name": "Moto Schor",
      "opening_hours": "Mo-Fr 07:30-12:00,13:30-18:00",
      "shop": "motorcycle",
      "source": "survey and website",
      "website": "https://www.moto-schor.ch"
    },
    "distance_to_station": 263.01542173826857
  },
  {
    "feature_type": "shops",
    "lat": 46.9507896,
    "lon": 7.4354021,
    "tags": {
      "alt_name": "Cuaff\u00f6r L\u00e4nggass",
      "check_date": "2023-12-18",
      "contact:addr": "Falkenplatz 3, 3012 Bern",
      "contact:phone": "+41 31 3023430",
      "female:signed": "no",
      "male:signed": "no",
      "name": "Kontur",
      "opening_hours": "Tu-Fr 09:00-19:00; Sa 08:00-14:00",
      "operator": "Namgyal Schneebeli",
      "shop": "hairdresser",
      "source": "website and survey",
      "website": "https://www.kontur-coiffeur.ch/"
    },
    "distance_to_station": 245.1761329551557
  },
  {
    "feature_type": "shops",
    "lat": 46.9494576,
    "lon": 7.4402298,
    "tags": {
      "brand": "RBS",
      "level": "-2",
      "shop": "ticket",
      "wheelchair": "yes"
    },
    "distance_to_station": 220.58271377550795
  },
  {
    "feature_type": "shops",
    "lat": 46.9493318,
    "lon": 7.4402404,
    "tags": {
      "brand": "Coop",
      "brand:wikidata": "Q432564",
      "level": "-2",
      "name": "Coop",
      "shop": "convenience",
      "wheelchair": "yes"
    },
    "distance_to_station": 232.7261101118853
  },
  {
    "feature_type": "shops",
    "lat": 46.949085,
    "lon": 7.4388341,
    "tags": {
      "check_date:opening_hours": "2024-08-05",
      "level": "2",
      "name": "Verkaufsstelle Postauto Bern",
      "opening_hours": "Mo-Fr 07:30-18:30",
      "operator": "PostAuto",
      "shop": "ticket",
      "wheelchair": "yes"
    },
    "distance_to_station": 224.76130092346824
  },
  {
    "feature_type": "shops",
    "lat": 46.9475283,
    "lon": 7.4371093,
    "tags": {
      "alt_name": "Jack Wolfskin Store",
      "brand": "Jack Wolfskin",
      "brand:wikidata": "Q536133",
      "contact:addr": "Bubenberghaus, Schanzenstrasse 1, 3008 Bern",
      "contact:email": "store.bern@jack-wolfskin.com",
      "contact:fax": "+41 31 3980204",
      "contact:phone": "+41 31 3980203",
      "name": "Jack Wolfskin",
      "opening_hours": "Mo 12:00-18:30; Tu-We 09:00-18:30; Th 09:00-20:00; Fr 09:00-18:30; Sa 09:00-17:00; Su off",
      "shop": "outdoor",
      "source": "website",
      "website": "https://www.jack-wolfskin.ch/",
      "wheelchair": "yes"
    },
    "distance_to_station": 412.95989385819394
  },
  {
    "feature_type": "shops",
    "lat": 46.9474511,
    "lon": 7.4365015,
    "tags": {
      "branch": "Center Eschenmoser",
      "brand": "Fust",
      "brand:wikidata": "Q1227164",
      "check_date": "2022-11-18",
      "contact:addr": "Laupenstrasse 6, 3008 Bern",
      "contact:email": "127@fust.ch",
      "contact:fax": "+41 31 3806044",
      "contact:phone": "+41 31 3806040",
      "name": "Fust",
      "old_name": "Eschenmoser",
      "opening_hours": "Mo-Fr 09:00-18:30; Sa 09:00-17:00",
      "operator": "Dipl. Ing. Fust AG",
      "shop": "electronics",
      "source": "website and survey",
      "website": "https://www.fust.ch/de/filialensuche.html",
      "wheelchair": "no"
    },
    "distance_to_station": 435.8872091461907
  },
  {
    "feature_type": "shops",
    "lat": 46.9474058,
    "lon": 7.4371247,
    "tags": {
      "alt_name": "M\u00f6venpick Wein Bern",
      "branch": "Bern",
      "check_date": "2025-06-12",
      "contact:addr": "Bubenberghaus, Laupenstrasse 2, 3008 Bern",
      "contact:email": "weinkeller.bern@moevenpick.com",
      "contact:fax": "+41 31 3989942",
      "contact:phone": "+41 31 3989940",
      "name": "M\u00f6venpick Wein",
      "opening_hours": "Mo-Fr 09:00-19:00; Sa 09:00-17:00; Su off",
      "operator": "M\u00f6venpick Wein Schweiz",
      "shop": "wine",
      "source": "survey and website",
      "website": "https://www.moevenpick-wein.com/de/moevenpick-wein-bern",
      "wheelchair": "yes"
    },
    "distance_to_station": 425.7673781056508
  },
  {
    "feature_type": "shops",
    "lat": 46.9492414,
    "lon": 7.4399557,
    "tags": {
      "branch": "Bern Bahnhof Galerie",
      "brand": "k kiosk",
      "brand:wikidata": "Q60381703",
      "cash_withdrawal": "yes",
      "cash_withdrawal:fee": "no",
      "cash_withdrawal:operator": "sonect",
      "cash_withdrawal:purchase_required": "no",
      "cash_withdrawal:type": "checkout",
      "level": "1",
      "name": "k kiosk",
      "shop": "newsagent",
      "wheelchair": "yes"
    },
    "distance_to_station": 230.86933037595082
  },
  {
    "feature_type": "shops",
    "lat": 46.9485413,
    "lon": 7.4422077,
    "tags": {
      "check_date:opening_hours": "2021-11-18",
      "email": "bern@optissimo.ch",
      "levels": "1",
      "name": "Optissimo",
      "opening_hours": "Mo 13:00-18:00; Tu-Fr 10:00-18:00; Sa 10:00-14:00",
      "phone": "+41 31 3814207",
      "shop": "optician",
      "website": "https://optissimo.swiss/"
    },
    "distance_to_station": 394.89245765516586
  },
  {
    "feature_type": "shops",
    "lat": 46.9475721,
    "lon": 7.4381521,
    "tags": {
      "check_date": "2024-12-24",
      "level": "1",
      "name": "Bijoux Galerie",
      "shop": "jewelry"
    },
    "distance_to_station": 393.7551227582851
  },
  {
    "feature_type": "shops",
    "lat": 46.9493688,
    "lon": 7.4432609,
    "tags": {
      "full_name": "Juwelier Ercosman",
      "name": "Ercosman",
      "shop": "jewellery"
    },
    "distance_to_station": 402.7678784019745
  },
  {
    "feature_type": "shops",
    "lat": 46.9475965,
    "lon": 7.4384084,
    "tags": {
      "check_date": "2024-12-24",
      "level": "1",
      "name": "Schneiderei Aenderungen B\u00fct\u00fcn",
      "opening_hours": "Mo-Fr 09:00-13:00, 14:00-18:30",
      "shop": "clothes"
    },
    "distance_to_station": 389.8428080926543
  },
  {
    "feature_type": "shops",
    "lat": 46.9475707,
    "lon": 7.4388449,
    "tags": {
      "alt_name": "Rauchwaren Barth",
      "contact:addr": "Bubenbergplatz 4, 3011 Bern",
      "contact:phone": "+41 31 311 20 10",
      "name": "Barth Tabak",
      "operator": "Martin Barth",
      "shop": "tobacco"
    },
    "distance_to_station": 392.88029255560775
  },
  {
    "feature_type": "shops",
    "lat": 46.9520243,
    "lon": 7.4344472,
    "tags": {
      "addr:city": "Bern",
      "addr:country": "CH",
      "addr:housenumber": "12",
      "addr:postcode": "3012",
      "addr:street": "L\u00e4nggassstrasse",
      "contact:email": "info@libromania.ch",
      "contact:fax": "+41 31 3053031",
      "contact:phone": "+41 31 3053030",
      "delivery:covid19": "only",
      "description": "Bestellung und Hauslieferung",
      "description:covid19": "Bestellung und Hauslieferung",
      "name": "LibRomania",
      "opening_hours": "Mo-Fr 09:00-18:30; Sa 09:15-16:00",
      "opening_hours:covid19": "off",
      "shop": "books",
      "source": "survey;website",
      "website": "https://www.libromania.ch/",
      "wheelchair": "yes"
    },
    "distance_to_station": 331.5445637182048
  },
  {
    "feature_type": "shops",
    "lat": 46.9554708,
    "lon": 7.4382641,
    "tags": {
      "contact:addr": "Fischerweg 20, 3012 Bern",
      "contact:phone": "+41 799041770",
      "name": "The Corner Shop",
      "note": "Shop address:  Bierh\u00fcbeliweg 25, 3012 Bern",
      "shop": "hairdresser",
      "website": "https://the-corner-shop.ch/"
    },
    "distance_to_station": 486.67903858488955
  },
  {
    "feature_type": "shops",
    "lat": 46.9531407,
    "lon": 7.4353521,
    "tags": {
      "alt_name": "L\u00e4nggass Optik",
      "contact:addr": "Gesellschaftsstrasse 29, 3012 Bern",
      "contact:email": "laenggass-optik@bluewin.ch",
      "contact:fax": "+41 31 3027727",
      "contact:phone": "+41 31 3027722",
      "name": "L\u00e4nggass-Optik",
      "opening_hours": "Mo 13:30-18:30; Tu,We 08:30-12:00,13:30-18:30; Th 13:30-20:00; Fr 08:30-12:00,13:30-18:30; Sa 08:30-13:00; Su off; PH off",
      "operator": "L\u00e4nggass Optik GmbH",
      "shop": "optician",
      "source": "survey",
      "wheelchair": "no"
    },
    "distance_to_station": 335.05953256221284
  },
  {
    "feature_type": "shops",
    "lat": 46.9469347,
    "lon": 7.4387077,
    "tags": {
      "alt_name": "chaussures XL",
      "brand": "Kandahar;Mephisto",
      "check_date": "2025-06-25",
      "contact:addr": "Schwanengasse 4, 3011 Bern",
      "contact:phone": "+41 31 3121626",
      "contact:website": "http://www.chaussures-xl.ch/uberuns.php?mod=2",
      "name": "Schneider Chaussures",
      "opening_hours": "Tu-Fr 09:00-18:30; Sa 09:00-16:00",
      "operator": "Chaussures Schneider SA",
      "shop": "shoes",
      "website": "http://www.chaussures-xl.ch",
      "wheelchair": "limited"
    },
    "distance_to_station": 463.2323720843976
  },
  {
    "feature_type": "shops",
    "lat": 46.9468552,
    "lon": 7.4391431,
    "tags": {
      "brand": "Ulla Popken",
      "brand:wikidata": "Q2475146",
      "brand:wikipedia": "en:Ulla Popken",
      "contact:addr": "Schwanengasse 5, 3011 Bern",
      "contact:fax": "+41 31 3127174",
      "contact:phone": "+41 31 3127172",
      "name": "Ulla Popken",
      "opening_hours": "Mo 10:00-18:30; Tu-We 09:00-18:30; Th 09:00-19:00; Fr 09:00-18:30; Sa 09:00-17:00; Su off",
      "shop": "clothes",
      "website": "https://www.ullapopken.ch/",
      "wheelchair": "no"
    },
    "distance_to_station": 473.79713672843434
  },
  {
    "feature_type": "shops",
    "lat": 46.9486381,
    "lon": 7.4373157,
    "tags": {
      "addr:city": "Bern",
      "addr:housenumber": "4b",
      "addr:postcode": "3008",
      "addr:street": "Schanzenstrasse",
      "email": "info@aggarwal.ch",
      "level": "2",
      "name": "Aggarwal",
      "opening_hours": "Mo-Fr 09:00-20:00; Sa 09:00-17:00",
      "origin": "indian",
      "phone": "+41 313118655",
      "shop": "supermarket",
      "takeaway": "yes",
      "website": "https://www.aggarwal.ch",
      "wheelchair": "yes"
    },
    "distance_to_station": 290.5907782326407
  },
  {
    "feature_type": "shops",
    "lat": 46.946795,
    "lon": 7.4395785,
    "tags": {
      "contact:addr": "Schwanengasse 5/7, 3011 Bern",
      "contact:fax": "+41 31 3114151",
      "contact:phone": "+41 31 3114156",
      "contact:website": "http://www.schneider-bern.ch/uberuns.php?mod=2",
      "name": "Schneider Chaussures",
      "opening_hours": "Mo 13:00-18:30; Tu-We 09:00-18:30; Th 09:00-20:00; Fr 09:00-18:30; Sa 09:00-17:00; Su off",
      "operator": "Chaussures Schneider SA",
      "shop": "shoes",
      "source": "survey and website",
      "website": "https://www.schneider-bern.ch/",
      "wheelchair": "yes"
    },
    "distance_to_station": 484.42223427104597
  },
  {
    "feature_type": "shops",
    "lat": 46.9467428,
    "lon": 7.4394264,
    "tags": {
      "alt_name": "Haarmania Frisiersalon",
      "contact:addr": "Schwanengasse 5/7, 3011 Bern",
      "contact:phone": "+41 31 3116878",
      "name": "Haarmania",
      "opening_hours": "Mo off; Tu-Fr 08:00-18:00; Sa 08:00-13:00; Su off",
      "operator": "Stefan Laager & Rocchina Cacchio",
      "shop": "hairdresser",
      "source": "survey and website",
      "website": "https://www.haarmania.ch/"
    },
    "distance_to_station": 488.5425764651046
  },
  {
    "feature_type": "shops",
    "lat": 46.9468122,
    "lon": 7.4387557,
    "tags": {
      "check_date": "2025-06-25",
      "contact:addr": "Schwanengasse 6, 3011 Bern",
      "contact:email": "info@bodaybulloni.ch",
      "contact:fax": "+41 31 3119848",
      "contact:phone": "+41 31 3117982",
      "name": "Boday Bulloni",
      "opening_hours": "Mo 13:30-18:30; Tu-Fr 09:00-18:30; Sa 09:00-17:00",
      "operator": "Boday-Bulloni GmbH",
      "shop": "optician",
      "source": "survey and website",
      "website": "https://www.bodaybulloni.ch/",
      "wheelchair": "no"
    },
    "distance_to_station": 476.92806905763706
  },
  {
    "feature_type": "shops",
    "lat": 46.947225,
    "lon": 7.4395879,
    "tags": {
      "addr:housenumber": "9",
      "addr:street": "Bubenbergplatz",
      "contact:addr": "Bubenbergplatz 9, 3011 Bern",
      "contact:email": "info@transa.ch",
      "contact:phone": "+41 848 084 811",
      "name": "Transa",
      "opening_hours": "Mo-We, Fr 10:00-19:00; Th 10:00-20:00; Sa 09:00-18:00",
      "shop": "outdoor",
      "website": "https://www.transa.ch/de/stores/bern/",
      "wheelchair": "yes"
    },
    "distance_to_station": 437.3569820802558
  },
  {
    "feature_type": "shops",
    "lat": 46.9494766,
    "lon": 7.4428079,
    "tags": {
      "alt_name": "4feet der berner Laufschuhladen",
      "check_date": "2024-08-06",
      "contact:addr": "Aarbergergasse 29, 3011 Bern",
      "contact:email": "info@4feet.ch",
      "contact:facebook": "https://www.facebook.com/4feet.der.berner.laufladen",
      "contact:fax": "+41 31 3120513",
      "contact:phone": "+41 31 3120512",
      "name": "4feet",
      "old_name": "InterSport",
      "opening_hours": "Mo 11:00-18:30; Tu-We,Fr 10:00-18:30; Th 09:30-20:00; Sa 09:00-17:00",
      "operator": "4feet AG",
      "shop": "sports",
      "source": "survey and website",
      "website": "https://www.4feet.ch/"
    },
    "distance_to_station": 366.8825360690219
  },
  {
    "feature_type": "shops",
    "lat": 46.9515664,
    "lon": 7.4414687,
    "tags": {
      "addr:city": "Bern",
      "addr:housenumber": "35",
      "addr:postcode": "3011",
      "addr:street": "Bollwerk",
      "check_date": "2025-01-21",
      "email": "bern@aureusdrive.ch",
      "name": "AureusDrive Bern",
      "opening_hours": "Tu-Fr 10:00-18:00; Sa 10:00-16:00",
      "phone": "+41794158826",
      "service:bicycle:pump": "no",
      "service:bicycle:repair": "yes",
      "service:bicycle:retail": "yes",
      "shop": "bicycle",
      "website": "https://www.aureusdrive-bern.ch/"
    },
    "distance_to_station": 223.8360748688685
  },
  {
    "feature_type": "shops",
    "lat": 46.9475054,
    "lon": 7.4354641,
    "tags": {
      "addr:city": "Bern",
      "addr:housenumber": "18",
      "addr:postcode": "3008",
      "addr:street": "Laupenstrasse",
      "alt_name": "Digitec Bern",
      "branch": "Bern",
      "brand": "Digitec Galaxus",
      "brand:wikidata": "Q1225079",
      "check_date": "2024-08-29",
      "contact:addr": "Laupenstrasse 18, 3008 Bern",
      "contact:email": "digitec@digitec.ch",
      "contact:fax": "+41 848 008801",
      "contact:phone": "+41 44 5759500",
      "name": "Digitec Galaxus AG",
      "opening_hours": "Mo-Fr 09:30-19:00; Sa 09:00-17:00",
      "operator": "Digitec Galaxus",
      "shop": "electronics",
      "website": "https://www.digitec.ch",
      "wheelchair": "limited",
      "wheelchair:description": "Hat Rollstuhllift der manchmal aber nicht ohne Hilfe funktioniert"
    },
    "distance_to_station": 465.2119361468071
  },
  {
    "feature_type": "shops",
    "lat": 46.94862,
    "lon": 7.4413603,
    "tags": {
      "contact:addr": "Schweizerhof-Passage, Spitalgasse 38, 3011 Bern",
      "contact:email": "mail@ton-traeger.ch",
      "contact:phone": "+41 31 3124343",
      "name": "der klassiker tontr\u00e4ger",
      "opening_hours": "Mo 13:00-18:30; Tu-Fr 09:00-18:30; Sa 09:00-17:00; Su off",
      "operator": "tontr\u00e4ger music & more GmbH",
      "shop": "hifi",
      "source": "website",
      "website": "http://www.ton-traeger.ch"
    },
    "distance_to_station": 346.331297510082
  },
  {
    "feature_type": "shops",
    "lat": 46.9481854,
    "lon": 7.4423636,
    "tags": {
      "alt_name": "Drogeriemarkt M\u00fcller",
      "brand": "M\u00fcller",
      "brand:wikidata": "Q1958759",
      "check_date": "2023-12-18",
      "contact:addr": "Spitalgasse 26, 3011 Bern",
      "contact:phone": "+41 31 3187820",
      "level": "0",
      "name": "M\u00fcller",
      "opening_hours": "Mo-We,Fr 09:00-19:00; Th 09:00-20:00; Sa 09:00-18:00",
      "operator": "M\u00fcller Handels AG Schweiz",
      "ref:branch": "5101",
      "shop": "chemist",
      "website": "https://www.mueller.ch",
      "wheelchair": "yes"
    },
    "distance_to_station": 432.02650832302174
  },
  {
    "feature_type": "shops",
    "lat": 46.9481828,
    "lon": 7.4411618,
    "tags": {
      "brand": "L\u00e4ckerli Huus",
      "check_date": "2023-09-22",
      "contact:addr": "Bahnhofplatz 3, 3011 Bern",
      "contact:email": "info@laeckerli-huus.ch",
      "contact:fax": "+41 31 3118283",
      "contact:phone": "+41 31 3118272",
      "levels": "1",
      "name": "L\u00e4ckerli Huus",
      "opening_hours": "Mo-Fr 09:00-18:30; Sa 09:00-17:00",
      "operator": "L\u00e4ckerli Huus AG",
      "shop": "confectionery",
      "source": "website",
      "website": "https://www.laeckerli-huus.ch/pages-0/05-Bern-Bahnhofplatz",
      "wheelchair": "yes"
    },
    "distance_to_station": 378.19878304709727
  },
  {
    "feature_type": "shops",
    "lat": 46.95107,
    "lon": 7.4361685,
    "tags": {
      "addr:city": "Bern",
      "addr:housenumber": "14",
      "addr:postcode": "3012",
      "addr:street": "Falkenplatz",
      "email": "bestellung@haupt.ch",
      "fax": "+41 31 3090910",
      "name": "Haupt",
      "opening_hours": "Mo-Fr 09:00-18:30; Sa 09:00-17:00; Su off",
      "operator": "Haupt Verlag AG",
      "phone": "+41 31 3090909",
      "shop": "books",
      "website": "https://www.haupt.ch/",
      "wheelchair": "no"
    },
    "distance_to_station": 184.5911034569684
  },
  {
    "feature_type": "shops",
    "lat": 46.948002,
    "lon": 7.4412074,
    "tags": {
      "alt_name": "PKZ Men Bern",
      "contact:addr": "Bahnhofplatz 1 / Spitalgasse, 3011 Bern",
      "contact:email": "bern@pkz.ch",
      "contact:phone": "+41 31 3114313",
      "levels": "2",
      "name": "PKZ",
      "opening_hours": "Mo-We 09:00-19:00; Th 09:00-21:00; Fr 09:00-19:00; Sa 09:00-17:00; Su off",
      "shop": "clothes",
      "source": "website",
      "toilets:wheelchair": "no",
      "website": "https://www.pkz.ch/de/36-storelocator?sid=2#detailanchor",
      "wheelchair": "yes"
    },
    "distance_to_station": 397.29003337115927
  },
  {
    "feature_type": "shops",
    "lat": 46.9472084,
    "lon": 7.4412671,
    "tags": {
      "contact:addr": "Schauplatzgasse 37 / Gurtengasse 2-4, 3011 Bern",
      "name": "Loeb Lebensmittel",
      "opening_hours": "Mo-Fr 07:00-20:00; Sa 07:00-17:00; Su off",
      "operator": "Loeb AG",
      "shop": "department_store",
      "source": "survey and website",
      "toilets:wheelchair": "yes",
      "website": "https://www.loeb.ch/de/loeb/standorte/bern.html",
      "wheelchair": "yes"
    },
    "distance_to_station": 477.74309546182707
  },
  {
    "feature_type": "shops",
    "lat": 46.9496261,
    "lon": 7.4433329,
    "tags": {
      "contact:addr": "Aarbergergasse 16-18, 3011 Bern",
      "contact:email": "shop@yamatuti.ch",
      "contact:fax": "+41 31 3182658",
      "contact:phone": "+41 31 3182656",
      "name": "Yamatuti",
      "opening_hours": "Mo-We 10:00-18:30; Th 10:00-21:00; Fr 10:00-18:30; Sa 10:00-17:00; Su off",
      "operator": "YAMATUTI GmbH",
      "shop": "gift",
      "start_date": "2000",
      "website": "https://www.yamatuti.ch"
    },
    "distance_to_station": 394.8692622045581
  },
  {
    "feature_type": "shops",
    "lat": 46.9491041,
    "lon": 7.4423526,
    "tags": {
      "brand": "Dosenbach",
      "brand:wikidata": "Q2677329",
      "contact:addr": "Neuengasse 24, 3011 Bern",
      "contact:phone": "+41 31 3180155",
      "name": "Dosenbach",
      "opening_hours": "Mo-We 09:00-19:00; Th 09:00-21:00; Fr 09:00-19:00; Sa 09:00-17:00; Su off",
      "shop": "shoes",
      "source": "survey and website",
      "website": "https://www.dosenbach.ch/",
      "wheelchair": "yes"
    },
    "distance_to_station": 361.09598862399827
  },
  {
    "feature_type": "shops",
    "lat": 46.9490504,
    "lon": 7.4428,
    "tags": {
      "alt_name": "PKZ Women",
      "clothes": "women",
      "contact:addr": "Neuengasse 20, 3011 Bern",
      "contact:email": "bern.women@pkz.ch",
      "contact:fax": "+41 31 3123949",
      "contact:phone": "+41 31 3123939",
      "name": "PKZ",
      "opening_hours": "Mo-We 09:00-19:00; Th 09:00-21:00; Fr 09:00-19:00; Sa 09:00-17:00; Su off",
      "operator": "PKZ Burger-Kehl & Co. AG",
      "shop": "clothes",
      "website": "https://www.pkz.ch/",
      "wheelchair": "yes"
    },
    "distance_to_station": 391.8882506656679
  },
  {
    "feature_type": "shops",
    "lat": 46.9491361,
    "lon": 7.4421601,
    "tags": {
      "brand": "Gidor",
      "brand:wikidata": "Q1523182",
      "contact:addr": "Neuengasse 26, 3011 Bern",
      "name": "Gidor",
      "opening_hours": "Mo-We,Fr 09:00-19:00; Th 09:00-20:00; Sa 08:00-17:00; Su,PH closed",
      "opening_hours:url": "https://www.gidor.ch/filiale/bern-ryfflihof/",
      "operator": "Gidor SA",
      "phone": "+41 31 311 47 63",
      "shop": "hairdresser",
      "toilets:wheelchair": "no",
      "website": "https://www.gidor.ch/",
      "wheelchair": "yes"
    },
    "distance_to_station": 347.4376124743626
  },
  {
    "feature_type": "shops",
    "lat": 46.9497528,
    "lon": 7.4425156,
    "tags": {
      "contact:addr": "Aarbergergasse 40, 3011 Bern",
      "contact:email": "info@ksg.ch",
      "contact:fax": "+41 31 3112351",
      "contact:phone": "+41 31 3271313",
      "name": "KSG G-Shock",
      "opening_hours": "Mo-We 11:00-18:30; Tu 11:00-21:00; Fr 11:00-18:30; Sa 11:00-17:00; Su off; PH off",
      "operator": "KSG AG",
      "shop": "sports",
      "source": "Survey and website",
      "website": "https://www.ksg.ch/"
    },
    "distance_to_station": 332.83138169084026
  },
  {
    "feature_type": "shops",
    "lat": 46.9489288,
    "lon": 7.4431757,
    "tags": {
      "brand": "Snipes",
      "brand:wikidata": "Q42306166",
      "check_date:opening_hours": "2023-10-15",
      "name": "Snipes",
      "opening_hours": "Mo-We,Fr 10:00-19:00; Th 10:00-20:00; Sa 09:00-17:00; Su,PH closed",
      "opening_hours:url": "https://www.snipes.ch/de/storedetails?sid=SCH25",
      "shop": "shoes",
      "website": "https://www.snipes.ch/",
      "wheelchair": "yes"
    },
    "distance_to_station": 422.988194880636
  },
  {
    "feature_type": "shops",
    "lat": 46.9488798,
    "lon": 7.4422925,
    "tags": {
      "contact:addr": "Neuengasse 23, 3011 Bern",
      "contact:email": "info@zwald.ch",
      "contact:fax": "+41 31 3117129",
      "contact:phone": "+41 31 3112233",
      "levels": "3",
      "name": "Zwald Mode",
      "opening_hours": "Mo 09:00-18:30; Tu-We 08:00-18:30; Th 08:00-20:00; Fr 08:00-18:30; Sa 08:00-17:00; Su off",
      "operator": "Zwald AG",
      "shop": "clothes",
      "source": "website",
      "website": "https://zwald.ch/"
    },
    "distance_to_station": 373.5038977163164
  },
  {
    "feature_type": "shops",
    "lat": 46.9467172,
    "lon": 7.4381535,
    "tags": {
      "addr:city": "Bern",
      "addr:housenumber": "7",
      "addr:postcode": "3011",
      "addr:street": "Hirschengraben",
      "alt_name": "SVC Ski und Velo Center",
      "brand": "Scott;Specialized;Flyer;BiXS;MTB Cycletech;Bulls",
      "check_date": "2025-07-20",
      "check_date:service:bicycle:retail": "2025-07-20",
      "contact:addr": "Hirschengraben 7, 3011 Bern",
      "contact:email": "bern@ski-velo-center.ch",
      "contact:phone": "+41 31 3120031",
      "name": "Ski+Velo-Center",
      "opening_hours": "Tu-Fr 09:00-18:30; Sa 09:00-16:00",
      "operator": "Straub Velo- und Ski-Center AG",
      "repair": "yes",
      "service:bicycle:pump": "yes",
      "service:bicycle:repair": "yes",
      "service:bicycle:retail": "yes",
      "service:bicycle:second_hand": "no",
      "shop": "bicycle",
      "short_name": "SVC",
      "website": "https://ski-velo-center.ch/center/standorte/bern.html",
      "wheelchair": "yes"
    },
    "distance_to_station": 488.5222386460444
  },
  {
    "feature_type": "shops",
    "lat": 46.9484896,
    "lon": 7.4410481,
    "tags": {
      "brand": "Ochsner Sport",
      "brand:wikidata": "Q102030654",
      "check_date": "2023-09-22",
      "contact:addr": "Schweizerhoflaube, Bahnhofplatz 9, 3011 Bern",
      "contact:phone": "+41 31 3292323",
      "levels": "4",
      "name": "Ochsner Sport",
      "opening_hours": "Mo-We,Fr 09:00-19:00; Th 09:00-20:00; Sa 09:00-17:00",
      "operator": "Dosenbach-Ochsner AG",
      "shop": "sports",
      "source": "survey and website",
      "website": "https://www.ochsner-sport.ch",
      "wheelchair": "yes"
    },
    "distance_to_station": 344.6503204411867
  },
  {
    "feature_type": "shops",
    "lat": 46.9492221,
    "lon": 7.441232,
    "tags": {
      "brand": "Christ",
      "brand:wikidata": "Q1077957",
      "name": "Christ",
      "opening_hours": "Mo-We 08:30-19:00; Th-Fr 08:30-20:00; Sa 08:30-18:00; Su,PH closed",
      "operator": "Coop Genossenschaft",
      "operator:wikidata": "Q432564",
      "phone": "+41 31 329 71 70",
      "shop": "jewelry",
      "website": "https://www.christ-swiss.ch/"
    },
    "distance_to_station": 288.99164833552027
  },
  {
    "feature_type": "shops",
    "lat": 46.9478484,
    "lon": 7.4422833,
    "tags": {
      "alt_name": "Drogeriemarkt M\u00fcller",
      "brand": "M\u00fcller",
      "brand:wikidata": "Q1958759",
      "brand:wikipedia": "en:M\u00fcller (German trade company)",
      "contact:addr": "Spitalgasse 23, 3011 Bern",
      "contact:phone": "+41 31 5320301",
      "levels": "4",
      "name": "M\u00fcller",
      "note": "Filialnummer: 5188",
      "opening_hours": "Mo-We 08:30-19:00; Th 08:30-21:00; Fr 08:30-19:00; Sa 08:00-17:00; Su off; PH off",
      "operator": "M\u00fcller Handels AG Schweiz",
      "shop": "chemist",
      "website": "https://www.mueller.ch/meine-filiale/",
      "wheelchair": "yes"
    },
    "distance_to_station": 457.05044008623037
  },
  {
    "feature_type": "shops",
    "lat": 46.9475498,
    "lon": 7.4384684,
    "tags": {
      "alt_name": "Migros Bubenberg (MM)",
      "branch": "Bern Bubenberg",
      "brand": "Migros",
      "brand:wikidata": "Q680727",
      "brand:wikipedia": "de:Migros",
      "cash_withdrawal": "migros_bank;postfinance_card",
      "cash_withdrawal:fee": "no",
      "cash_withdrawal:purchase_required": "no",
      "cash_withdrawal:type": "checkout",
      "contact:addr": "Bubenbergplatz 8, 3011 Bern",
      "contact:phone": "+41 58 567 61 00",
      "internet_access": "wlan",
      "internet_access:fee": "no",
      "internet_access:ssid": "MIGROS WiFi",
      "level": "0",
      "name": "Migros",
      "opening_hours": "Mo-Fr 07:00-19:00, Sa 07:30-17:00; PH off",
      "operator": "Genossenschaft Migros Aare",
      "shop": "supermarket",
      "source": "survey and website",
      "website": "https://filialen.migros.ch/de/migros-supermarkt-bern-bubenberg",
      "wheelchair": "yes"
    },
    "distance_to_station": 394.89059571960235
  },
  {
    "feature_type": "shops",
    "lat": 46.9467871,
    "lon": 7.437481,
    "tags": {
      "brand": "Coop",
      "brand:wikidata": "Q432564",
      "check_date": "2024-07-29",
      "name": "Coop",
      "opening_hours": "Mo-Fr 06:00-20:00; Sa 06:00-18:00",
      "shop": "convenience",
      "wheelchair": "yes"
    },
    "distance_to_station": 487.03665879700117
  },
  {
    "feature_type": "shops",
    "lat": 46.9477515,
    "lon": 7.4427568,
    "tags": {
      "alt_name": "Globus Bern City",
      "branch": "Bern City",
      "brand": "Globus",
      "brand:wikidata": "Q683505",
      "brand:wikipedia": "de:Magazine zum Globus",
      "contact:addr": "Spitalgasse 17-21, 3011 Bern",
      "contact:fax": "+41 58 5784088",
      "contact:phone": "+41 58 5784040",
      "levels": "5",
      "name": "Globus",
      "opening_hours": "Mo-We 09:00-19:00; Th 09:00-21:00; Fr 09:00-19:00; Sa 08:00-17:00; Su off",
      "operator": "Magazine zum Globus",
      "shop": "department_store",
      "source": "survey and website",
      "website": "https://www.globus.ch/filialsuche/store/106",
      "wheelchair": "yes"
    },
    "distance_to_station": 488.04947408845203
  },
  {
    "feature_type": "shops",
    "lat": 46.9475648,
    "lon": 7.4411794,
    "tags": {
      "check_date": "2023-03-31",
      "contact:addr": "Spitalgasse 47-51, 3011 Bern",
      "contact:email": "info@loeb.ch",
      "internet_access": "wlan",
      "internet_access:fee": "no",
      "internet_access:ssid": "Free_Loeb",
      "level": "-1;5",
      "levels": "3",
      "name": "Loeb",
      "opening_hours": "Mo-We 09:00-19:00; Th 09:00-21:00; Fr 09:00-20:00; Sa 08:00-17:00",
      "operator": "Loeb AG",
      "phone": "+41 31 320 71 11",
      "shop": "department_store",
      "toilets:wheelchair": "yes",
      "website": "https://loeb.ch/filialen/loeb-bern",
      "wheelchair": "yes",
      "wikidata": "Q1432025",
      "wikipedia": "de:Loeb (Unternehmen)"
    },
    "distance_to_station": 439.1580997567136
  },
  {
    "feature_type": "shops",
    "lat": 46.9471173,
    "lon": 7.441577,
    "tags": {
      "contact:addr": "Gurtengasse 4, 3011 Bern",
      "contact:email": "bern@williamsbutcherstable.ch",
      "contact:phone": "+41 31 3207520",
      "name": "Williams ButchersTable",
      "note": "Metzgerei im Loeb Lebensmittel",
      "opening_hours": "Mo-Fr 09:30-20:00; Sa 08:00-17:00",
      "shop": "butcher",
      "source:opening_hours": "https://i.imgur.com/GPKzD9l.jpg",
      "website": "https://www.williamsbutcherstable.ch/"
    },
    "distance_to_station": 497.1782147304052
  },
  {
    "feature_type": "shops",
    "lat": 46.9472036,
    "lon": 7.4414974,
    "tags": {
      "contact:addr": "Gurtengasse 2, 3011 Bern",
      "contact:email": "info@ueli-der-beck.ch",
      "contact:phone": "+41 31 3120516",
      "name": "Ueli der Beck",
      "note": "B\u00e4ckerei im Loeb Lebensmittel",
      "opening_hours": "Mo-Fr 07:00-20:00; Sa 07:00-17:00; Su off",
      "operator": "Ueli der Beck AG",
      "shop": "bakery",
      "source": "survey and website",
      "website": "https://www.ueli-der-beck.ch/unsere-laeden/loeb-lebensmittel"
    },
    "distance_to_station": 485.8852969783077
  },
  {
    "feature_type": "shops",
    "lat": 46.9477757,
    "lon": 7.4416577,
    "tags": {
      "addr:floor": "0",
      "brand": "Reinhard",
      "contact:addr": "Spitalgasse 37, 3011 Bern",
      "contact:email": "info@reinhard-baeckerei.ch",
      "contact:phone": "+41 31 3188130",
      "levels": "1",
      "name": "Brotlade Houd\u00e4ge",
      "opening_hours": "Mo-Fr 06:00-18:30; Sa 08:00-17:00; Su off",
      "operator": "Reinhard AG",
      "shop": "bakery",
      "toilets": "no",
      "website": "https://reinhard.swiss/standorte/Spitalgasse/",
      "wheelchair": "yes"
    },
    "distance_to_station": 436.47190285664925
  },
  {
    "feature_type": "shops",
    "lat": 46.9479944,
    "lon": 7.4431125,
    "tags": {
      "alt_name": "Bayard Co Ltd Bern Herrenmode",
      "branch": "Bern Herrenmode",
      "check_date": "2022-10-21",
      "clothes": "men",
      "contact:addr:full": "Spitalgasse 3, 3011 Bern",
      "levels": "4",
      "name": "Bayard Co Ltd",
      "old_name": "Herren Globus",
      "opening_hours": "Mo-We,Fr 09:00-19:00; Th 09:00-21:00; Sa 09:00-17:00; Su off",
      "operator": "Mode Bayard",
      "shop": "clothes",
      "source": "survey and website",
      "website": "https://www.modebayard.ch/de/bayard-premiummen-bern-1/",
      "wheelchair": "yes"
    },
    "distance_to_station": 486.3904800129727
  },
  {
    "feature_type": "shops",
    "lat": 46.9489516,
    "lon": 7.4443832,
    "tags": {
      "addr:postcode": "3011",
      "alt_name": "Waisenhausplatz",
      "brand": "Glatz",
      "brand:wikidata": "Q111731089",
      "contact:addr": "Waisenhausplatz 21, 3011 Bern",
      "contact:email": "info@glatz-bern.ch",
      "contact:facebook": "beckglatzconfiseur",
      "contact:fax": "+41 31 3002005",
      "contact:phone": "+41 31 3002021",
      "internet_access": "wlan",
      "internet_access:fee": "no",
      "name": "Glatz",
      "opening_hours": "Mo-Fr 06:30-18:00; Sa 07:00-16:00",
      "shop": "bakery",
      "source": "survey and website",
      "website": "https://www.glatz-bern.ch/kontakt/karte/"
    },
    "distance_to_station": 499.7702862026885
  },
  {
    "feature_type": "shops",
    "lat": 46.9472423,
    "lon": 7.4419448,
    "tags": {
      "branch": "Bern",
      "brand": "Pfister",
      "brand:wikidata": "Q104215428",
      "contact:addr": "Schauplatzgasse 33, 3011 Bern",
      "contact:email": "bern@pfister.ch",
      "contact:fax": "+41 31 3909000",
      "contact:phone": "+41 31 3909090",
      "name": "Pfister",
      "opening_hours": "Mo-We 09:00-19:00; Th 09:00-21:00; Fr 09:00-19:00; Sa 09:00-17:00; Su off",
      "operator": "M\u00f6bel Pfister",
      "shop": "furniture",
      "source": "survey and website",
      "website": "https://www.pfister.ch/de/filialen/bern"
    },
    "distance_to_station": 498.46327194423685
  },
  {
    "feature_type": "shops",
    "lat": 46.9482555,
    "lon": 7.4411353,
    "tags": {
      "alt_name": "Confiserie Eichenberger",
      "contact:addr": "Bahnhofplatz 5, 3011 Bern",
      "contact:email": "info@confiserie-eichenberger.ch",
      "contact:fax": "+41 31 3114267",
      "contact:phone": "+41 31 3113325",
      "levels": "1",
      "name": "Eichenberger",
      "opening_hours": "Mo-Fr 07:00-18:30; Sa 06:30-17:00; Su off",
      "operator": "Confiserie Eichenberger AG",
      "shop": "bakery",
      "source": "website",
      "toilets:wheelchair": "no",
      "website": "https://www.confiserie-eichenberger.ch/standorte/bahnhofplatz",
      "wheelchair": "limited"
    },
    "distance_to_station": 370.2389807276354
  },
  {
    "feature_type": "shops",
    "lat": 46.948086,
    "lon": 7.4417561,
    "tags": {
      "alt_name": "Confiserie Beeler",
      "check_date": "2023-12-18",
      "contact:addr": "Spitalgasse 36, 3011 Bern",
      "contact:email": "info@confiserie-beeler.ch",
      "contact:fax": "+41 31 3125303",
      "contact:phone": "+41 31 3112808",
      "levels": "1",
      "name": "Beeler",
      "opening_hours": "Mo-Fr 07:30-19:00; Sa 07:30-17:00; Su 08:30-18:00",
      "operator": "Confiserie Beeler AG",
      "shop": "bakery",
      "toilets:wheelchair": "yes",
      "website": "https://www.confiserie-beeler.ch",
      "wheelchair": "yes"
    },
    "distance_to_station": 411.96183902392585
  },
  {
    "feature_type": "shops",
    "lat": 46.9471748,
    "lon": 7.4400629,
    "tags": {
      "contact:city": "Bern",
      "contact:housenumber": "5",
      "contact:postcode": "3011",
      "contact:street": "Bubenbergplatz",
      "email": "kundendienst@bernmobil.ch",
      "level": "0",
      "name": "Bernmobil Info & Tickets",
      "opening_hours": "Mo-Fr 09:00-18:00; Sa 09:00-17:00; Su,PH closed",
      "operator": "Bernmobil",
      "phone": "+41 31 321 88 44",
      "shop": "ticket",
      "ticket": "public_transport",
      "website": "https://www.bernmobil.ch/",
      "wheelchair": "yes"
    },
    "distance_to_station": 450.3667213149614
  },
  {
    "feature_type": "shops",
    "lat": 46.9472844,
    "lon": 7.439999,
    "tags": {
      "check_date": "2024-10-23",
      "contact:addr": "Bubenbergplatz 5, 3011 Bern",
      "contact:phone": "+41 31 3115566",
      "name": "Ochsner Shoes",
      "opening_hours": "Mo-Fr 09:00-19:00; Sa 09:00-18:00",
      "shop": "shoes",
      "toilets:wheelchair": "no",
      "website": "https://www.ochsner-shoes.ch/",
      "wheelchair": "yes"
    },
    "distance_to_station": 437.3633258546175
  },
  {
    "feature_type": "shops",
    "lat": 46.9492035,
    "lon": 7.4413649,
    "tags": {
      "addr:postcode": "3011",
      "contact:addr": "Neuengasse 36, 3011 Bern",
      "contact:email": "info@brillen.ch",
      "contact:fax": "+41 31 3120687",
      "contact:phone": "+41 31 3114683",
      "name": "brillen.ch",
      "note": "Ist mit 'brillen.ch' angeschrieben",
      "opening_hours": "Tu-Fr 09:00-18:00; Sa 09:00-14:00",
      "operator": "Burkhalter + Gerwig AG",
      "shop": "optician",
      "website": "https://www.brillen.ch/"
    },
    "distance_to_station": 297.5176215552251
  },
  {
    "feature_type": "shops",
    "lat": 46.9470683,
    "lon": 7.4371426,
    "tags": {
      "addr:city": "Bern",
      "addr:housenumber": "5",
      "addr:postcode": "3001",
      "addr:street": "Laupenstrasse",
      "alt_name": "Travelhouse Bern",
      "branch": "Bern",
      "brand": "Travelhouse",
      "check_date": "2025-04-15",
      "check_date:opening_hours": "2025-04-15",
      "contact:addr": "Laupenstrasse 5, 3008 Bern",
      "contact:email": "bern@travelhouse.ch",
      "contact:fax": "+41 31 3808449",
      "contact:phone": "+41 31 3808440",
      "name": "Travelhouse",
      "opening_hours": "Mo-Fr 10:00-18:30; Sa 10:00-14:00",
      "operator": "Hotelplan Suisse",
      "shop": "travel_agency",
      "website": "https://www.hotelplan.ch/travelhouse-bern"
    },
    "distance_to_station": 461.75242561917486
  },
  {
    "feature_type": "shops",
    "lat": 46.9470565,
    "lon": 7.4393003,
    "tags": {
      "addr:postcode": "3011",
      "check_date": "2022-12-09",
      "contact:addr": "Bubenbergplatz 11, 3011 Bern",
      "contact:fax": "+41 31 3117780",
      "contact:phone": "+41 31 3117780",
      "cuisine": "asian",
      "name": "Asian Star",
      "opening_hours": "Mo-We,Fr 09:00-19:00; Th 09:00-21:00; Sa 09:00-16:00",
      "operator": "Apputhurai Thevanantharajah",
      "shop": "grocery"
    },
    "distance_to_station": 452.74816684993715
  },
  {
    "feature_type": "shops",
    "lat": 46.9471633,
    "lon": 7.4391396,
    "tags": {
      "alt_name": "CUPCAKE AFFAIR Bern",
      "brand": "CUPCAKE AFFAIR",
      "check_date": "2022-11-18",
      "contact:addr": "Bubenbergplatz 15, 3011 Bern",
      "contact:email": "bern@cupcake-affair.ch",
      "contact:phone": "+41 31 3114124",
      "name": "Cupcake Affair",
      "opening_hours": "Mo-We,Fr 10:00-19:00; Th 10:00-20:00; Sa 10:00-17:00",
      "operator": "CUPCAKE AFFAIR GmbH",
      "shop": "pastry",
      "website": "https://www.cupcake-affair.ch/"
    },
    "distance_to_station": 439.65317357091345
  },
  {
    "feature_type": "shops",
    "lat": 46.9471515,
    "lon": 7.439069,
    "tags": {
      "brand": "Maggs",
      "check_date": "2022-11-18",
      "contact:addr": "Bubenbergplatz 15, 3011 Bern",
      "contact:email": "info@maggs.ch",
      "contact:fax": "+41 31 3114125",
      "contact:phone": "+41 31 3114124",
      "name": "Maggs",
      "opening_hours": "Mo-We,Fr 10:00-19:00; Th 10:00-20:00; Sa 10:00-17:00",
      "operator": "Loeb AG",
      "shop": "clothes",
      "source": "survey and website",
      "website": "https://www.maggs.ch/"
    },
    "distance_to_station": 440.4941195287454
  },
  {
    "feature_type": "shops",
    "lat": 46.9481132,
    "lon": 7.4411839,
    "tags": {
      "check_date": "2023-09-22",
      "contact:addr": "Bahnhofplatz 3, 3011 Bern",
      "contact:email": "info@flury.com",
      "contact:fax": "+41 31 3113769",
      "contact:phone": "+41 31 3113703",
      "levels": "1",
      "name": "Cigarren Flury",
      "opening_hours": "Mo-Fr 09:00-19:00; Sa 09:00-17:00",
      "operator": "Cigarren Flury AG",
      "shop": "tobacco",
      "source": "website",
      "website": "https://www.flury.com/",
      "wheelchair": "yes"
    },
    "distance_to_station": 385.70755626721024
  },
  {
    "feature_type": "shops",
    "lat": 46.9483466,
    "lon": 7.4433762,
    "tags": {
      "addr:floor": "0",
      "alt_name": "L\u00e4derach Spitalgasse",
      "branch": "Bern Spitalgasse",
      "brand": "L\u00e4derach",
      "brand:wikidata": "Q1437143",
      "contact:addr": "Spitalgasse 2, 3011 Bern",
      "contact:email": "info@laederach.ch",
      "contact:facebook": "https://www.facebook.com/LaederachChocolatier",
      "contact:phone": "+41 31 3110425",
      "craft": "confectionery",
      "name": "L\u00e4derach",
      "opening_hours": "Mo-We 09:00-19:00; Th 09:00-21:00; Fr 09:00-19:00; Sa 09:00-17:00; Su off",
      "operator": "L\u00e4derach (Schweiz)",
      "shop": "confectionery",
      "source": "survey and website",
      "toilets:wheelchair": "no",
      "website": "https://www.laderach.com/de/locations/location-details/bern-spitalgasse-bern-101",
      "wheelchair": "yes"
    },
    "distance_to_station": 474.5246502043614
  },
  {
    "feature_type": "shops",
    "lat": 46.9487045,
    "lon": 7.4428328,
    "tags": {
      "addr:city": "Bern",
      "addr:country": "CH",
      "addr:housenumber": "15",
      "addr:postcode": "3011",
      "addr:street": "Neuengasse / Spitalgass-Passage",
      "alt_name": "Villiger-K\u00fcttel Tobacco",
      "contact:email": "contact@kuettel-bern.ch",
      "contact:fax": "+41 31 3116814",
      "contact:phone": "+41 31 3116812",
      "name": "Villiger-K\u00fcttel",
      "opening_hours": "Mo-We 09:00-18:30; Th 09:00-20:00; Fr 09:00-18:30; Sa 10:00-17:00",
      "operator": "Villiger S\u00f6hne AG",
      "shop": "tobacco",
      "source": "survey and website",
      "website": "https://www.villiger-kuettel.ch/",
      "wheelchair": "yes"
    },
    "distance_to_station": 417.3506812511161
  },
  {
    "feature_type": "shops",
    "lat": 46.9470674,
    "lon": 7.4384695,
    "tags": {
      "addr:city": "Bern",
      "addr:housenumber": "17",
      "addr:postcode": "3011",
      "addr:street": "Bubenbergplatz",
      "alt_name": "Swisscom Shop Bubenbergplatz",
      "branch": "Bern Bubenbergplatz",
      "brand": "Swisscom",
      "brand:wikidata": "Q644324",
      "check_date": "2022-11-18",
      "contact:addr": "Bubenbergplatz 17, 3011 Bern",
      "contact:email": "info@swisscom.com",
      "contact:fax": "+41 31 3129315",
      "contact:phone": "+41 31 3129314",
      "name": "Swisscom",
      "opening_hours": "Mo-Fr 09:00-18:30; Sa 09:00-17:00",
      "operator": "Swisscom (Schweiz)",
      "shop": "telecommunication",
      "source": "website and survey",
      "website": "http://shoplocator.swisscom.ch"
    },
    "distance_to_station": 448.51406476737515
  },
  {
    "feature_type": "shops",
    "lat": 46.9489094,
    "lon": 7.4412919,
    "tags": {
      "contact:addr": "Neuengasse 43, 3011 Bern",
      "contact:email": "hair@upstairsplus.ch",
      "contact:phone": "+41 31 3111126",
      "contact:website": "http://www.upstairsplus.ch/idx_mail.php",
      "level": "1",
      "name": "Upstairs PLUS",
      "opening_hours": "Mo-Fr 09:00-20:00; Sa 07:30-17:00; Su off",
      "operator": "upstairs plus GmbH",
      "shop": "hairdresser",
      "source": "survey and website",
      "website": "https://www.upstairsplus.ch/"
    },
    "distance_to_station": 317.93700168852894
  },
  {
    "feature_type": "shops",
    "lat": 46.9490052,
    "lon": 7.4413375,
    "tags": {
      "addr:city": "Bern",
      "addr:floor": "0",
      "addr:housenumber": "43",
      "addr:postcode": "3011",
      "addr:street": "Neuengasse",
      "alt_name": "Nespresso Boutique Bern",
      "branch": "Bern",
      "brand": "Nespresso",
      "brand:wikidata": "Q301301",
      "contact:addr": "Neuengasse 43, 3011 Bern",
      "contact:phone": "+41 800 555253",
      "levels": "1",
      "name": "Nespresso",
      "opening_hours": "Mo-We 09:00-19:00; Th 09:00-21:00; Fr 09:00-19:00; Sa 09:00-17:00; Su off",
      "operator": "Nestl\u00e9 Nespresso",
      "shop": "coffee",
      "source": "website",
      "website": "https://www.nespresso.com/ch/de/pages/store-locator"
    },
    "distance_to_station": 312.14464239416645
  },
  {
    "feature_type": "shops",
    "lat": 46.9486049,
    "lon": 7.4415094,
    "tags": {
      "alt_name": "Olmo Splendid",
      "branch": "Store Bern",
      "brand": "Levi's",
      "brand:wikidata": "Q127962",
      "clothes": "denim;men;women",
      "contact:addr": "Von-Werdt-Passage 5, 3011 Bern",
      "contact:email": "levisstore@olmo.ch",
      "contact:phone": "+41 31 3115501",
      "name": "Levi's",
      "opening_hours": "Mo-We 09:30-18:30; Th 09:30-20:00; Fr 09:30-19:00; Sa 09:00-17:00",
      "operator": "OLMO AG",
      "shop": "clothes",
      "website": "https://olmo.ch/"
    },
    "distance_to_station": 354.6052852919951
  },
  {
    "feature_type": "shops",
    "lat": 46.9489106,
    "lon": 7.4440603,
    "tags": {
      "addr:floor": "0",
      "alt_name": "k kiosk Waisenhausplatz",
      "brand": "k kiosk",
      "brand:wikidata": "Q60381703",
      "cash_withdrawal": "yes",
      "cash_withdrawal:fee": "no",
      "cash_withdrawal:operator": "sonect",
      "cash_withdrawal:purchase_required": "no",
      "cash_withdrawal:type": "checkout",
      "check_date": "2025-06-05",
      "contact:addr": "Waisenhausplatz 19, 3011 Bern",
      "contact:phone": "+41 31 3113615",
      "name": "k kiosk",
      "opening_hours": "Mo-Sa",
      "owner": "Valora Schweiz AG",
      "shop": "newsagent",
      "source": "survey",
      "website": "https://www.kkiosk.ch/de/agenturen"
    },
    "distance_to_station": 480.67823993886753
  },
  {
    "feature_type": "shops",
    "lat": 46.9490728,
    "lon": 7.4436842,
    "tags": {
      "addr:floor": "0",
      "contact:addr": "Waisenhausplatz 14, 3011 Bern",
      "contact:fax": "+41 31 3105070",
      "contact:phone": "+41 31 3105060",
      "name": "Grieder",
      "opening_hours": "Mo-We 09:30-18:30; Th 09:30-20:00; Fr 09:30-18:30; Sa 09:30-17:00; Su off",
      "operator": "BRUNSCHWIG & CIE SA",
      "shop": "clothes",
      "source": "website and survey",
      "website": "https://stores.bongenie-grieder.ch/de/die-geschafte/bern/"
    },
    "distance_to_station": 446.92862644977305
  },
  {
    "feature_type": "shops",
    "lat": 46.9492117,
    "lon": 7.4413288,
    "tags": {
      "contact:addr": "Neuengasse 36, 3011 Bern",
      "contact:email": "info@einrappen.ch",
      "contact:phone": "+41 31 3117024",
      "contact:website": "https://einrappen.ch/kontakt.php",
      "name": "Einrappen",
      "operator": "Johannes M\u00fcller",
      "shop": "collector",
      "website": "https://einrappen.ch/"
    },
    "distance_to_station": 294.9412382808297
  },
  {
    "feature_type": "shops",
    "lat": 46.949773,
    "lon": 7.4423428,
    "tags": {
      "contact:addr:full": "Aarbergergasse 40, 3011 Bern",
      "contact:email": "shop@kitchener.ch",
      "contact:facebook": "https://www.facebook.com/kitchenershop",
      "contact:fax": "+41 31 3112351",
      "contact:phone": "+41 31 3271330",
      "name": "Kitchener",
      "opening_hours": "Mo-We, Fr 10:00-18:30; Th 10:00-20:00; Sa 10:00-17:00",
      "shop": "clothes",
      "source": "survey and website",
      "website": "http://kitchener.ch/about/stores/",
      "wheelchair": "limited"
    },
    "distance_to_station": 320.1313443765137
  },
  {
    "feature_type": "shops",
    "lat": 46.9488497,
    "lon": 7.4426234,
    "tags": {
      "addr:floor": "0",
      "contact:addr": "Neuengasse 17, 3011 Bern",
      "contact:phone": "+41 31 3118227",
      "name": "Ochsner Shoes",
      "opening_hours": "Mo-We 09:00-19:00; Th 09:00-21:00; Fr 09:00-19:00; Sa 09:00-17:00; Su off",
      "operator": "Dosenbach-Ochsner AG",
      "shop": "shoes",
      "source": "survey and website",
      "website": "https://www.ochsner-shoes.ch/",
      "wheelchair": "yes"
    },
    "distance_to_station": 394.8159629193537
  },
  {
    "feature_type": "shops",
    "lat": 46.9486937,
    "lon": 7.4431939,
    "tags": {
      "alt_name": "Schl\u00fcssel Bern",
      "contact:addr": "Neuengasse 5, 3011 Bern",
      "contact:email": "info@schluessel-bern.ch",
      "contact:fax": "+41 31 3121317",
      "contact:phone": "+41 31 3121315",
      "name": "Swiss-Knife Shop",
      "opening_hours": "Mo-Fr 08:00-18:30; Sa 08:00-16:00; Su off",
      "operator": "Schl\u00fcssel Bern Sicherheits - und Schliesstechnik AG",
      "shop": "doityourself",
      "source": "survey and website",
      "website": "http://www.swiss-knifeshop.ch"
    },
    "distance_to_station": 439.5306564987053
  },
  {
    "feature_type": "shops",
    "lat": 46.9488783,
    "lon": 7.4424675,
    "tags": {
      "alt_name": "zebra fashion",
      "brand": "Zebra",
      "brand:wikidata": "Q99692008",
      "contact:addr": "Neuengasse 21, 3011 Bern",
      "contact:facebook": "https://www.facebook.com/zebrafashionCH",
      "contact:phone": "+41 31 3118024",
      "name": "Zebra",
      "opening_hours": "Mo-We 09:00-19:00; Th 09:00-21:00; Fr 09:00-19:00; Sa 09:00-17:00; Su off",
      "operator": "ZEBRA FASHION AG",
      "shop": "clothes",
      "source": "survey and website",
      "website": "https://www.zebrafashion.com/stores"
    },
    "distance_to_station": 383.6798719170599
  },
  {
    "feature_type": "shops",
    "lat": 46.9481478,
    "lon": 7.4421023,
    "tags": {
      "addr:postcode": "3011",
      "contact:addr": "Spitalgasse 30, 3011 Bern",
      "contact:email": "info@walder.ch",
      "contact:phone": "+41 31 3111172",
      "levels": "3",
      "name": "Walder",
      "opening_hours": "Mo-Fr 09:00-18:30; Sa 09:00-17:00",
      "operator": "Schuhhaus Walder AG",
      "shop": "shoes",
      "toilets": "no",
      "website": "https://www.walder.ch/",
      "wheelchair": "yes"
    },
    "distance_to_station": 422.41599554553915
  },
  {
    "feature_type": "shops",
    "lat": 46.9485055,
    "lon": 7.4439145,
    "tags": {
      "brand": "Mobilezone",
      "brand:wikidata": "Q1680518",
      "contact:addr": "Waaghaus-Passage 8, 3011 Bern",
      "contact:email": "be.waaghaus@mobilezone.ch",
      "contact:fax": "+41 31 3184455",
      "contact:phone": "+41 31 3188866",
      "name": "Mobilezone",
      "opening_hours": "Mo-We 09:00-19:00; Th 09:00-21:00; Fr 09:00-19:00; Sa 09:00-17:00; Su off",
      "operator": "mobilezone ag",
      "shop": "mobile_phone",
      "source": "survey and website",
      "website": "https://www.mobilezone.ch/uber-uns/wer-wir-sind/standorte"
    },
    "distance_to_station": 495.94649414498633
  },
  {
    "feature_type": "shops",
    "lat": 46.9474584,
    "lon": 7.436325,
    "tags": {
      "check_date": "2022-11-18",
      "contact:addr": "Laupenstrasse 8, 3008 Bern",
      "contact:email": "bern@anlikerdm.ch",
      "contact:fax": "+41 31 3285556",
      "contact:phone": "+41 31 3285555",
      "name": "Anliker",
      "opening_hours": "Mo-Fr 09:00-18:30; Sa 09:00-17:00",
      "shop": "furniture",
      "source": "survey and website",
      "website": "http://www.anlikerdm.ch"
    },
    "distance_to_station": 440.21279685692434
  },
  {
    "feature_type": "shops",
    "lat": 46.9492546,
    "lon": 7.4432207,
    "tags": {
      "name": "Gr\u00fcezi Phone Solutions",
      "shop": "mobile_phone",
      "website": "https://www.grueziservices.com/"
    },
    "distance_to_station": 406.3528296759052
  },
  {
    "feature_type": "shops",
    "lat": 46.9482888,
    "lon": 7.442322,
    "tags": {
      "addr:floor": "-1",
      "alt_name": "Goldschmiedeatelier Trudi Ch\u00e8vre",
      "contact:addr": "Spitalgasse 26, 3011 Bern",
      "contact:email": "info@trudi-chevre.ch",
      "contact:fax": "+41 31 3117480",
      "contact:phone": "+41 31 3112008",
      "contact:website": "http://www.trudi-chevre.ch/kontakt.html",
      "craft": "jeweller",
      "name": "Trudi Ch\u00e8vre",
      "opening_hours": "Mo off; Tu-We 08:30-18:30; Th 08:30-20:00; Fr 08:30-18:30; Sa 08:30-16:00; Su off",
      "shop": "jewelry",
      "source": "survey and website",
      "website": "http://www.trudi-chevre.ch"
    },
    "distance_to_station": 421.34578691043555
  },
  {
    "feature_type": "shops",
    "lat": 46.9482487,
    "lon": 7.4428084,
    "tags": {
      "brand": "Patek Philippe;Rolex;Jaeger-LeCoultre;Longines;Certina;Wellendorff;Frieden;Meister;Diadoro;Ole Lynggaard Copenhagen",
      "contact:addr": "Spitalgasse 14, 3011 Bern",
      "contact:email": "info@zigerli-iff.ch",
      "contact:fax": "+41 31 3122387",
      "contact:phone": "+41 31 3112367",
      "craft": "jeweller",
      "description": "de:Schmuck und Uhren",
      "description:en": "Jewelry and watches",
      "name": "Zigerli+Iff",
      "opening_hours": "Mo 10:00-18:30; Tu-We 09:00-18:30; Th 09:00-20:00; Fr 09:00-18:30; Sa 09:00-17:00; Su off",
      "operator": "Zigerli+Iff AG",
      "shop": "jewelry",
      "source": "survey and website",
      "website": "https://www.zigerli-iff.ch/"
    },
    "distance_to_station": 450.07210138928315
  },
  {
    "feature_type": "shops",
    "lat": 46.9475607,
    "lon": 7.442153,
    "tags": {
      "addr:floor": "2",
      "alt_name": "Heads Coiffure",
      "check_date:opening_hours": "2023-09-21",
      "contact:addr": "Storcheng\u00e4sschen 6, 3011 Bern",
      "contact:email": "contact@headscoiffure.ch",
      "contact:phone": "+41 31 3121767",
      "contact:website": "http://www.headscoiffure.ch/pages/kontakt.php",
      "female": "yes",
      "name": "Heads",
      "opening_hours": "Mo off; Tu-Fr 08:00-18:30; Sa 08:00-13:00; Su off",
      "shop": "hairdresser",
      "source": "survey and website",
      "website": "https://www.headscoiffure.ch"
    },
    "distance_to_station": 477.09478972243267
  },
  {
    "feature_type": "shops",
    "lat": 46.9481603,
    "lon": 7.4422295,
    "tags": {
      "brand": "Calzedonia",
      "brand:wikidata": "Q1027874",
      "contact:addr": "Spitalgasse 28, 3011 Bern",
      "contact:email": "bern3@companys.ch",
      "contact:fax": "+41 31 3030001",
      "contact:phone": "+41 31 3030000",
      "levels": "1",
      "name": "Calzedonia",
      "opening_hours": "Mo-We 09:00-19:00; Th 09:00-21:00; Fr 09:00-20:00; Sa 09:00-17:00; Su off",
      "operator": "Companys AG",
      "shop": "clothes",
      "source": "survey and website",
      "website": "https://www.companys.ch/site/#/article/548",
      "wheelchair": "yes"
    },
    "distance_to_station": 427.4944471442134
  },
  {
    "feature_type": "shops",
    "lat": 46.9502947,
    "lon": 7.4419484,
    "tags": {
      "alt_name": "Coiffure INTERNATIONAL",
      "contact:addr": "Genfergasse 13, 3011 Bern",
      "contact:email": "info@coiffure-international.ch",
      "contact:phone": "+41 31 3112885",
      "contact:website": "http://www.coiffure-international.ch/contact.php",
      "description": "de:Damen & Herren",
      "name": "International",
      "opening_hours": "Mo off; Tu-Fr 08:00-18:30; Sa 07:30-16:00; Su off",
      "operator": "Coiffure International R. Zuli (Einzelunternehmen)",
      "shop": "hairdresser",
      "source": "survey and website",
      "website": "http://www.coiffure-international.ch"
    },
    "distance_to_station": 269.4722937090981
  },
  {
    "feature_type": "shops",
    "lat": 46.9502052,
    "lon": 7.4419766,
    "tags": {
      "addr:postcode": "3011",
      "alt_name": "Gummi Oberleitner",
      "contact:addr": "Genfergasse 11-13, 3011 Bern",
      "contact:email": "info@gobag.ch",
      "contact:fax": "+41 31 3125680",
      "contact:phone": "+41 31 3113383",
      "description": "de:Schaumstoff, Schl\u00e4uche, Matten, Sport- Fitnessmatten, Schraubensortiment und Bastelmaterial",
      "name": "GOBAG",
      "opening_hours": "Mo-We 09:00-18:30; Th 09:00-21:00; Fr 09:00-18:30; Sa 09:00-17:00; Su off",
      "operator": "Gobag Gummi Oberleitner AG",
      "shop": "doityourself",
      "source": "survey and website",
      "website": "https://www.gobag.ch/"
    },
    "distance_to_station": 274.93528682535555
  },
  {
    "feature_type": "shops",
    "lat": 46.9503146,
    "lon": 7.4421283,
    "tags": {
      "alt_name": "GOBATREK",
      "check_date": "2023-06-02",
      "contact:addr": "Genfergasse 15, 3011 Bern",
      "contact:email": "info@gobag.ch",
      "contact:fax": "+41 31 3125680",
      "contact:phone": "+41 31 3113383",
      "name": "GOBA TREK",
      "opening_hours": "Mo-Fr 09:00-18:30; Sa 09:00-17:00",
      "operator": "Gobag Gummi Oberleitner AG",
      "shop": "outdoor",
      "source": "survey and website",
      "website": "http://www.gobatrek.ch"
    },
    "distance_to_station": 281.69413672217354
  },
  {
    "feature_type": "shops",
    "lat": 46.9501127,
    "lon": 7.4417967,
    "tags": {
      "alt_name": "BLS Reisezentrum Bern Genfergasse",
      "check_date": "2023-09-22",
      "check_date:opening_hours": "2023-04-04",
      "contact:addr": "Genfergasse 11, 3011 Bern",
      "contact:email": "reisezentrum@bls.ch",
      "contact:fax": "+41 58 3273270",
      "contact:phone": "+41 58 3273271",
      "description": "de:Informationen und Billette f\u00fcr St\u00e4dte- und Fernreisen",
      "name": "BLS Reisezentrum",
      "opening_hours": "Mo-Fr 07:30-18:00; Sa 09:00-12:30",
      "operator": "BLS AG",
      "shop": "travel_agency",
      "source": "survey and website",
      "website": "https://www.bls.ch/e/reisen-ausfluege/reisezentrum-bern.php",
      "wheelchair": "limited"
    },
    "distance_to_station": 266.32469614353374
  },
  {
    "feature_type": "shops",
    "lat": 46.949983,
    "lon": 7.4417189,
    "tags": {
      "check_date": "2023-09-22",
      "contact:addr": "Aarbergergasse 60, 3011 Bern",
      "contact:email": "mail@aernibern.ch",
      "contact:facebook": "https://www.facebook.com/aernibern",
      "contact:phone": "+41 31 3112468",
      "name": "Aerni Kleid",
      "opening_hours": "Mo-We,Fr 08:00-18:30; Th 08:00-20:00; Sa 08:00-16:00",
      "operator": "AERNI riedogroup AG",
      "shop": "clothes",
      "source": "survey and website",
      "website": "https://aernibern.ch/boutique-bern/kleid.html",
      "wheelchair": "yes"
    },
    "distance_to_station": 267.3435747057905
  },
  {
    "feature_type": "shops",
    "lat": 46.950036,
    "lon": 7.4417351,
    "tags": {
      "addr:city": "Bern",
      "addr:country": "CH",
      "addr:housenumber": "60",
      "addr:postcode": "3011",
      "addr:street": "Aarbergergasse",
      "check_date": "2023-09-22",
      "contact:email": "mail@aernibern.ch",
      "contact:facebook": "https://www.facebook.com/aernibern",
      "contact:phone": "+41 31 3112468",
      "name": "Aerni Haar",
      "opening_hours": "Mo-We,Fr 08:00-18:30; Th 08:00-20:00; Sa 08:00-16:00",
      "operator": "AERNI riedogroup AG",
      "shop": "hairdresser",
      "source": "survey and website",
      "website": "https://aernibern.ch/coiffeur-bern/haar.html"
    },
    "distance_to_station": 265.7574723071589
  },
  {
    "feature_type": "shops",
    "lat": 46.9498916,
    "lon": 7.4418295,
    "tags": {
      "alt_name": "Thomas Lachenmeier + Co",
      "contact:addr": "Aarbergergasse 56, 3011 Bern",
      "contact:email": "bern@lachenmeier.net",
      "contact:fax": "+41 31 3114967",
      "contact:phone": "+41 31 3111249",
      "name": "Lachenmeier Farben",
      "opening_hours": "Mo-We 09:00-18:30; Th 09:00-20:00; Fr 09:00-18:30; Sa 09:00-17:00; Su off",
      "operator": "Thomas Lachenmeier & Co. Farben, Lacke und Malutensilien",
      "shop": "paint",
      "source": "survey and website",
      "website": "http://www.lachenmeierfarben.ch/filialen/bern-aarbergergasse-56"
    },
    "distance_to_station": 279.54606058157634
  },
  {
    "feature_type": "shops",
    "lat": 46.9499213,
    "lon": 7.4424305,
    "tags": {
      "contact:addr": "Aarbergergasse 40, 3011 Bern",
      "contact:email": "bern@kitchenerplus.ch",
      "contact:facebook": "https://www.facebook.com/kitchenershop",
      "contact:fax": "+41 31 3112351",
      "contact:phone": "+41 31 3271334",
      "name": "Kitchener Plus",
      "opening_hours": "Mo 12:00-18:30; Tu-We 10:00-18:30; Th 10:00-21:00; Fr 10:00-18:30; Sa 10:00-17:00; Su off",
      "shop": "clothes",
      "source": "survey and website",
      "website": "http://kitchener.ch/shops/kitchener-plus-bern/"
    },
    "distance_to_station": 318.92952311092444
  },
  {
    "feature_type": "shops",
    "lat": 46.950195,
    "lon": 7.4423563,
    "tags": {
      "alt_name": "Tip To Tail Boarder's Choice Bern",
      "check_date": "2023-06-02",
      "contact:addr": "Speichergasse 35, 3011 Bern",
      "contact:email": "info@tiptotail.ch",
      "contact:phone": "+41 31 3518989",
      "name": "Tip To Tail",
      "opening_hours": "Tu-We,Fr 12:00-18:30; Th 12:00-21:00; Sa 10:00-17:00",
      "operator": "Tip To Tail GmbH",
      "shop": "sports",
      "source": "survey and website",
      "website": "https://www.tiptotail.ch/"
    },
    "distance_to_station": 302.35861501270483
  },
  {
    "feature_type": "shops",
    "lat": 46.9501455,
    "lon": 7.442641,
    "tags": {
      "alt_name": "hajk Shop Bern & Atlas Travelbooks",
      "check_date": "2024-08-23",
      "check_date:opening_hours": "2024-08-23",
      "contact:addr": "Speichergasse 31, 3011 Bern",
      "contact:email": "shopbern@hajk.ch",
      "contact:phone": "+41 31 311 79 17",
      "description": "de:Pfadi-Shop und Cevi-Shop sowie Outdoor Bekleidung und Atlas Travelbooks",
      "name": "hajk",
      "opening_hours": "Mo-We,Fr 10:00-18:30; Th 10:00-19:00; Sa 09:00-17:00",
      "operator": "Hajk Scout & Sport AG",
      "shop": "outdoor",
      "source": "survey and website",
      "website": "https://www.hajk.ch",
      "wheelchair": "limited"
    },
    "distance_to_station": 324.5749180662537
  },
  {
    "feature_type": "shops",
    "lat": 46.949613,
    "lon": 7.4436569,
    "tags": {
      "alt_name": "The North Face Store Bern",
      "contact:addr": "Aarbergergasse 8, 3011 Bern",
      "contact:email": "thenorthface-bern@hajk.ch",
      "contact:phone": "+41 31 3115135",
      "name": "North Face",
      "opening_hours": "Mo-We 10:00-18:30; Th 10:00-21:00; Fr 10:00-18:30; Sa 10:00-17:00; Su off",
      "operator": "Hajk Scout & Sport AG",
      "shop": "outdoor",
      "source": "survey and website",
      "website": "http://www.thenorthface.eu"
    },
    "distance_to_station": 417.943219937715
  },
  {
    "feature_type": "shops",
    "lat": 46.949747,
    "lon": 7.4438654,
    "tags": {
      "alt_name": "Coiffeursalon Voguehair",
      "check_date": "2025-07-19",
      "contact:addr": "Speichergasse 5, 3011 Bern",
      "contact:email": "info@voguehair.ch",
      "contact:phone": "+41 31 3113696",
      "name": "Voguehair",
      "opening_hours": "Mo off; Tu-Fr 09:00-18:00; Sa 09:00-15:00; Su off",
      "operator": "Hair Styling Vogue B. Zehnder (Einzelunternehmen)",
      "shop": "hairdresser",
      "source": "survey and website",
      "website": "https://www.voguehair.ch/salons/bern3"
    },
    "distance_to_station": 427.0490384787889
  },
  {
    "feature_type": "shops",
    "lat": 46.948752,
    "lon": 7.4431346,
    "tags": {
      "addr:floor": "1",
      "alt_name": "Coiffeursalon Voguehair",
      "contact:addr": "Neuengasse 7, 3011 Bern",
      "contact:email": "info@voguehair.ch",
      "contact:phone": "+41 31 3120366",
      "name": "Voguehair",
      "opening_hours": "Mo off; Tu-Fr 09:00-18:30; Sa 09:00-15:30; Su off",
      "operator": "VOGUE PROFESSIONAL HAIRSTYLING Mantarelli Luca (Einzelunternehmen)",
      "shop": "hairdresser",
      "source": "survey and website",
      "website": "https://www.voguehair.ch/salons/bern1/"
    },
    "distance_to_station": 432.01974521581167
  },
  {
    "feature_type": "shops",
    "lat": 46.9509183,
    "lon": 7.4412571,
    "tags": {
      "alt_name": "L\u00e4derbutigg B\u00e4rn",
      "contact:addr": "Speichergasse 14-16, 3011 Bern",
      "contact:email": "info@lederboutique.ch",
      "contact:fax": "+41 31 3113964",
      "contact:phone": "+41 31 3116811",
      "name": "L\u00e4derbutigg",
      "opening_hours": "Mo 10:00-13:00,14:00-18:30; Tu-We,Fr 09:00-12:15,13:30-18:30; Th 09:00-12:15,13:30-21:00; Sa 09:00-17:00; Su off",
      "shop": "leather",
      "source": "survey and website",
      "website": "http://www.lederboutique.ch"
    },
    "distance_to_station": 202.6946853806727
  },
  {
    "feature_type": "shops",
    "lat": 46.948783,
    "lon": 7.4426724,
    "tags": {
      "addr:floor": "1",
      "contact:addr": "Neuengasse 17, 3011 Bern",
      "contact:phone": "+41 31 3112202",
      "description": "de:Damen- und Herrensalon",
      "name": "Five Chairs",
      "opening_hours": "unknown",
      "operator": "Peter Eckert",
      "shop": "hairdresser",
      "source": "survey"
    },
    "distance_to_station": 402.407802095713
  },
  {
    "feature_type": "shops",
    "lat": 46.9491632,
    "lon": 7.4437237,
    "tags": {
      "alt_name": "Boutique Max Mara",
      "brand": "Max Mara",
      "brand:wikidata": "Q1151774",
      "contact:addr": "Waisenhausplatz 22, 3011 Bern",
      "contact:phone": "+41 31 3116328",
      "name": "Max Mara",
      "opening_hours": "Mo-We 09:30-18:30; Th 09:30-20:00; Fr 09:30-18:30; Sa 09:30-17:00; Su off; PH off",
      "operator": "BRUNSCHWIG & CIE SA",
      "shop": "clothes",
      "source": "survey and website",
      "website": "https://stores.bongenie-grieder.ch/de/die-gruppe/partner/max-mara/bern"
    },
    "distance_to_station": 444.56429698017695
  },
  {
    "feature_type": "shops",
    "lat": 46.9483698,
    "lon": 7.4431729,
    "tags": {
      "alt_name": "Bijoux Guggisberg",
      "contact:addr": "Spitalgasse 4, 3011 Bern",
      "contact:email": "info@bijouxguggisberg.ch",
      "contact:phone": "+41 31 3122522",
      "craft": "jeweller",
      "level": "2",
      "name": "Guggisberg",
      "operator": "Christoph Guggisberg",
      "shop": "jewelry",
      "source": "survey and website",
      "website": "http://www.bijouxguggisberg.ch"
    },
    "distance_to_station": 461.1392874301567
  },
  {
    "feature_type": "shops",
    "lat": 46.9480598,
    "lon": 7.4433858,
    "tags": {
      "addr:city": "Bern",
      "addr:floor": "0",
      "addr:housenumber": "2",
      "addr:postcode": "3011",
      "addr:street": "B\u00e4renplatz",
      "alt_name": "Salt Store Spitalgasse",
      "branch": "Bern Spitalgasse",
      "brand": "Salt",
      "brand:wikidata": "Q17325543",
      "contact:addr": "B\u00e4renplatz 2, 3011 Bern",
      "contact:fax": "+41 31 3186511",
      "contact:phone": "+41 800 700 700",
      "levels": "1",
      "name": "Salt",
      "opening_hours": "Mo-We 09:00-19:00; Th 09:00-21:00; Fr 09:00-19:00; Sa 09:00-17:00; Su off",
      "operator": "Salt Mobile",
      "shop": "mobile_phone",
      "website": "https://www.salt.ch/"
    },
    "distance_to_station": 496.23366072817316
  },
  {
    "feature_type": "shops",
    "lat": 46.9483336,
    "lon": 7.4432918,
    "tags": {
      "addr:floor": "-1",
      "branch": "Bern Spitalgasse",
      "brand": "Coop",
      "brand:wikidata": "Q432564",
      "contact:addr": "Spitalgasse 2, 3011 Bern",
      "contact:fax": "+41 31 3100121",
      "contact:phone": "+41 31 3100120",
      "level": "-1",
      "name": "Coop",
      "opening_hours": "Mo-We 07:00-19:00; Th 07:00-21:00; Fr 07:00-19:00; Sa 07:00-17:00; Su off",
      "shop": "supermarket",
      "website": "https://www.coop.ch/",
      "wheelchair": "yes"
    },
    "distance_to_station": 470.5918699398933
  },
  {
    "feature_type": "shops",
    "lat": 46.9492362,
    "lon": 7.4398624,
    "tags": {
      "addr:city": "Bern",
      "addr:housenumber": "10",
      "addr:postcode": "3011",
      "addr:street": "Bahnhofplatz",
      "alt_name": "Salt Store Bern Bahnhof",
      "branch": "Bern Bahnhof",
      "brand": "Salt",
      "brand:wikidata": "Q17325543",
      "level": "-2",
      "name": "Salt",
      "old_name": "Orange",
      "opening_hours": "Mo-Fr 09:00-21:00; Sa 09:00-20:00; Su 10:00-20:00",
      "operator": "Salt Mobile",
      "shop": "mobile_phone",
      "website": "https://www.salt.ch/"
    },
    "distance_to_station": 228.32562309517348
  },
  {
    "feature_type": "shops",
    "lat": 46.9472598,
    "lon": 7.4414976,
    "tags": {
      "contact:addr": "Gurtengasse 2, 3011 Bern",
      "contact:email": "loeb@marsano.ch",
      "contact:fax": "+41 31 3117806",
      "contact:phone": "+41 31 3113335",
      "name": "Marsano",
      "note": "Blumenladen im Loeb",
      "opening_hours": "Mo-Fr 07:00-20:00; Sa 07:00-17:00; Su off",
      "operator": "Marsano AG",
      "shop": "florist",
      "source": "survey and website",
      "website": "https://www.marsano-bern.ch"
    },
    "distance_to_station": 480.328204845105
  },
  {
    "feature_type": "shops",
    "lat": 46.949533,
    "lon": 7.441144,
    "tags": {
      "alt_name": "Leo's Stadtbeck",
      "contact:addr": "Genfergasse 8, 3011 Bern",
      "contact:email": "leobeck@bluewin.ch",
      "contact:fax": "+41 31 3119687",
      "contact:phone": "+41 31 3119688",
      "name": "Leo's",
      "opening_hours": "Mo-Fr 06:00-18:30",
      "payment:cash": "yes",
      "payment:credit_cards": "no",
      "payment:debit_cards": "no",
      "shop": "bakery",
      "source": "survey and website",
      "website": "http://www.leosbeck.ch/web/leos-stadtbeck/164/"
    },
    "distance_to_station": 260.09456063283676
  },
  {
    "feature_type": "shops",
    "lat": 46.9478101,
    "lon": 7.4374764,
    "tags": {
      "check_date": "2023-04-13",
      "indoor_seating": "yes",
      "name": "Eichenberger",
      "opening_hours": "Mo-Fr 06:00-19:30; Th 06:00-21:00; Sa 07:30-17:00; Su 09:00-17:00",
      "outdoor_seating": "yes",
      "shop": "bakery",
      "wheelchair": "yes"
    },
    "distance_to_station": 375.63085670834386
  },
  {
    "feature_type": "shops",
    "lat": 46.9509876,
    "lon": 7.4352141,
    "tags": {
      "check_date": "2025-08-08",
      "email": "info@copyprintbern.ch",
      "mobile": "+41 78 711 89 44",
      "name": "Copyprint Bern Simab",
      "opening_hours": "Mo-Th 09:00-17:30; Fr 09:00-17:00; Sa 09:00-13:00",
      "opening_hours:url": "https://www.copyprintbern.ch/kontakt/",
      "payment:cash": "yes",
      "payment:credit_cards": "yes",
      "payment:debit_cards": "yes",
      "phone": "+41 31 301 88 44",
      "shop": "copyshop",
      "website": "https://www.copyprintbern.ch/"
    },
    "distance_to_station": 257.3078066196184
  },
  {
    "feature_type": "shops",
    "lat": 46.9489976,
    "lon": 7.4375343,
    "tags": {
      "addr:city": "Bern",
      "addr:housenumber": "10",
      "addr:postcode": "3011",
      "addr:street": "Bahnhofplatz",
      "brand": "Coop",
      "brand:wikidata": "Q432564",
      "brand:wikipedia": "de:Coop (Schweiz)",
      "check_date:opening_hours": "2024-03-11",
      "layer": "2",
      "name": "Coop",
      "opening_hours": "Mo-Fr 06:00-20:00; Sa 07:00-18:00; Su,PH closed",
      "shop": "supermarket",
      "wheelchair": "yes"
    },
    "distance_to_station": 247.3761006874299
  },
  {
    "feature_type": "shops",
    "lat": 46.949383,
    "lon": 7.4424199,
    "tags": {
      "contact:addr": "Ryfflig\u00e4sschen 13, 3011 Bern",
      "email": "fizzen.be@fizzen.ch",
      "name": "Fizzen",
      "opening_hours": "Mo-We 10:00-18:30; Th 10:00-21:00; Fr 10:00-18:30; Sa 10:00-17:00; Su off; PH off",
      "operator": "Vintage Textile GmbH",
      "phone": "+41 313111116",
      "second_hand": "yes",
      "shop": "clothes",
      "website": "https://www.fizzen.ch/"
    },
    "distance_to_station": 347.1636401798169
  },
  {
    "feature_type": "shops",
    "lat": 46.9542467,
    "lon": 7.44255,
    "tags": {
      "contact:addr": "Uferweg 42, 3013 Bern",
      "contact:email": "info@atelierlorraine.ch",
      "contact:fax": "+41 31 3330660",
      "contact:phone": "+41 31 3330640",
      "name": "Atelier Lorraine Gmbh",
      "shop": "hardware",
      "website": "https://www.atelierlorraine.ch/"
    },
    "distance_to_station": 460.7770753081529
  },
  {
    "feature_type": "shops",
    "lat": 46.9478029,
    "lon": 7.4362001,
    "tags": {
      "addr:city": "Bern",
      "addr:housenumber": "5",
      "addr:postcode": "3000",
      "addr:street": "Schanzenstrasse",
      "alt_name": "Migros Welle 7",
      "branch": "Bern Welle 7",
      "brand": "Migros",
      "brand:wikidata": "Q680727",
      "brand:wikipedia": "en:Migros",
      "cash_withdrawal": "migros_bank;postfinance_card",
      "cash_withdrawal:fee": "no",
      "cash_withdrawal:purchase_required": "no",
      "cash_withdrawal:type": "checkout",
      "level": "1",
      "name": "Migros",
      "opening_hours": "Mo-Fr 06:00-20:00, Sa 06:00-17:00; PH off",
      "operator": "Genossenschaft Migros Aare",
      "phone": "+41 58 567 49 50",
      "self_service": "yes",
      "shop": "supermarket",
      "source": "https://www.welle7.ch/en/shopping-enjoyment/migros",
      "website": "https://filialen.migros.ch/de/migros-supermarkt-bern-welle-7",
      "wheelchair": "yes"
    },
    "distance_to_station": 409.38486373047124
  },
  {
    "feature_type": "shops",
    "lat": 46.9523606,
    "lon": 7.4334198,
    "tags": {
      "brand": "Fitshop",
      "contact:city": "Bern",
      "contact:email": "bern@fitshop.ch",
      "contact:housenumber": "19",
      "contact:phone": "+41 31 533 50 92",
      "contact:postcode": "3012",
      "contact:street": "L\u00e4nggassstrasse",
      "name": "Fitshop",
      "not:brand:wikidata": "Q15848204",
      "old_name": "Sport-Tiedje",
      "opening_hours": "Mo-Fr 09:00-18:30; Sa 09:00-16:00; Su,PH closed",
      "opening_hours:url": "https://www.fitshop.ch/fitshop-in-bern",
      "operator": "Sport-Tiedje Schweiz GmbH",
      "operator:wikidata": "Q15848204",
      "payment:cash": "yes",
      "payment:mastercard": "yes",
      "payment:visa": "yes",
      "shop": "sports",
      "website": "https://www.fitshop.ch/"
    },
    "distance_to_station": 417.4323696603164
  },
  {
    "feature_type": "shops",
    "lat": 46.9474933,
    "lon": 7.4416481,
    "tags": {
      "addr:housenumber": "37",
      "addr:street": "Spitalgasse",
      "brand": "Coop",
      "brand:wikidata": "Q432564",
      "contact:addr": "Spitalgasse 37, 3011 Bern",
      "contact:fax": "+41 31 3132786",
      "contact:phone": "+41 31 3132785",
      "contact:website": "https://www.coop.ch/de/unternehmen/standorte-und-oeffnungszeiten/detail.html/5376/",
      "levels": "1",
      "name": "Coop",
      "opening_hours": "Mo-Fr 06:30-20:00; Th 06:30-21:00; Sa 07:00-17:00",
      "shop": "supermarket"
    },
    "distance_to_station": 463.0022874676649
  },
  {
    "feature_type": "shops",
    "lat": 46.9483484,
    "lon": 7.4366337,
    "tags": {
      "branch": "Bern HB Welle",
      "brand": "k kiosk",
      "brand:wikidata": "Q60381703",
      "cash_withdrawal": "yes",
      "cash_withdrawal:operator": "sonect",
      "level": "1",
      "name": "k kiosk",
      "opening_hours": "Mo-Th 05:45-21:00; Fr 05:45-21:00; Sa 06:15-21:30; Su 07:00-21:30",
      "operator": "Valora",
      "shop": "newsagent",
      "wheelchair": "yes"
    },
    "distance_to_station": 340.42729489499243
  },
  {
    "feature_type": "shops",
    "lat": 46.948874,
    "lon": 7.4389502,
    "tags": {
      "brand": "k kiosk",
      "brand:wikidata": "Q60381703",
      "cash_withdrawal": "yes",
      "cash_withdrawal:fee": "no",
      "cash_withdrawal:operator": "sonect",
      "cash_withdrawal:purchase_required": "no",
      "cash_withdrawal:type": "checkout",
      "level": "2",
      "name": "k kiosk",
      "opening_hours": "Mo-Fr 05:45-19:00; Sa 08:00-17:00",
      "shop": "newsagent",
      "wheelchair": "yes"
    },
    "distance_to_station": 248.9431995047194
  },
  {
    "feature_type": "shops",
    "lat": 46.9479062,
    "lon": 7.4366661,
    "tags": {
      "addr:city": "Bern",
      "addr:housenumber": "5",
      "addr:postcode": "3000",
      "addr:street": "Schanzenstrasse",
      "alt_name": "Migros Daily Welle 7",
      "branch": "Bern Welle 7",
      "brand": "Migros Daily",
      "level": "2",
      "name": "Migros Daily",
      "opening_hours": "Mo-Fr 06:00-21:30; Sa 06:00-20:00",
      "operator": "Genossenschaft Migros Aare",
      "self_service": "yes",
      "shop": "convenience",
      "website": "https://filialen.migros.ch/de/migros-daily-bern-welle-7-2",
      "wheelchair": "yes"
    },
    "distance_to_station": 384.2776307378326
  },
  {
    "feature_type": "shops",
    "lat": 46.9477713,
    "lon": 7.4420221,
    "tags": {
      "alt_name": "Bakery Kitchen Bern",
      "contact:facebook": "backformen.chGmbh",
      "contact:phone": "+41 31 3112206",
      "level": "1",
      "name": "Bakery Kitchen",
      "opening_hours": "Mo 13:30-18:30; Tu-Fr 10:00-18:30; Sa 10:00-17:00",
      "operator": "La Grande GmbH",
      "shop": "baking_supplies",
      "website": "https://www.bakery-kitchen.ch/",
      "wheelchair": "limited"
    },
    "distance_to_station": 452.1887305369591
  },
  {
    "feature_type": "shops",
    "lat": 46.9531324,
    "lon": 7.4329117,
    "tags": {
      "check_date": "2022-09-26",
      "contact:addr": "L\u00e4nggassstrasse 28, 3012 Bern",
      "contact:phone": "+41 313014402",
      "name": "Magliamania",
      "opening_hours": "Tu-Fr 10:00-17:00; Sa 10:00-14:00",
      "operator": "Babette Eymann",
      "shop": "sewing",
      "website": "https://www.magliamania.com"
    },
    "distance_to_station": 487.32638687036126
  },
  {
    "feature_type": "shops",
    "lat": 46.9493144,
    "lon": 7.4401916,
    "tags": {
      "alt_name": "Migros Bern Bahnhof (MM)",
      "branch": "Bern Bahnhof",
      "brand": "Migros",
      "brand:wikidata": "Q680727",
      "brand:wikipedia": "en:Migros",
      "cash_withdrawal": "migros_bank;postfinance_card",
      "cash_withdrawal:fee": "no",
      "cash_withdrawal:purchase_required": "no",
      "cash_withdrawal:type": "checkout",
      "check_date:opening_hours": "2021-10-03",
      "contact:city": "Bern",
      "contact:housenumber": "10",
      "contact:postcode": "3011",
      "contact:street": "Bahnhofplatz",
      "internet_access": "wlan",
      "internet_access:fee": "no",
      "internet_access:ssid": "MIGROS WiFi",
      "level": "1",
      "name": "Migros",
      "opening_hours": "Mo-Su,PH 08:00-21:00",
      "payment:cash": "yes",
      "payment:credit_cards": "yes",
      "payment:debit_cards": "yes",
      "phone": "+41 58 567 56 50",
      "shop": "supermarket",
      "website": "https://filialen.migros.ch/de/migros-supermarkt-bern-bahnhof",
      "wheelchair": "yes"
    },
    "distance_to_station": 232.41616748906657
  },
  {
    "feature_type": "shops",
    "lat": 46.949295,
    "lon": 7.4401747,
    "tags": {
      "branch": "Bern RBS",
      "brand": "k kiosk",
      "brand:wikidata": "Q60381703",
      "cash_withdrawal": "yes",
      "cash_withdrawal:fee": "no",
      "cash_withdrawal:operator": "sonect",
      "cash_withdrawal:purchase_required": "no",
      "cash_withdrawal:type": "checkout",
      "level": "-2",
      "name": "k kiosk",
      "opening_hours": "Mo-Th 05:30-23:00; Fr 05:30-23:45; Sa 06:00-23:45; Su 06:00-23:00",
      "operator": "Valora",
      "shop": "newsagent",
      "wheelchair": "yes"
    },
    "distance_to_station": 233.6027425511508
  },
  {
    "feature_type": "shops",
    "lat": 46.9466784,
    "lon": 7.4374057,
    "tags": {
      "contact:addr": "Hirschengraben 6, 3011 Bern",
      "contact:email": "optik@hirschengraben6.ch",
      "contact:phone": "+41 31 3818283",
      "name": "Optik am Hirschengraben",
      "opening_hours": "Mo 12:00-18:00; Tu-Fr 09:00-12:00, 13:00-18:30; Sa 08:00-13:00; Su off; PH off",
      "shop": "optician",
      "website": "https://www.hirschengraben6.ch/"
    },
    "distance_to_station": 499.9475692424394
  },
  {
    "feature_type": "shops",
    "lat": 46.948518,
    "lon": 7.4434265,
    "tags": {
      "addr:city": "Bern",
      "addr:housenumber": "6",
      "addr:postcode": "3011",
      "addr:street": "Waisenhausplatz",
      "alt_name": "Interdiscount Waisenhausplatz",
      "branch": "Bern Waisenhausplatz",
      "brand": "Interdiscount",
      "brand:wikidata": "Q1665980",
      "brand:wikipedia": "de:Interdiscount",
      "name": "Interdiscount",
      "opening_hours": "Mo-Th 09:00-19:00; Fr 09:00-20:00; Sa 09:00-17:00",
      "operator": "Coop Genossenschaft",
      "shop": "electronics",
      "website": "https://www.interdiscount.ch"
    },
    "distance_to_station": 465.4559198831373
  },
  {
    "feature_type": "shops",
    "lat": 46.951415,
    "lon": 7.4426623,
    "tags": {
      "contact:addr": "Hodlerstrasse 16a, 3011 Bern",
      "contact:email": "info@futura-optik.ch",
      "contact:fax": "+41 31 3117749",
      "contact:phone": "+41 31 3117747",
      "name": "Futura Optik",
      "opening_hours": "Mo off; Tu-Fr 09:00-18:30; Sa 09:00-16:00; Su off; PH off",
      "operator": "Futura Optik GmbH",
      "shop": "optician",
      "source": "survey and website",
      "website": "http://www.futura-optik.ch"
    },
    "distance_to_station": 310.32750135121404
  },
  {
    "feature_type": "shops",
    "lat": 46.9476472,
    "lon": 7.4417834,
    "tags": {
      "addr:city": "Bern",
      "addr:country": "CH",
      "addr:housenumber": "35",
      "addr:postcode": "3011",
      "addr:street": "Spitalgasse",
      "alt_name": "Delinat-Weinbar Bern",
      "amenity": "bar",
      "contact:phone": "+41 31 3110773",
      "name": "Delinat-Weinbar",
      "opening_hours": "Mo off; Tu-Fr 15:00-22:00; Sa 12:00-22:00; Su,PH off",
      "operator": "Delinat",
      "outdoor_seating": "no",
      "shop": "wine",
      "source": "Survey and website",
      "website": "https://www.delinat.com/weinbar-bern",
      "wheelchair": "no"
    },
    "distance_to_station": 453.6469759460908
  },
  {
    "feature_type": "shops",
    "lat": 46.9484458,
    "lon": 7.4430191,
    "tags": {
      "brand": "Decathlon",
      "brand:wikidata": "Q509349",
      "check_date:opening_hours": "2024-02-29",
      "contact:city": "Bern",
      "contact:housenumber": "4",
      "contact:postcode": "3011",
      "contact:street": "Spitalgasse",
      "name": "Decathlon",
      "opening_hours": "Mo-We,Fr 09:00-19:00; Th 09:00-20:00; Sa 09:00-17:00; Su,PH closed",
      "opening_hours:url": "https://www.decathlon.ch/de/store-view/filiale-bern-city-0070275402754",
      "phone": "+41 31 311 82 83",
      "shop": "sports"
    },
    "distance_to_station": 446.79002711832226
  },
  {
    "feature_type": "shops",
    "lat": 46.9488798,
    "lon": 7.4433495,
    "tags": {
      "brand": "Carat",
      "email": "bern@carat.ch",
      "name": "Wedding Carat",
      "opening_hours": "Mo,Su,PH closed; Tu-Fr 11:00-19:00; Sa 09:00-17:00",
      "operator": "IGS AG",
      "phone": "+41 33 748 12 77",
      "shop": "jewelry",
      "website": "https://www.carat.ch/"
    },
    "distance_to_station": 436.9413259516978
  },
  {
    "feature_type": "shops",
    "lat": 46.9530826,
    "lon": 7.4329856,
    "tags": {
      "check_date": "2022-09-26",
      "contact:addr": "L\u00e4nggassstrasse 28, 3012 Bern",
      "contact:email": "info@eluda.ch",
      "contact:facebook": "https://www.facebook.com/eludagoldschmied",
      "contact:instagram": "https://www.instagram.com/eludagoldschmied",
      "contact:phone": "+41 31 3012511",
      "craft": "goldsmith",
      "name": "E Luda",
      "opening_hours": "Tu-Fr 11:00-18:00; Sa 10:00-16:00",
      "operator": "E Luda GmbH",
      "shop": "jewelry",
      "source": "Survey and website",
      "website": "https://www.eluda.ch"
    },
    "distance_to_station": 479.7945378156088
  },
  {
    "feature_type": "shops",
    "lat": 46.9499704,
    "lon": 7.4432277,
    "tags": {
      "check_date": "2025-07-19",
      "name": "Stars",
      "shop": "hairdresser"
    },
    "distance_to_station": 373.04706118288254
  },
  {
    "feature_type": "shops",
    "lat": 46.947256,
    "lon": 7.4397398,
    "tags": {
      "check_date:opening_hours": "2022-01-31",
      "contact:addr": "Bubenbergplatz 7, 3011 Bern",
      "contact:email": "shop.bern@lwbern.ch",
      "contact:facebook": "http://www.facebook.com/lwbern",
      "contact:fax": "+41 31 3118275",
      "contact:phone": "+41 31 3117971",
      "name": "Leinenweberei",
      "opening_hours": "Mo-We 09:00-19:00; Th 09:00-20:00; Fr 09:00-19:00; Sa 09:00-17:00; Su off; PH off",
      "operator": "Leinenweberei Bern AG",
      "shop": "fabric",
      "source": "survey and website",
      "website": "https://lwbern.ch/privatkunden-fachgeschaeft"
    },
    "distance_to_station": 436.10170779855866
  },
  {
    "feature_type": "shops",
    "lat": 46.9470112,
    "lon": 7.4410733,
    "tags": {
      "name": "Circle",
      "opening_hours": "Mo-We,Fr 10:00-18:30; Th 10:00-20:30; Sa 09:00-17:00",
      "shop": "concept_store",
      "website": "https://circleshop.ch"
    },
    "distance_to_station": 491.89097075240664
  },
  {
    "feature_type": "shops",
    "lat": 46.9476416,
    "lon": 7.4427729,
    "tags": {
      "contact:addr": "Spitalgasse 17-21, 3011 Bern",
      "contact:phone": "+41 58 578 40 23",
      "name": "Parfum Christian Dior",
      "shop": "cosmetics",
      "website": "https://www.dior.com/"
    },
    "distance_to_station": 498.2114739754521
  },
  {
    "feature_type": "shops",
    "lat": 46.9472109,
    "lon": 7.4394732,
    "tags": {
      "check_date": "2024-10-31",
      "contact:addr": "Bubenbergplatz 11, 3011 Bern",
      "contact:email": "29@tobler-optik.ch",
      "contact:fax": "+41 31 3118201",
      "contact:phone": "+41 31 3116539",
      "name": "Tobler",
      "opening_hours": "Mo-Fr 09:00-13:00,14:00-18:30; Sa 09:00-13:00,13:30-16:00",
      "shop": "optician",
      "website": "https://tobler-optik.ch/standorte/tobler-optik-hoergeraete-bern.html"
    },
    "distance_to_station": 437.49825896075725
  },
  {
    "feature_type": "shops",
    "lat": 46.9521518,
    "lon": 7.4342472,
    "tags": {
      "check_date": "2022-10-27",
      "email": "info@tinten-toner-service.ch",
      "name": "TintenTonerService",
      "opening_hours": "Mo-Fr 09:00-12:00,13:00-17:00",
      "phone": "+41313020366",
      "shop": "printer_ink",
      "website": "https://tinten-toner-service.ch/"
    },
    "distance_to_station": 350.4817940927828
  },
  {
    "feature_type": "shops",
    "lat": 46.9478417,
    "lon": 7.4365282,
    "tags": {
      "brand": "Denner",
      "brand:wikidata": "Q379911",
      "brand:wikipedia": "en:Denner (supermarket)",
      "cash_withdrawal": "migros_bank;postfinance_card",
      "cash_withdrawal:fee": "no",
      "cash_withdrawal:purchase_required": "no",
      "cash_withdrawal:type": "checkout",
      "email": "info@denner.ch",
      "level": "1",
      "name": "Denner",
      "opening_hours": "Mo-Fr 07:00-20:00; Sa 07:00-17:00; Su off",
      "phone": "+41 58 999 14 18",
      "shop": "supermarket",
      "source": "https://www.welle7.ch/en/shopping-enjoyment/denner-express"
    },
    "distance_to_station": 394.96530548156164
  },
  {
    "feature_type": "shops",
    "lat": 46.947872,
    "lon": 7.4363786,
    "tags": {
      "female": "yes",
      "level": "1",
      "male": "yes",
      "name": "Star Hair Coiffeur",
      "opening_hours": "Mo-Fr 09:00-19:00; Sa 09:00-17:00; Su off",
      "shop": "hairdresser",
      "source": "https://www.welle7.ch/im-center/star-hair-coiffeur-welle7",
      "website": "https://www.starhaircoiffeur.ch/"
    },
    "distance_to_station": 396.57047273454725
  },
  {
    "feature_type": "shops",
    "lat": 46.9478649,
    "lon": 7.4363082,
    "tags": {
      "brand": "k kiosk",
      "brand:wikidata": "Q60381703",
      "brand:wikipedia": "it:K Kiosk",
      "cash_withdrawal": "yes",
      "cash_withdrawal:fee": "no",
      "cash_withdrawal:operator": "sonect",
      "cash_withdrawal:purchase_required": "no",
      "cash_withdrawal:type": "checkout",
      "level": "1",
      "name": "k kiosk",
      "opening_hours": "Mo-Fr 09:00-20:00; Sa 09:00-17:00; Su off",
      "phone": "+41 31 312 02 62",
      "shop": "newsagent",
      "source": "https://www.welle7.ch/en/shopping-enjoyment/k-kiosk"
    },
    "distance_to_station": 399.5825389575303
  },
  {
    "feature_type": "shops",
    "lat": 46.9476596,
    "lon": 7.4370674,
    "tags": {
      "cafe": "yes",
      "check_date:opening_hours": "2025-06-05",
      "contact:phone": "+41 31 311 86 64",
      "contact:website": "https://reinhard.swiss/standorte/schanzenstrasse-2/",
      "indoor_seating": "yes",
      "name": "Reinhard",
      "opening_hours": "Mo-Fr 06:15-18:30; Sa 07:00-15:00; Su off; PH off",
      "outdoor_seating": "no",
      "payment:credit_cards": "yes",
      "payment:debit_cards": "yes",
      "shop": "bakery"
    },
    "distance_to_station": 399.8525283872722
  },
  {
    "feature_type": "shops",
    "lat": 46.9498324,
    "lon": 7.4410093,
    "tags": {
      "check_date": "2024-08-13",
      "name": "Terravigna",
      "opening_hours": "Mo-Fr 11:00-19:00; Sa 10:00-17:00",
      "shop": "wine",
      "wheelchair": "no"
    },
    "distance_to_station": 230.8927456961034
  },
  {
    "feature_type": "shops",
    "lat": 46.9478644,
    "lon": 7.4421258,
    "tags": {
      "brand": "Rituals",
      "brand:wikidata": "Q62874140",
      "name": "Rituals",
      "shop": "cosmetics"
    },
    "distance_to_station": 448.4078518246212
  },
  {
    "feature_type": "shops",
    "lat": 46.9477941,
    "lon": 7.4417554,
    "tags": {
      "brand": "Import Parfumerie",
      "brand:wikidata": "Q1660352",
      "brand:wikipedia": "de:Import Parfumerie",
      "levels": "1",
      "name": "Import Parfumerie",
      "opening_hours": "Mo-Fr 09:00-18:30; Th 09:00-21:00; Sa 09:00-17:00",
      "shop": "perfumery"
    },
    "distance_to_station": 438.74461153917775
  },
  {
    "feature_type": "shops",
    "lat": 46.9478149,
    "lon": 7.4418692,
    "tags": {
      "branch": "Bern Spitalgasse",
      "brand": "Sunrise",
      "check_date:opening_hours": "2022-06-14",
      "full_name": "Sunrise Shop Bern Spitalgasse",
      "levels": "1",
      "name": "Sunrise",
      "opening_hours": "Mo-We, Fr 09:00-18:30; Th 09:00-21:00; Sa 09:00-17:00",
      "operator": "Sunrise UPC GmbH",
      "operator:wikidata": "Q112573820",
      "shop": "telecommunication",
      "website": "https://www.sunrise.ch/"
    },
    "distance_to_station": 441.60424791488686
  },
  {
    "feature_type": "shops",
    "lat": 46.9478293,
    "lon": 7.4419479,
    "tags": {
      "addr:city": "Bern",
      "addr:housenumber": "33",
      "addr:postcode": "3011",
      "addr:street": "Spitalgasse",
      "brand": "S\u00f8strene Grene",
      "brand:wikidata": "Q10730152",
      "levels": "2",
      "name": "S\u00f8strene Grene",
      "opening_hours": "Mo-We,Fr 09:00-19:00; Th 09:00-21:00; Sa 09:00-17:00",
      "phone": "+41 31 3110392",
      "shop": "interior_decoration",
      "website": "https://sostrenegrene.com/"
    },
    "distance_to_station": 443.6751104770233
  },
  {
    "feature_type": "shops",
    "lat": 46.9480241,
    "lon": 7.4413736,
    "tags": {
      "brand": "H&M",
      "brand:wikidata": "Q188326",
      "brand:wikipedia": "en:H&M",
      "check_date": "2023-12-18",
      "contact:addr": "Spitalgasse 40, 3011 Bern",
      "contact:phone": "+41 58 5150700",
      "levels": "3",
      "name": "H&M",
      "opening_hours": "Mo-We,Fr 09:00-19:00; Th 09:00-20:00; Sa 09:00-18:00",
      "operator": "H & M Hennes & Mauritz AG",
      "shop": "clothes"
    },
    "distance_to_station": 401.6281940416272
  },
  {
    "feature_type": "shops",
    "lat": 46.9480319,
    "lon": 7.4415253,
    "tags": {
      "check_date": "2023-12-18",
      "contact:addr": "Spitalgasse 38, 3011 Bern",
      "levels": "2",
      "name": "Anouk",
      "opening_hours": "Mo-We,Fr 10:00-18:30; Th 10:00-20:00; Sa 10:00-18:00",
      "shop": "clothes"
    },
    "distance_to_station": 407.0550875008042
  },
  {
    "feature_type": "shops",
    "lat": 46.9480435,
    "lon": 7.4415974,
    "tags": {
      "alt_name": "KURZ Schmuck und Uhren",
      "contact:addr": "Spitalgasse 38, 3011 Bern",
      "contact:email": "spitalgasse@kurzschmuckuhren.ch",
      "contact:fax": "+41 31 3122071",
      "contact:phone": "+41 31 3110422",
      "levels": "1",
      "name": "Kurz",
      "opening_hours": "Mo-Fr 09:00-18:30; Sa 09:00-17:00; Su off; PH off",
      "operator": "Juwelier Kurz AG",
      "shop": "jewelry",
      "source": "survey and website",
      "website": "http://www.kurzschmuckuhren.ch/de/stores/kurz-bern"
    },
    "distance_to_station": 408.9936854529234
  },
  {
    "feature_type": "shops",
    "lat": 46.9481073,
    "lon": 7.4414971,
    "tags": {
      "addr:floor": "-1",
      "contact:addr": "Spitalgasse 38, 3011 Bern",
      "contact:email": "bern@changemaker.ch",
      "contact:facebook": "http://www.facebook.com/pages/Zurich-Switzerland/Changemaker/147049268671837",
      "contact:instagram": "https://www.instagram.com/changemaker.ch",
      "contact:phone": "+41 31 3120320",
      "contact:twitter": "https://twitter.com/ChangemakerCH",
      "level": "-1",
      "name": "Change Maker",
      "note": "Der Eingang zum Changemaker Shop Bern befindet sich auf der Strassenseite im Sous-Sol.",
      "opening_hours": "Mo-We 10:00-18:30; Th 10:00-20:00; Fr 10:00-18:30; Sa 09:00-17:00; Su off; PH off",
      "shop": "clothes",
      "website": "https://www.changemaker.ch/standort/bern/",
      "wheelchair": "no"
    },
    "distance_to_station": 398.87021092353507
  },
  {
    "feature_type": "shops",
    "lat": 46.9482183,
    "lon": 7.4426129,
    "tags": {
      "brand": "Orell F\u00fcssli",
      "brand:wikidata": "Q1511140",
      "check_date": "2023-12-18",
      "contact:addr": "Spitalgasse 18-20, 3011 Bern",
      "contact:email": "kundenservice@orellfuessli.ch",
      "contact:fax": "+41 44 4555620",
      "contact:phone": "+41 848 849848",
      "kids_area": "yes",
      "name": "Orell F\u00fcssli",
      "opening_hours": "Mo-We,Fr 09:00-19:00; Th 09:00-20:00; Sa 09:00-17:00",
      "shop": "books",
      "website": "https://www.orellfuessli.ch/buchhandlung/1044",
      "wheelchair": "yes"
    },
    "distance_to_station": 442.107673589425
  },
  {
    "feature_type": "shops",
    "lat": 46.9480574,
    "lon": 7.441666,
    "tags": {
      "contact:addr": "Spitalgasse 36, 3011 Bern",
      "contact:email": "info@bijouterie-sonderegger.ch",
      "contact:fax": "+41 31 3125715",
      "contact:phone": "+41 31 3117038",
      "contact:website": "http://www.bijouterie-sonderegger.ch/kontakt.html",
      "levels": "1",
      "name": "Sonderegger",
      "opening_hours": "Mo-We 09:00-18:30; Th 09:00-20:00; Fr 09:00-18:30; Sa 09:00-17:00; Su off; PH off",
      "operator": "Sonderegger & Co AG",
      "shop": "watches",
      "source": "survey and website",
      "website": "http://www.bijouterie-sonderegger.ch/standorte/bern.html"
    },
    "distance_to_station": 410.6387803584904
  },
  {
    "feature_type": "shops",
    "lat": 46.9482602,
    "lon": 7.4428727,
    "tags": {
      "brand": "Intimissimi",
      "brand:wikidata": "Q305404",
      "brand:wikipedia": "en:Intimissimi",
      "clothes": "underwear",
      "name": "Intimissimi",
      "shop": "clothes"
    },
    "distance_to_station": 452.6563136274792
  },
  {
    "feature_type": "shops",
    "lat": 46.9495238,
    "lon": 7.4407376,
    "tags": {
      "addr:housenumber": "17",
      "addr:street": "Bollwerk",
      "contact:addr": "Bollwerk 17, 3011 Bern",
      "name": "Revendo",
      "opening_hours": "Mo-Fr 09:00-18:30; Sa 09:00-17:00",
      "repair": "yes",
      "second_hand": "only",
      "shop": "computer",
      "website": "https://revendo.ch/",
      "wheelchair": "yes"
    },
    "distance_to_station": 238.84028899126025
  },
  {
    "feature_type": "shops",
    "lat": 46.949629,
    "lon": 7.4407389,
    "tags": {
      "email": "team@youmee.market",
      "name": "Youmee.market",
      "opening_hours": "Mo-Fr: 10:00-18:30; Sa 10:00-17:00",
      "phone": "+41 31 311 42 76",
      "shop": "clothes",
      "website": "https://youmee.market/"
    },
    "distance_to_station": 230.46277830152835
  },
  {
    "feature_type": "shops",
    "lat": 46.9475762,
    "lon": 7.4416671,
    "tags": {
      "contact:addr": "Spitalgasse 37, 3011 Bern",
      "contact:email": "info@japanhaus.ch",
      "contact:email_1": "japanhaus@bluewin.ch",
      "contact:fax": "+41 31 3122564",
      "contact:phone": "+41 31 3114770",
      "contact:website": "https://www.japanhaus.ch/inhalt/de/kontakt.html",
      "levels": "1",
      "name": "Japanhaus",
      "operator": "Japanhaus Gasser & Co SA",
      "shop": "jewelry",
      "start_date": "1920",
      "website": "https://www.japanhaus.ch"
    },
    "distance_to_station": 455.77595498778
  },
  {
    "feature_type": "shops",
    "lat": 46.9481707,
    "lon": 7.4422852,
    "tags": {
      "name": "Falconeri",
      "shop": "clothes"
    },
    "distance_to_station": 429.35335543748397
  },
  {
    "feature_type": "shops",
    "lat": 46.9482054,
    "lon": 7.4425169,
    "tags": {
      "brand": "Levi's",
      "brand:wikidata": "Q127962",
      "clothes": "denim;men;women",
      "name": "Levi's",
      "opening_hours": "Mo-We,Fr 09:00-19:00; Th 09:00-20:00; Sa 09:00-18:00; Su,PH closed",
      "opening_hours:url": "https://locations.levi.com/de-ch/ch-be/bern/denim_bern_ch-be_6037.html",
      "phone": "+41 31 311 31 31",
      "shop": "clothes",
      "website": "https://www.levi.com/"
    },
    "distance_to_station": 438.1715885824248
  },
  {
    "feature_type": "shops",
    "lat": 46.952197,
    "lon": 7.4341615,
    "tags": {
      "female": "yes",
      "male": "yes",
      "name": "Bubikopf",
      "phone": "+41 313717000",
      "shop": "hairdresser",
      "website": "https://www.frisurenmanufaktur.ch"
    },
    "distance_to_station": 358.30008419390805
  },
  {
    "feature_type": "shops",
    "lat": 46.9471801,
    "lon": 7.439227,
    "tags": {
      "addr:postcode": "3011",
      "brand": "k kiosk",
      "brand:wikidata": "Q60381703",
      "cash_withdrawal": "yes",
      "cash_withdrawal:fee": "no",
      "cash_withdrawal:operator": "sonect",
      "cash_withdrawal:purchase_required": "no",
      "cash_withdrawal:type": "checkout",
      "name": "k kiosk",
      "opening_hours": "Mo-Fr 06:00-19:00; Sa 07:30-17:00",
      "shop": "newsagent",
      "wheelchair": "yes"
    },
    "distance_to_station": 438.46370453346015
  },
  {
    "feature_type": "shops",
    "lat": 46.9469949,
    "lon": 7.4394876,
    "tags": {
      "check_date": "2023-08-05",
      "contact:phone": "+41 31 3110663",
      "level": "-2;-1",
      "name": "Bastelzentrum",
      "opening_hours": "Mo-We,Fr 09:00-18:30; Th 09:00-21:00; Sa 09:00-17:00",
      "shop": "craft",
      "website": "https://www.baz-bern.ch/",
      "wheelchair": "yes"
    },
    "distance_to_station": 461.41183384103635
  },
  {
    "feature_type": "shops",
    "lat": 46.9478477,
    "lon": 7.4420453,
    "tags": {
      "brand": "Tezenis",
      "brand:wikidata": "Q28056374",
      "clothes": "underwear",
      "levels": "1",
      "name": "Tezenis",
      "shop": "clothes",
      "website": "https://www.tezenis.com/"
    },
    "distance_to_station": 446.29128210150833
  },
  {
    "feature_type": "shops",
    "lat": 46.9482857,
    "lon": 7.4430519,
    "tags": {
      "alt_name": "Swatch Store Bern",
      "brand": "Swatch",
      "brand:wikidata": "Q573422",
      "brand:wikipedia": "en:Swatch",
      "check_date": "2024-05-16",
      "contact:addr": "Spitalgasse 4, 3011 Bern",
      "contact:email": "berne.store@swatchretail.com",
      "contact:phone": "+41 31 3119161",
      "level": "0",
      "name": "Swatch",
      "shop": "watches"
    },
    "distance_to_station": 460.5683351107003
  },
  {
    "feature_type": "shops",
    "lat": 46.9482952,
    "lon": 7.4431301,
    "tags": {
      "branch": "Bern Spitalgasse",
      "brand": "k kiosk",
      "brand:wikidata": "Q60381703",
      "brand:wikipedia": "it:K Kiosk",
      "cash_withdrawal": "yes",
      "cash_withdrawal:fee": "no",
      "cash_withdrawal:operator": "sonect",
      "cash_withdrawal:purchase_required": "no",
      "cash_withdrawal:type": "checkout",
      "name": "k kiosk",
      "shop": "newsagent",
      "website": "https://www.kkiosk.ch/",
      "wheelchair": "yes"
    },
    "distance_to_station": 464.23070602491634
  },
  {
    "feature_type": "shops",
    "lat": 46.948238,
    "lon": 7.4423601,
    "tags": {
      "contact:addr": "Spitalgasse 26, 3011 Bern",
      "contact:email": "spiess-idea@bluewin.ch",
      "contact:phone": "+41 31 3117704",
      "level": "-1",
      "name": "Spiess-Idea",
      "opening_hours": "Mo-We,Fr 09:00-18:30; Th 09:00-20:00; Sa 09:00-17:00",
      "operator": "Hesse IDEA GmbH",
      "shop": "craft",
      "website": "https://www.spiess-idea.ch"
    },
    "distance_to_station": 427.4789049703611
  },
  {
    "feature_type": "shops",
    "lat": 46.9486838,
    "lon": 7.4416833,
    "tags": {
      "brand": "TUI",
      "brand:wikidata": "Q573103",
      "contact:addr": "Von Werdt-Passage 8, 3011 Bern",
      "contact:email": "bern.vonwerdtpassage@tui.ch,",
      "contact:phone": "+41 31 3281515",
      "name": "TUI",
      "opening_hours": "Mo-Fr 09:00-18:00; Sa 09:00-13:00",
      "shop": "travel_agency",
      "website": "https://www.tui.ch/de/reisebuero/bern/tui-bern/"
    },
    "distance_to_station": 356.31178432943517
  },
  {
    "feature_type": "shops",
    "lat": 46.9486309,
    "lon": 7.4417004,
    "tags": {
      "contact:addr": "Von Werdt-Passage 8, 3011 Bern",
      "name": "Dufour Coiffure",
      "shop": "hairdresser"
    },
    "distance_to_station": 361.6112968819966
  },
  {
    "feature_type": "shops",
    "lat": 46.9487504,
    "lon": 7.4414661,
    "tags": {
      "brand": "Chicor\u00e9e",
      "brand:wikidata": "Q1072246",
      "clothes": "women",
      "contact:addr": "Neuengasse 43, 3011 Bern",
      "contact:phone": "+41 31 3124300",
      "name": "Chicor\u00e9e",
      "opening_hours": "Mo-We, Fr 09:00-19:00; Th 09:00-21:00; Sa 09:00-17:00",
      "operator": "Chicor\u00e9e Mode AG",
      "shop": "clothes",
      "website": "https://www.chicoree.ch"
    },
    "distance_to_station": 339.98271442417007
  },
  {
    "feature_type": "shops",
    "lat": 46.9485529,
    "lon": 7.4415289,
    "tags": {
      "contact:addr": "Von-Werdt-Passage 5, 3011 Bern",
      "contact:facebook": "https://www.facebook.com/Lehmann-Reisen-AG-250238708520429/",
      "contact:phone": "+41 31 3282828",
      "contact:website": "http://www.lehmannreisen.com/kontakt",
      "name": "Lehmann Reisen",
      "shop": "travel_agency",
      "website": "https://www.lehmannreisen.com/"
    },
    "distance_to_station": 360.05938649129706
  },
  {
    "feature_type": "shops",
    "lat": 46.9484725,
    "lon": 7.441545,
    "tags": {
      "beauty": "nails",
      "name": "Bella Nails & Lashes",
      "shop": "beauty",
      "website": "https://bella-nailslashes.ch/"
    },
    "distance_to_station": 367.8746285121269
  },
  {
    "feature_type": "shops",
    "lat": 46.9483922,
    "lon": 7.4415558,
    "tags": {
      "name": "kyBoot",
      "shop": "shoes"
    },
    "distance_to_station": 375.4945800214343
  },
  {
    "feature_type": "shops",
    "lat": 46.9482972,
    "lon": 7.4415871,
    "tags": {
      "clothes": "women;evening_dresses",
      "name": "Dress Code Project",
      "opening_hours": "Mo-We, Fr 10:00-18:30; Th 10:00-20:00; Sa 10:00-17:00",
      "shop": "clothes",
      "website": "https://www.dresscode-project.ch/"
    },
    "distance_to_station": 385.40995037413603
  },
  {
    "feature_type": "shops",
    "lat": 46.9484595,
    "lon": 7.4426616,
    "tags": {
      "addr:full": "Spitalgass-Passage 16, 3011 Bern",
      "name": "magicX",
      "opening_hours": "Mo-We, Fr 09:30-18:30; Th 09:30-21:00; Sa 09:00-17:00",
      "phone": "+41 313115010",
      "shop": "erotic",
      "website": "https://www.magic-x.com/"
    },
    "distance_to_station": 425.74140733614604
  },
  {
    "feature_type": "shops",
    "lat": 46.9489575,
    "lon": 7.4430396,
    "tags": {
      "addr:full": "Neuengass-Passage 2, 3011 Bern",
      "brand": "Phase Eight",
      "brand:wikidata": "Q17020730",
      "clothes": "women",
      "name": "Phase Eight",
      "opening_hours": "Mo-We, Fr 10:00-19:00; Th 10:00-21:00; Sa 10:00-17:00",
      "phone": "+41 313114306",
      "shop": "clothes",
      "website": "https://www.phase-eight.com/"
    },
    "distance_to_station": 412.6969125301606
  },
  {
    "feature_type": "shops",
    "lat": 46.9491383,
    "lon": 7.4432555,
    "tags": {
      "name": "Coiffeur Trend",
      "shop": "hairdresser"
    },
    "distance_to_station": 415.27979852274467
  },
  {
    "feature_type": "shops",
    "lat": 46.949347,
    "lon": 7.4433615,
    "tags": {
      "shop": "kiosk"
    },
    "distance_to_station": 410.63677518374527
  },
  {
    "feature_type": "shops",
    "lat": 46.9495496,
    "lon": 7.443428,
    "tags": {
      "name": "One",
      "shop": "cannabis"
    },
    "distance_to_station": 404.99531303499873
  },
  {
    "feature_type": "shops",
    "lat": 46.9495193,
    "lon": 7.4446832,
    "tags": {
      "contact:addr": "N\u00e4geligasse 13, Waisenhausplatz, 3011 Bern",
      "contact:email": "bern-naegeligasse@officeworld.ch",
      "contact:phone": "+41 58 1226400",
      "name": "Office World",
      "opening_hours": "Mo-We 09:00-18:30; Th 09:00-21:00; Fr 09:00-18:30; Sa 09:00-17:00; Su off; PH off",
      "payment:cash": "yes",
      "payment:mastercard": "yes",
      "payment:visa": "yes",
      "shop": "stationery",
      "website": "https://www.officeworld.ch"
    },
    "distance_to_station": 494.0686049842957
  },
  {
    "feature_type": "shops",
    "lat": 46.9492296,
    "lon": 7.4400875,
    "tags": {
      "brand": "Coop",
      "brand:wikidata": "Q432564",
      "level": "-2",
      "name": "Coop",
      "opening_hours": "Mo-Su,PH 05:30-21:00",
      "operator": "Coop",
      "operator:wikidata": "Q432564",
      "shop": "convenience",
      "wheelchair": "yes"
    },
    "distance_to_station": 236.65119415974212
  },
  {
    "feature_type": "shops",
    "lat": 46.9485566,
    "lon": 7.4373485,
    "tags": {
      "addr:city": "Bern",
      "addr:housenumber": "4",
      "addr:postcode": "3000",
      "addr:street": "Schanzenstrasse",
      "level": "0",
      "name": "PowerFood",
      "opening_hours": "Mo-We,Fr 09:00-20:00; Th 09:00-21:00; Sa 09:00-17:00",
      "operator": "PowerFood AG",
      "phone": "+41 31 311 40 30",
      "shop": "nutrition_supplements",
      "source": "survey;https://www.powerfood.ch/",
      "website": "https://www.powerfood.ch/",
      "wheelchair": "yes"
    },
    "distance_to_station": 298.34139280408897
  },
  {
    "feature_type": "shops",
    "lat": 46.9487228,
    "lon": 7.4372816,
    "tags": {
      "level": "0",
      "name": "Upstairs Coiffure",
      "opening_hours": "Mo-We,Fr 07:30-20:00; Th 07:30-21:00; Sa 07:30-17:00",
      "shop": "hairdresser",
      "wheelchair": "yes"
    },
    "distance_to_station": 282.64211519246686
  },
  {
    "feature_type": "shops",
    "lat": 46.948841,
    "lon": 7.4435317,
    "tags": {
      "branch": "Bern Waisenhausplatz",
      "brand": "Sunrise",
      "brand:wikidata": "Q112573820",
      "check_date:opening_hours": "2022-06-14",
      "full_name": "Sunrise Shop Bern Waisenhausplatz",
      "name": "Sunrise",
      "opening_hours": "Mo-We, Fr 09:00-19:00; Th 09:00-21:00; Sa 09:00-17:00",
      "operator": "Sunrise UPC GmbH",
      "operator:wikidata": "Q112573820",
      "shop": "telecommunication",
      "website": "https://www.sunrise.ch/"
    },
    "distance_to_station": 450.81011575429085
  },
  {
    "feature_type": "shops",
    "lat": 46.9489256,
    "lon": 7.4420885,
    "tags": {
      "alt_name": "Salt Store Neuengasse",
      "branch": "Bern Neuengasse",
      "brand": "Salt",
      "brand:wikidata": "Q17325543",
      "contact:addr": "Neuengasse 25, 3011 Bern",
      "contact:phone": "+41  800 700700",
      "levels": "1",
      "name": "Salt",
      "opening_hours": "Mo-We, Fr 09:00-19:00; Th 09:00-21:00; Sa 09:00-17:00",
      "operator": "Salt Mobile",
      "shop": "mobile_phone",
      "website": "https://www.salt.ch/"
    },
    "distance_to_station": 358.57507538651674
  },
  {
    "feature_type": "shops",
    "lat": 46.9474649,
    "lon": 7.43616,
    "tags": {
      "addr:city": "Bern",
      "addr:housenumber": "10",
      "addr:postcode": "3008",
      "addr:street": "Laupenstrasse",
      "name": "Sofacompany",
      "opening_hours": "Mo-We,Fr 10:00-18:00; Th 10:00-19:00; Sa 10:00-17:00",
      "shop": "furniture",
      "website": "https://sofacompany.com/",
      "wheelchair": "yes"
    },
    "distance_to_station": 444.6178673380608
  },
  {
    "feature_type": "shops",
    "lat": 46.9478767,
    "lon": 7.4362604,
    "tags": {
      "email": "nir.shani@premier-deadsea.ch",
      "level": "1",
      "name": "Premier Dead Sea",
      "opening_hours": "Mo-Fr 10:00-20:00; Sa 09:00-17:00",
      "phone": "+41 33 221 16 08",
      "shop": "cosmetics",
      "website": "https://premier-deadsea.ch/"
    },
    "distance_to_station": 399.9993433622902
  },
  {
    "feature_type": "shops",
    "lat": 46.9489407,
    "lon": 7.441685,
    "tags": {
      "brand": "Tchibo",
      "brand:wikidata": "Q564213",
      "brand:wikipedia": "de:Tchibo",
      "name": "Tchibo",
      "opening_hours": "Mo-Fr 08:00-19:00; Sa 08:00-17:00",
      "shop": "coffee"
    },
    "distance_to_station": 335.38733150286157
  },
  {
    "feature_type": "shops",
    "lat": 46.9494311,
    "lon": 7.4402985,
    "tags": {
      "level": "-2",
      "name": "Reiseservice",
      "operator": "Aare Seeland mobil",
      "shop": "travel_agency",
      "website": "https://www.asmobil.ch/"
    },
    "distance_to_station": 225.9626536761303
  },
  {
    "feature_type": "shops",
    "lat": 46.9468424,
    "lon": 7.4375081,
    "tags": {
      "check_date": "2024-07-29",
      "contact:addr": "Hirschengraben 2, 3011 Bern",
      "contact:phone": "+41 31 3817725",
      "female:signed": "no",
      "male:signed": "no",
      "name": "CM, Christian Moser, Hairstylist",
      "opening_hours": "Mo-We, Fr 09:00-18:30; Th 09:00-20:00; Sa 09:00-16:00",
      "shop": "hairdresser",
      "website": "https://cm.hairlist.ch/"
    },
    "distance_to_station": 480.62399488121025
  },
  {
    "feature_type": "shops",
    "lat": 46.9469025,
    "lon": 7.437536,
    "tags": {
      "check_date:opening_hours": "2022-10-14",
      "contact:addr": "Hirschengraben 2, 3011 Bern",
      "contact:phone": "+41 31 3816352",
      "name": "Blumengalerie",
      "opening_hours": "Mo-Fr 07:30-18:30; Sa-Su off; PH off",
      "operator": "Lisa Freiburghaus",
      "shop": "florist",
      "website": "https://www.blumengalerie-bern.ch"
    },
    "distance_to_station": 473.67699717751816
  },
  {
    "feature_type": "shops",
    "lat": 46.946773,
    "lon": 7.4391623,
    "tags": {
      "addr:city": "Bern",
      "addr:housenumber": "5/7",
      "addr:postcode": "3011",
      "addr:street": "Schwanengasse",
      "name": "EGO Movement",
      "opening_hours": "Tu-Fr 11:00-19:00; Sa 10:00-17:00",
      "phone": "+41 31 558 29 62",
      "shop": "bicycle",
      "website": "https://egomovement.com"
    },
    "distance_to_station": 483.0299539864153
  },
  {
    "feature_type": "shops",
    "lat": 46.9483019,
    "lon": 7.4431843,
    "tags": {
      "check_date:opening_hours": "2024-02-29",
      "contact:city": "Bern",
      "contact:housenumber": "4",
      "contact:postcode": "3011",
      "contact:street": "Spitalgasse",
      "email": "bernspitalgasse@mcoptic.ch",
      "level": "0",
      "name": "McOptic",
      "opening_hours": "Mo-We,Fr 09:00-18:30; Th 09:00-20:00; Sa 09:00-17:00; Su,PH closed",
      "opening_hours:url": "https://www.mcoptic.ch/de/filialen/bern-spitalgasse",
      "phone": "+41 31 306 62 50",
      "shop": "optician",
      "website": "https://www.mcoptic.ch/"
    },
    "distance_to_station": 466.78933822968014
  },
  {
    "feature_type": "shops",
    "lat": 46.9494563,
    "lon": 7.4411085,
    "tags": {
      "check_date": "2023-02-07",
      "name": "Levant Supermarkt",
      "opening_hours": "Mo-We 09:00-19:00; Th-Fr 09:00-20:00; Sa 08:00-17:00",
      "shop": "deli"
    },
    "distance_to_station": 263.9330464266162
  },
  {
    "feature_type": "shops",
    "lat": 46.9481589,
    "lon": 7.4414951,
    "tags": {
      "contact:addr": "Schweizerhof-Passage 13, 3011 Bern",
      "contact:phone": "+41 31 3122151",
      "levels": "1",
      "name": "Coiffure Italian Style",
      "payment:cash": "yes",
      "payment:credit_cards": "yes",
      "payment:maestro": "yes",
      "shop": "hairdresser"
    },
    "distance_to_station": 394.0112900239537
  },
  {
    "feature_type": "shops",
    "lat": 46.9498048,
    "lon": 7.4421145,
    "tags": {
      "female": "yes",
      "male": "yes",
      "name": "Schlecht",
      "opening_hours": "Tu-Fr 09:00-18:30; Sa 08:00-16:00",
      "shop": "hairdresser"
    },
    "distance_to_station": 303.1616709970276
  },
  {
    "feature_type": "shops",
    "lat": 46.9471314,
    "lon": 7.4394602,
    "tags": {
      "check_date": "2025-06-21",
      "level": "-1",
      "name": "Style Coiffeur",
      "shop": "hairdresser"
    },
    "distance_to_station": 446.0927266198038
  },
  {
    "feature_type": "shops",
    "lat": 46.949571,
    "lon": 7.4407209,
    "tags": {
      "check_date": "2025-01-30",
      "name": "Coiffeur Selo",
      "opening_hours": "Mo-Fr 09:00-19:00; Sa 09:00-18:00",
      "shop": "hairdresser"
    },
    "distance_to_station": 234.1425464247905
  },
  {
    "feature_type": "shops",
    "lat": 46.9497034,
    "lon": 7.4416873,
    "tags": {
      "check_date": "2023-09-22",
      "level": "-1",
      "name": "Coiffeur Arean",
      "opening_hours": "Tu-Fr 09:00-19:00; Sa 09:00-17:00",
      "phone": "+41 31 503 13 35",
      "shop": "hairdresser"
    },
    "distance_to_station": 281.12739187605666
  },
  {
    "feature_type": "shops",
    "lat": 46.9523397,
    "lon": 7.4339865,
    "tags": {
      "check_date": "2024-10-21",
      "name": "Linn",
      "opening_hours": "Tu-We,Fr 13:00-17:00; Th 13:00-19:00; Sa 09:00-14:00",
      "shop": "hifi"
    },
    "distance_to_station": 376.33492242169945
  },
  {
    "feature_type": "shops",
    "lat": 46.9517613,
    "lon": 7.43487,
    "tags": {
      "addr:postcode": "3012",
      "check_date": "2022-10-27",
      "email": "modebutik@bluewin.ch",
      "name": "Modebutik",
      "opening_hours": "We-Fr 10:00-18:00; Sa 10:00-16:00",
      "phone": "+41 796313747",
      "second_hand": "yes",
      "shop": "clothes",
      "website": "https://www.modebutik.ch"
    },
    "distance_to_station": 292.514018724096
  },
  {
    "feature_type": "shops",
    "lat": 46.9517781,
    "lon": 7.4347376,
    "tags": {
      "email": "info@der-massoer.ch",
      "name": "Der Mass\u00f6r",
      "phone": "+41 313017170",
      "shop": "massage",
      "website": "https://www.der-massoer.ch"
    },
    "distance_to_station": 302.7113563179733
  },
  {
    "feature_type": "shops",
    "lat": 46.9498887,
    "lon": 7.4416424,
    "tags": {
      "addr:city": "Bern",
      "addr:housenumber": "56",
      "addr:postcode": "3011",
      "addr:street": "Aarbergergasse",
      "beauty": "nails;cosmetics;waxing;foot;hair_removal;laser_hair_removal",
      "email": "info@wellnesskultur.ch",
      "level": "1",
      "name": "La Finesse",
      "opening_hours": "Mo-Fr 8:30-18:30; Sa 8:00-15:00",
      "payment:cash": "yes",
      "payment:mastercard": "yes",
      "payment:twint": "yes",
      "phone": "+41 31 318 85 85",
      "shop": "beauty",
      "website": "https://lafinesse.ch/"
    },
    "distance_to_station": 267.3419595458236
  },
  {
    "feature_type": "shops",
    "lat": 46.9511023,
    "lon": 7.4350785,
    "tags": {
      "addr:city": "Bern",
      "addr:housenumber": "9",
      "addr:postcode": "3012",
      "addr:street": "Falkenplatz",
      "check_date": "2022-11-07",
      "check_date:opening_hours": "2024-03-10",
      "contact:instagram": "https://www.instagram.com/bakerybakery.vegan",
      "description": "vegan bakery",
      "diet:vegan": "only",
      "name": "BakeryBakery",
      "opening_hours": "Mo-Fr 07:00-18:00; Sa 08:00-17:00; Su 09:00-16:00",
      "operator": "Outlawz Food AG",
      "shop": "bakery",
      "website": "https://bakerybakery.ch"
    },
    "distance_to_station": 267.29653240394305
  },
  {
    "feature_type": "shops",
    "lat": 46.952248,
    "lon": 7.4340919,
    "tags": {
      "check_date:opening_hours": "2025-08-05",
      "email": "info@hervorragend.ch",
      "name": "Hervorragend",
      "opening_hours": "Mo,Tu 09:00-12:30,13:30-17:00; Th 09:00-12:30,13:30-18:00; Fr 09:00-12:30",
      "phone": "+41 31 882 01 21",
      "shop": "stationery",
      "website": "https://hervorragend.ch/"
    },
    "distance_to_station": 365.21496218155795
  },
  {
    "feature_type": "shops",
    "lat": 46.9497784,
    "lon": 7.4422226,
    "tags": {
      "name": "Imperial",
      "opening_hours": "Mo-Th 10:00-20:00; Fr 10:00-22:00; Sa 10:00-17:00",
      "shop": "tobacco"
    },
    "distance_to_station": 311.77937922114745
  },
  {
    "feature_type": "shops",
    "lat": 46.9486948,
    "lon": 7.4433222,
    "tags": {
      "addr:city": "Bern",
      "addr:housenumber": "1",
      "addr:postcode": "3011",
      "addr:street": "Neuengasse",
      "email": "bern@elizza.ch",
      "name": "Elizza",
      "opening_hours": "Mo-We,Fr 10:00-18:30, Th 10:00-20:00; Sa 09:00-17:00; Su,PH closed",
      "phone": "+41 313113111",
      "shop": "jewelry",
      "website": "https://www.elizza.ch"
    },
    "distance_to_station": 447.2230495854893
  },
  {
    "feature_type": "shops",
    "lat": 46.9495327,
    "lon": 7.4435264,
    "tags": {
      "level": "0",
      "name": "Moving Hair",
      "opening_hours": "Tu-Fr 08:30-18:30; Sa 08:00-15:00; Mo,Su,PH off",
      "phone": "+41 313125050",
      "shop": "hairdresser",
      "website": "https://www.movinghair.com"
    },
    "distance_to_station": 412.55653036044254
  },
  {
    "feature_type": "shops",
    "lat": 46.949498,
    "lon": 7.4424192,
    "tags": {
      "contact:website": "https://www.enjoy-bern.ch",
      "name": "Enjoy",
      "shop": "jewelry"
    },
    "distance_to_station": 340.25333304644766
  },
  {
    "feature_type": "shops",
    "lat": 46.9475549,
    "lon": 7.4410773,
    "tags": {
      "brand": "Lidl",
      "brand:wikidata": "Q151954",
      "brand:wikipedia": "en:Lidl",
      "level": "-1",
      "name": "Lidl",
      "opening_hours": "Mo-Su,PH 06:00-22:00",
      "shop": "supermarket",
      "toilets:wheelchair": "yes",
      "wheelchair": "yes"
    },
    "distance_to_station": 436.7513655273196
  },
  {
    "feature_type": "shops",
    "lat": 46.949237,
    "lon": 7.4437741,
    "tags": {
      "name": "Bico",
      "opening_hours": "Tu-Fr 09:30-18:30; Sa 09:30-17:00",
      "shop": "bed"
    },
    "distance_to_station": 444.0273453430771
  },
  {
    "feature_type": "shops",
    "lat": 46.9489834,
    "lon": 7.4436348,
    "tags": {
      "brand": "Le Mouton",
      "name": "Le Mouton",
      "shop": "clothes"
    },
    "distance_to_station": 448.82707415341196
  },
  {
    "feature_type": "shops",
    "lat": 46.9489242,
    "lon": 7.4436021,
    "tags": {
      "shop": "vacant"
    },
    "distance_to_station": 450.2185927799853
  },
  {
    "feature_type": "shops",
    "lat": 46.9492231,
    "lon": 7.4413796,
    "tags": {
      "contact:instagram": "https://www.instagram.com/inkvictus.tattoo/",
      "contact:phone": "+41 31 311 59 10",
      "contact:website": "https://inkvictus.ch/",
      "level": "1",
      "shop": "tattoo"
    },
    "distance_to_station": 296.7690497582901
  },
  {
    "feature_type": "shops",
    "lat": 46.948962,
    "lon": 7.4416905,
    "tags": {
      "amenity": "cafe",
      "brand": "Tchibo",
      "brand:wikidata": "Q564213",
      "levels": "2",
      "name": "Tchibo",
      "opening_hours": "Mo-Fr 08:00-19:00; Sa 08:00-17:00",
      "operator": "Tchibo",
      "outdoor_seating": "no",
      "shop": "coffee"
    },
    "distance_to_station": 333.9889228231143
  },
  {
    "feature_type": "shops",
    "lat": 46.9481174,
    "lon": 7.4418654,
    "tags": {
      "brand": "ALDI",
      "brand:wikidata": "Q41171672",
      "check_date": "2023-12-18",
      "name": "ALDI",
      "opening_hours": "Mo-We,Fr 08:00-20:00; Th 08:00-21:00; Sa 07:30-17:00",
      "phone": "+41 31 372 96 37",
      "shop": "supermarket",
      "website": "https://www.aldi-suisse.ch/",
      "wheelchair": "yes"
    },
    "distance_to_station": 414.0391434508243
  },
  {
    "feature_type": "shops",
    "lat": 46.9487048,
    "lon": 7.4422148,
    "tags": {
      "name": "Rrrevolve",
      "official_name": "RRREVOLVE Fair Fashion & Eco Design",
      "opening_hours": "Mo-Fr 10:00-18:30; Sa 10:00-17:00; Su,PH closed",
      "operator": "RRREVOLVE AG",
      "phone": "+41 33 229 77 35",
      "shop": "clothes"
    },
    "distance_to_station": 382.3880903952585
  },
  {
    "feature_type": "shops",
    "lat": 46.9486612,
    "lon": 7.4422126,
    "tags": {
      "levels": "1",
      "name": "Teppich Fatima",
      "phone": "+41 31 311 72 82",
      "shop": "carpet",
      "website": "https://www.teppichfatima.ch/"
    },
    "distance_to_station": 385.6618108708449
  },
  {
    "feature_type": "shops",
    "lat": 46.948588,
    "lon": 7.4422068,
    "tags": {
      "email": "empfang@kosmetik-bellezza.ch",
      "name": "Bellezza",
      "phone": "+41 31 311 35 75",
      "shop": "beauty",
      "website": "https://www.kosmetik-bellezza.ch/"
    },
    "distance_to_station": 391.1197856335575
  },
  {
    "feature_type": "shops",
    "lat": 46.9484148,
    "lon": 7.4422126,
    "tags": {
      "full_name": "Black & White Coiffeur",
      "levels": "1",
      "name": "Black & White",
      "shop": "hairdresser"
    },
    "distance_to_station": 405.39608383342403
  },
  {
    "feature_type": "shops",
    "lat": 46.9477661,
    "lon": 7.4416017,
    "tags": {
      "levels": "1",
      "name": "lidea.ch",
      "note": "Mit URL angeschrieben",
      "shop": "shoes"
    },
    "distance_to_station": 435.135510919466
  },
  {
    "feature_type": "shops",
    "lat": 46.9485072,
    "lon": 7.4414462,
    "tags": {
      "beauty": "nails",
      "levels": "1",
      "name": "Star Nails Beauty Spa",
      "phone": "+41313120502",
      "shop": "beauty"
    },
    "distance_to_station": 360.2711466521061
  },
  {
    "feature_type": "shops",
    "lat": 46.9483576,
    "lon": 7.4414958,
    "tags": {
      "name": "Arche",
      "shop": "shoes"
    },
    "distance_to_station": 375.90545957472773
  },
  {
    "feature_type": "shops",
    "lat": 46.9485769,
    "lon": 7.44141,
    "tags": {
      "levels": "1",
      "name": "El Mundo Schmuck & Piercing",
      "shop": "jewelry"
    },
    "distance_to_station": 352.4296502027127
  },
  {
    "feature_type": "shops",
    "lat": 46.948287,
    "lon": 7.4415195,
    "tags": {
      "levels": "1",
      "name": "Lovely Brows",
      "shop": "beauty"
    },
    "distance_to_station": 383.33862111509205
  },
  {
    "feature_type": "shops",
    "lat": 46.9486076,
    "lon": 7.4412983,
    "tags": {
      "name": "Rhomberg",
      "shop": "jewelry"
    },
    "distance_to_station": 344.6125083370668
  },
  {
    "feature_type": "shops",
    "lat": 46.9484359,
    "lon": 7.4415493,
    "tags": {
      "name": "Chocolaterie Walder",
      "phone": "+41 31 521 96 76",
      "shop": "chocolate",
      "website": "https://www.chocolateriewalder.ch/"
    },
    "distance_to_station": 371.3117801935763
  },
  {
    "feature_type": "shops",
    "lat": 46.948435,
    "lon": 7.441466,
    "tags": {
      "levels": "2",
      "name": "Neuroth",
      "shop": "hearing_aids"
    },
    "distance_to_station": 367.6148494967658
  },
  {
    "feature_type": "shops",
    "lat": 46.9482071,
    "lon": 7.4416163,
    "tags": {
      "name": "Bijou 4you",
      "operator": "Sonderegger & Co AG",
      "shop": "jewelry"
    },
    "distance_to_station": 394.83679685931975
  },
  {
    "feature_type": "shops",
    "lat": 46.9503065,
    "lon": 7.4397169,
    "tags": {
      "contact:facebook": "https://www.facebook.com/Caffelli.ch/",
      "contact:instagram": "https://instagram.com/caffelli_hair",
      "contact:phone": "+41 31 318 99 09",
      "name": "Caffelli",
      "opening_hours": "Mo-Fr 08:00-18:00; Sa 08:00-17:00",
      "operator": "Caffelli GmbH",
      "shop": "hairdresser",
      "website": "https://www.caffelli.ch/"
    },
    "distance_to_station": 122.36173931345795
  },
  {
    "feature_type": "shops",
    "lat": 46.9483652,
    "lon": 7.443024,
    "tags": {
      "check_date:opening_hours": "2024-02-29",
      "contact:city": "Bern",
      "contact:housenumber": "4",
      "contact:postcode": "3011",
      "contact:street": "Spitalgasse",
      "level": "1",
      "name": "doodah",
      "opening_hours": "Mo-Fr 10:00-19:00; Sa 09:00-18:00; Su,PH closed",
      "opening_hours:url": "https://doodah.ch/de/store/bern/doodah-bern",
      "phone": "+41 31 311 60 20",
      "shop": "sports",
      "sport": "skateboard;snowboard",
      "website": "https://doodah.ch/"
    },
    "distance_to_station": 453.03602650719483
  },
  {
    "feature_type": "shops",
    "lat": 46.9485283,
    "lon": 7.442661,
    "tags": {
      "brand": "Amplifon",
      "brand:wikidata": "Q477222",
      "email": "be.spitalgasse@amplifon.com",
      "name": "Amplifon",
      "opening_hours": "Mo-Fr 08:30-12:00,13:00-17:30; Sa \"nach Vereinbarung\"; Su,PH closed",
      "phone": "+41 31 311 04 08",
      "shop": "hearing_aids",
      "website": "https://www.amplifon.com/de-ch/filiale-finden/hoergeraete-bern/amplifon-bern-s550"
    },
    "distance_to_station": 420.468440453553
  },
  {
    "feature_type": "shops",
    "lat": 46.9478922,
    "lon": 7.4363188,
    "tags": {
      "beauty": "nails",
      "level": "1",
      "name": "Nail Worldcenter",
      "shop": "beauty",
      "website": "https://www.welle7.ch/en/shopping-enjoyment/nail-world-center"
    },
    "distance_to_station": 396.4998376098327
  },
  {
    "feature_type": "shops",
    "lat": 46.9532566,
    "lon": 7.4360502,
    "tags": {
      "addr:housenumber": "21",
      "addr:street": "Hallerstrasse",
      "brand": "R\u00fcedu",
      "brand:wikidata": "Q112913831",
      "check_date": "2024-11-08",
      "name": "R\u00fcedu",
      "opening_hours": "24/7",
      "operator": "R\u00fcedu",
      "self_service": "only",
      "shop": "convenience",
      "website": "https://ruedu.ch/"
    },
    "distance_to_station": 308.15877852092507
  },
  {
    "feature_type": "shops",
    "lat": 46.9486629,
    "lon": 7.4439392,
    "tags": {
      "addr:street": "Waisenhausplatz",
      "description": "Schuhe aus respektvoller Produktion",
      "name": "Companero's",
      "opening_hours": "Tu-Fr 09:30-18:30; Mo 12:00-18:30; Sa 09:30-17:00",
      "phone": "+41313118100",
      "shop": "shoes",
      "website": "https://www.comaneros.ch"
    },
    "distance_to_station": 487.5309279416829
  },
  {
    "feature_type": "shops",
    "lat": 46.947577,
    "lon": 7.4412784,
    "tags": {
      "check_date": "2023-03-31",
      "level": "-2",
      "name": "11teamsports",
      "opening_hours": "Mo-Fr 09:00-17:30; Sa 08:00-16:30",
      "shop": "sports",
      "website": "https://www.11teamsports.com/de-de/11teamsports/stores/store-bern/"
    },
    "distance_to_station": 441.35506137474283
  },
  {
    "feature_type": "shops",
    "lat": 46.9480347,
    "lon": 7.4432913,
    "tags": {
      "brand": "Gerry Weber",
      "brand:wikidata": "Q873447",
      "check_date": "2022-10-21",
      "levels": "1",
      "name": "Gerry Weber",
      "shop": "clothes"
    },
    "distance_to_station": 492.93260820710594
  },
  {
    "feature_type": "shops",
    "lat": 46.9490902,
    "lon": 7.4424962,
    "tags": {
      "brand": "Foot Locker",
      "brand:wikidata": "Q63335",
      "name": "Foot Locker",
      "shop": "shoes"
    },
    "distance_to_station": 370.68475047699104
  },
  {
    "feature_type": "shops",
    "lat": 46.949839,
    "lon": 7.4436537,
    "tags": {
      "check_date": "2025-07-19",
      "name": "Hairlife Barber Shop",
      "opening_hours": "Mo-We 09:00-18:30; Th 08:30-20:00; Fr 08:30-19:00; Sa 08:30-17:00",
      "shop": "hairdresser"
    },
    "distance_to_station": 408.4246226799494
  },
  {
    "feature_type": "shops",
    "lat": 46.9525461,
    "lon": 7.4331889,
    "tags": {
      "brand": "R\u00fcedu",
      "brand:wikidata": "Q112913831",
      "description": "Mit App rund um die Uhr ge\u00f6ffnet.",
      "name": "R\u00fcedu",
      "opening_hours": "06:00-21:00",
      "operator": "R\u00fcedu",
      "self_service": "only",
      "shop": "convenience",
      "website": "https://ruedu.ch/",
      "wheelchair": "yes"
    },
    "distance_to_station": 441.07445532712734
  },
  {
    "feature_type": "shops",
    "lat": 46.9490316,
    "lon": 7.4411668,
    "tags": {
      "check_date": "2023-08-29",
      "description": "Schmuck, Uhren, Altgold",
      "name": "Rent A Box",
      "opening_hours": "Mo-Fr 09:30-13:30,14:00-18:30; Sa 09:00-17:00",
      "shop": "second_hand"
    },
    "distance_to_station": 301.42735896554456
  },
  {
    "feature_type": "shops",
    "lat": 46.9483062,
    "lon": 7.4425937,
    "tags": {
      "description": "Entrance inside Spitalgass-Passage 16/18",
      "level": "3",
      "name": "El Mundo",
      "opening_hours": "Mo 12:00-19:00; Tu-Fr 11:00-19:00; Sa 11:00-17:00",
      "phone": "+41313116114",
      "shop": "tattoo",
      "website": "https://www.el-mundo.ch/"
    },
    "distance_to_station": 434.0565004235888
  },
  {
    "feature_type": "shops",
    "lat": 46.948313,
    "lon": 7.4426716,
    "tags": {
      "beauty": "cosmetics",
      "contact:facebook": "Eden cosmetics bern",
      "level": "3",
      "name": "Eden Cosmetics",
      "phone": "+41 76 280 33 66",
      "shop": "beauty"
    },
    "distance_to_station": 437.670925989876
  },
  {
    "feature_type": "shops",
    "lat": 46.9486401,
    "lon": 7.4440755,
    "tags": {
      "name": "Plantiful",
      "opening_hours": "Th-Fr 12:00-18:00; Sa 11:00-16:00",
      "shop": "gift",
      "website": "https://plantifulbern.com/"
    },
    "distance_to_station": 497.55398892504695
  },
  {
    "feature_type": "shops",
    "lat": 46.9492581,
    "lon": 7.4434604,
    "tags": {
      "addr:housenumber": "5",
      "addr:street": "Aarbergergasse",
      "contact:email": "encore.kinderkleiderboerse@gmail.com",
      "name": "Encore Kinderb\u00f6rse",
      "opening_hours": "Mo-Fr 09:00-18:30; Sa 09:00-17:00",
      "phone": "022 559 87 87",
      "shop": "second_hand",
      "website": "https://www.encore-kinderkleiderboerse.com/"
    },
    "distance_to_station": 421.9680717748961
  },
  {
    "feature_type": "shops",
    "lat": 46.9491582,
    "lon": 7.4419781,
    "tags": {
      "check_date:opening_hours": "2025-08-06",
      "name": "Viu",
      "opening_hours": "Mo-Fr 09:00-19:00; Sa 09:00-17:00; Su,PH closed",
      "opening_hours:url": "https://shopviu.com/de-ch/viu-stores/store/bern",
      "operator": "VIU VENTURES AG",
      "phone": "+41 31 528 18 13",
      "shop": "optician",
      "website": "https://shopviu.com/"
    },
    "distance_to_station": 335.21648730851155
  },
  {
    "feature_type": "shops",
    "lat": 46.9494399,
    "lon": 7.4431567,
    "tags": {
      "level": "-1",
      "male": "yes",
      "name": "Coiffeur Sheriff",
      "shop": "hairdresser",
      "wheelchair": "no"
    },
    "distance_to_station": 392.05435158703494
  },
  {
    "feature_type": "shops",
    "lat": 46.9491003,
    "lon": 7.4431303,
    "tags": {
      "email": "sales@worldofvape.ch",
      "name": "World of Wape",
      "opening_hours": "Mo-Fr 10:00-19:00; Sa 09:00-17:00; Su,PH closed",
      "operator": "Fourtwenty GmbH",
      "phone": "+41 31 503 43 43",
      "shop": "e-cigarette",
      "website": "https://worldofvape.ch/"
    },
    "distance_to_station": 409.5026005387271
  },
  {
    "feature_type": "shops",
    "lat": 46.9490294,
    "lon": 7.4430868,
    "tags": {
      "name": "Issa",
      "phone": "+41 31 311 41 40",
      "shop": "hairdresser"
    },
    "distance_to_station": 411.0969549199321
  },
  {
    "feature_type": "shops",
    "lat": 46.9476536,
    "lon": 7.438294,
    "tags": {
      "check_date": "2024-12-24",
      "name": "Praj Geos",
      "shop": "clothes"
    },
    "distance_to_station": 383.92546623202105
  },
  {
    "feature_type": "shops",
    "lat": 46.94918,
    "lon": 7.4417929,
    "tags": {
      "brand": "Import Parfumerie",
      "brand:wikidata": "Q1660352",
      "name": "Import Parfumerie",
      "opening_hours": "Mo 09:00-19:00; Tu,We 08:00-19:00; Th,Fr 08:00-20:00; Sa 08:00-18:00; Su,PH closed",
      "operator": "Coop Genossenschaft",
      "operator:wikidata": "Q432564",
      "phone": "+41 31 329 71 80",
      "shop": "perfumery"
    },
    "distance_to_station": 322.9822294510254
  },
  {
    "feature_type": "shops",
    "lat": 46.9479014,
    "lon": 7.4362364,
    "tags": {
      "addr:city": "Bern",
      "addr:housenumber": "5",
      "addr:postcode": "3008",
      "addr:street": "Schanzenstrasse",
      "building": "office",
      "contact:website": "https://www.welle7.ch",
      "internet_access": "wlan",
      "internet_access:fee": "no",
      "internet_access:ssid": "Welle7",
      "name": "Welle7",
      "opening_hours": "Mo-Fr 06:00-22:30; Sa 06:00-22:00; Su,PH closed",
      "opening_hours:url": "https://www.welle7.ch/de/service-pages/oeffnungszeiten",
      "shop": "mall",
      "wheelchair": "yes",
      "wikidata": "Q125453848"
    },
    "distance_to_station": 398.3573685191567
  },
  {
    "feature_type": "shops",
    "lat": 46.9530439,
    "lon": 7.4402311,
    "tags": {
      "addr:city": "Bern",
      "addr:country": "CH",
      "addr:housenumber": "8",
      "addr:postcode": "3011",
      "addr:street": "Neubr\u00fcckstrasse",
      "contact:email": "drucki@reitschule.ch",
      "contact:phone": "+41 31 3066965",
      "name": "Druckerei Reitschule",
      "opening_hours": "Tu-Fr 13:30-17:30",
      "shop": "printshop",
      "website": "http://www.reitschule.ch/reitschule/druckundfoto/index.html"
    },
    "distance_to_station": 249.09693593603993
  },
  {
    "feature_type": "shops",
    "lat": 46.9486125,
    "lon": 7.4400183,
    "tags": {
      "addr:full": "Bahnhofplatz 10, 3011 Bern",
      "alt_name": "Blumen Pavillon Ackermann",
      "email": "info@blumenackermann.ch",
      "indoor": "yes",
      "level": "-1",
      "name": "Ackermann",
      "opening_hours": "Mo-Sa 07:00-20:00; Su 09:00-19:00",
      "operator": "Blumen Ackermann AG",
      "phone": "+41 313118008",
      "shop": "florist",
      "website": "https://blumenbern.ch/",
      "wheelchair": "yes"
    },
    "distance_to_station": 296.81006231946617
  },
  {
    "feature_type": "shops",
    "lat": 46.9490214,
    "lon": 7.4404583,
    "tags": {
      "brand": "Mobilezone",
      "brand:wikidata": "Q1680518",
      "email": "be.neuengasse@mobilezone.ch",
      "indoor": "yes",
      "level": "-1",
      "name": "Mobilezone",
      "opening_hours": "Mo-Fr 09:00-21:00; Sa 09:00-20:00; Su,PH 10:00-20:00",
      "opening_hours:url": "https://www.mobilezone.ch/de/handy-shop-reparatur/bern-bern/3020",
      "phone": "+41 58 400 29 75",
      "shop": "mobile_phone",
      "website": "https://www.mobilezone.ch/",
      "wheelchair": "yes"
    },
    "distance_to_station": 270.77222391005984
  },
  {
    "feature_type": "shops",
    "lat": 46.9481289,
    "lon": 7.4403591,
    "tags": {
      "addr:city": "Bern",
      "addr:postcode": "3011",
      "alt_name": "Blume 3000 Bern",
      "branch": "Bern Bahnhof",
      "check_date:opening_hours": "2024-08-31",
      "indoor": "yes",
      "level": "-1",
      "name": "Blume 3000",
      "opening_hours": "Mo-Fr 07:00-21:00, Sa 07:30-20:00, Su 08:00-20:00",
      "operator": "Blume 3000",
      "shop": "florist",
      "website": "https://www.blume3000.ch/unsere-standorte/place/bernbahnhof/",
      "wheelchair": "yes"
    },
    "distance_to_station": 356.33486036858466
  },
  {
    "feature_type": "shops",
    "lat": 46.9491402,
    "lon": 7.4385864,
    "tags": {
      "indoor": "yes",
      "level": "-1",
      "shop": "vacant",
      "wheelchair": "yes"
    },
    "distance_to_station": 217.9222623306536
  },
  {
    "feature_type": "shops",
    "lat": 46.9483922,
    "lon": 7.4397947,
    "tags": {
      "brand": "Chicor\u00e9e",
      "brand:wikidata": "Q1072246",
      "description": "Wegen Umbauarbeiten im Bahnhof Bern derzeit geschlossen. Geplante Wiederer\u00f6ffnung im Sommer 2025.",
      "indoor": "yes",
      "level": "-1",
      "name": "Chicor\u00e9e",
      "opening_hours": "closed",
      "shop": "clothes",
      "wheelchair": "yes"
    },
    "distance_to_station": 314.4537046970402
  },
  {
    "feature_type": "shops",
    "lat": 46.9482356,
    "lon": 7.4400304,
    "tags": {
      "indoor": "yes",
      "level": "-1",
      "name": "Coiffure L\u00fcdi",
      "shop": "hairdresser",
      "wheelchair": "yes"
    },
    "distance_to_station": 336.5045849631655
  },
  {
    "feature_type": "shops",
    "lat": 46.9485438,
    "lon": 7.4397525,
    "tags": {
      "branch": "Bern Bahnhof",
      "brand": "Coop",
      "brand:wikidata": "Q432564",
      "check_date:opening_hours": "2021-02-28",
      "description": "Wegen Umbauarbeiten im Bahnhof Bern derzeit geschlossen. Geplante Wiederer\u00f6ffnung im Sommer 2025.",
      "indoor": "yes",
      "level": "-1",
      "name": "Coop",
      "opening_hours": "closed",
      "shop": "supermarket",
      "wheelchair": "yes"
    },
    "distance_to_station": 297.3943562310176
  },
  {
    "feature_type": "shops",
    "lat": 46.9477991,
    "lon": 7.4404622,
    "tags": {
      "branch": "Bern Christoffel",
      "brand": "Coop",
      "brand:wikidata": "Q432564",
      "indoor": "yes",
      "level": "-1",
      "name": "Coop",
      "opening_hours": "Mo-Su 06:00-23:00; PH 07:00-22:00",
      "shop": "convenience",
      "website": "https://www.coop.ch/de/standorte/coop-supermarkt-bern-christoffel/6120_POS",
      "wheelchair": "yes"
    },
    "distance_to_station": 393.32110397601394
  },
  {
    "feature_type": "shops",
    "lat": 46.949004,
    "lon": 7.4403552,
    "tags": {
      "addr:city": "Bern",
      "addr:country": "CH",
      "addr:floor": "-1",
      "addr:postcode": "3011",
      "addr:street": "Bahnhofplatz",
      "alt_name": "Confiserie Eichenberger",
      "contact:email": "info@confiserie-eichenberger.ch",
      "contact:phone": "+41 31 3111252",
      "indoor": "yes",
      "level": "-1",
      "name": "Eichenberger",
      "opening_hours": "Mo-We 06:00-20:00; Th 06:00-21:00; Fr 06:00-20:00; Sa 06:30-18:00; Su 07:30-19:00",
      "operator": "Confiserie Eichenberger AG",
      "shop": "bakery",
      "source": "website and survey",
      "website": "https://www.confiserie-eichenberger.ch/filialen/bahnhof",
      "wheelchair": "yes"
    },
    "distance_to_station": 268.4570816178661
  },
  {
    "feature_type": "shops",
    "lat": 46.9492472,
    "lon": 7.4406776,
    "tags": {
      "addr:city": "Bern",
      "addr:postcode": "3011",
      "alt_name": "Ex Libris Bern Bahnhof",
      "branch": "Bern Bahnhof",
      "brand": "Ex Libris",
      "brand:wikidata": "Q1383272",
      "indoor": "yes",
      "level": "-1",
      "name": "Ex Libris",
      "operator": "Ex Libris",
      "shop": "books",
      "website": "https://www.exlibris.ch/",
      "wheelchair": "yes"
    },
    "distance_to_station": 259.45077542475474
  },
  {
    "feature_type": "shops",
    "lat": 46.949061,
    "lon": 7.4407697,
    "tags": {
      "addr:city": "Bern",
      "addr:country": "CH",
      "addr:housenumber": "3",
      "addr:postcode": "3011",
      "addr:street": "Neuengass-Unterf\u00fchrung",
      "contact:phone": "+41 31 3118171",
      "indoor": "yes",
      "level": "-1",
      "name": "Interdiscount",
      "opening_hours": "Mo-We 09:00-21:00; Th 09:00-22:00; Fr 09:00-21:00; Sa 09:00-20:00; Su 10:00-20:00",
      "shop": "consumer_electronics",
      "website": "https://www.interdiscount.ch/",
      "wheelchair": "yes"
    },
    "distance_to_station": 280.22928635797825
  },
  {
    "feature_type": "shops",
    "lat": 46.9493936,
    "lon": 7.4386595,
    "tags": {
      "branch": "Bern Souterrain",
      "brand": "k kiosk",
      "brand:wikidata": "Q60381703",
      "cash_withdrawal": "yes",
      "cash_withdrawal:fee": "no",
      "cash_withdrawal:operator": "sonect",
      "cash_withdrawal:purchase_required": "no",
      "cash_withdrawal:type": "checkout",
      "indoor": "yes",
      "level": "-1",
      "name": "k kiosk",
      "shop": "newsagent",
      "wheelchair": "yes"
    },
    "distance_to_station": 189.79676575706594
  },
  {
    "feature_type": "shops",
    "lat": 46.9482902,
    "lon": 7.440297,
    "tags": {
      "check_date:opening_hours": "2024-08-31",
      "indoor": "yes",
      "level": "-1",
      "name": "Lollipop",
      "opening_hours": "Mo-Fr 09:00-21:00; Sa,Su 10:00-20:00",
      "shop": "confectionery",
      "website": "https://www.lolipop.ch/pages/lolipop-bern-bahnhof"
    },
    "distance_to_station": 337.94771264007903
  },
  {
    "feature_type": "shops",
    "lat": 46.9483617,
    "lon": 7.4398872,
    "tags": {
      "brand": "Rituals",
      "brand:wikidata": "Q62874140",
      "description": "Wegen Umbauarbeiten im Bahnhof Bern derzeit geschlossen. Geplante Wiederer\u00f6ffnung im Sommer 2025.",
      "indoor": "room",
      "level": "-1",
      "name": "Rituals",
      "opening_hours": "closed",
      "shop": "cosmetics",
      "website": "https://www.rituals.com"
    },
    "distance_to_station": 319.7775448069622
  },
  {
    "feature_type": "shops",
    "lat": 46.949045,
    "lon": 7.440655,
    "tags": {
      "brand": "Mister Minit",
      "brand:wikidata": "Q1939269",
      "brand:wikipedia": "de:Mister Minit",
      "indoor": "yes",
      "level": "-1",
      "name": "Mister Minit",
      "shop": "repair",
      "website": "https://misterminit.eu/en_cz/shops/mister-minit-railcity-bern"
    },
    "distance_to_station": 276.67025129908905
  },
  {
    "feature_type": "shops",
    "lat": 46.9476987,
    "lon": 7.4405081,
    "tags": {
      "addr:city": "Bern",
      "addr:country": "CH",
      "addr:floor": "-1",
      "addr:postcode": "3011",
      "addr:street": "Christoffel-Unterf\u00fchrung",
      "alt_name": "Press & Books Bern",
      "branch": "Bern Christoffel",
      "brand": "Press & Books",
      "brand:wikidata": "Q100407277",
      "check_date": "2022-09-11",
      "indoor": "yes",
      "level": "-1",
      "name": "Press & Books",
      "opening_hours": "Mo-Sa 06:00-21:00; Su 07:00-21:00",
      "operator": "Valora",
      "shop": "newsagent",
      "website": "https://www.pressbooks.ch/"
    },
    "distance_to_station": 404.9921033041842
  },
  {
    "feature_type": "shops",
    "lat": 46.94827,
    "lon": 7.4398947,
    "tags": {
      "brand": "Street One",
      "brand:wikidata": "Q61997265",
      "indoor": "yes",
      "level": "-1",
      "name": "Street One",
      "shop": "clothes",
      "wheelchair": "yes"
    },
    "distance_to_station": 329.6705112634347
  },
  {
    "feature_type": "shops",
    "lat": 46.9482094,
    "lon": 7.4403312,
    "tags": {
      "alt_name": "Tekoe Bern",
      "branch": "Bern",
      "indoor": "yes",
      "level": "-1",
      "name": "Tekoe Tea Shop",
      "opening_hours": "Mo-Fr 06:30-20:00; Sa 09:00-20:00; Su 10:00-18:00",
      "operator": "Tekoe",
      "shop": "tea",
      "website": "https://www.tekoe.com/",
      "wheelchair": "yes"
    },
    "distance_to_station": 347.2450454440893
  },
  {
    "feature_type": "shops",
    "lat": 46.9475531,
    "lon": 7.4406489,
    "tags": {
      "addr:city": "Bern",
      "addr:housenumber": "47-51",
      "addr:postcode": "3011",
      "addr:street": "Spitalgasse",
      "brand": "Lidl",
      "brand:wikidata": "Q151954",
      "brand:wikipedia": "en:Lidl",
      "check_date": "2024-09-20",
      "indoor": "yes",
      "layer": "-1",
      "level": "-1",
      "name": "Lidl",
      "opening_hours": "06:00-22:00",
      "payment:cash": "yes",
      "payment:credit_cards": "yes",
      "payment:notes": "yes",
      "shop": "supermarket",
      "website": "https://www.lidl.ch/s/de-CH/filialfinder/bern/spitalgasse-47-51/",
      "wheelchair": "yes"
    },
    "distance_to_station": 423.9543456204174
  },
  {
    "feature_type": "shops",
    "lat": 46.9483707,
    "lon": 7.4402721,
    "tags": {
      "brand": "L\u00e4derach",
      "brand:wikidata": "Q1437143",
      "indoor": "yes",
      "level": "-1",
      "name": "L\u00e4derach",
      "shop": "chocolate",
      "wheelchair": "yes"
    },
    "distance_to_station": 328.9560155289807
  },
  {
    "feature_type": "shops",
    "lat": 46.9479989,
    "lon": 7.4400765,
    "tags": {
      "brand": "Vero Moda",
      "brand:wikidata": "Q640418",
      "clothes": "women",
      "indoor": "room",
      "level": "-1",
      "name": "Vero Moda",
      "opening_hours": "Mo-Fr 09:00-21:00; Sa-Su 10:00-20:00",
      "shop": "clothes",
      "website": "https://www.veromoda.com",
      "wheelchair": "yes"
    },
    "distance_to_station": 362.582871252583
  },
  {
    "feature_type": "shops",
    "lat": 46.9486064,
    "lon": 7.4397251,
    "tags": {
      "addr:city": "Bern",
      "addr:country": "CH",
      "addr:floor": "0",
      "addr:housenumber": "10b",
      "addr:postcode": "3011",
      "addr:street": "Bahnhofplatz",
      "alt_name": "Swisscom Shop Bern Bahnhof",
      "branch": "Bern Bahnhof",
      "brand": "Swisscom",
      "brand:wikidata": "Q644324",
      "contact:email": "info@swisscom.com",
      "contact:fax": "+41 31 3180646",
      "contact:phone": "+41 31 3180645",
      "indoor": "yes",
      "level": "0",
      "name": "Swisscom",
      "opening_hours": "Mo-Sa 09:00-20:00",
      "operator": "Swisscom (Schweiz)",
      "shop": "telecommunication",
      "source": "website",
      "website": "http://shoplocator.swisscom.ch",
      "wheelchair": "yes"
    },
    "distance_to_station": 290.12971698715523
  },
  {
    "feature_type": "shops",
    "lat": 46.9489909,
    "lon": 7.4401951,
    "tags": {
      "branch": "Bern Railcity",
      "brand": "Sunrise",
      "check_date:opening_hours": "2022-06-14",
      "full_name": "Sunrise Shop Bern Railcity",
      "indoor": "room",
      "level": "0",
      "name": "Sunrise",
      "opening_hours": "Mo-Fr 09:00-21:00; Sa 09:00-20:00; Su 10:00-20:00",
      "operator": "Sunrise UPC GmbH",
      "operator:wikidata": "Q112573820",
      "shop": "telecommunication",
      "website": "https://www.sunrise.ch/",
      "wheelchair": "yes"
    },
    "distance_to_station": 263.931544547523
  },
  {
    "feature_type": "shops",
    "lat": 46.9493014,
    "lon": 7.4398571,
    "tags": {
      "addr:city": "Bern",
      "addr:housenumber": "10",
      "addr:postcode": "3011",
      "addr:street": "Bahnhofplatz",
      "branch": "Bern Bahnhof",
      "brand": "Flying Tiger Copenhagen",
      "brand:wikidata": "Q2786319",
      "brand:wikipedia": "en:Flying Tiger Copenhagen",
      "check_date": "2024-03-11",
      "level": "0",
      "name": "Flying Tiger Copenhagen",
      "opening_hours": "Mo-Fr 09:00-21:00; Sa-Su 10:00-20:00",
      "operator": "Tiger Stores (Switzerland)",
      "shop": "variety_store",
      "short_name": "Flying Tiger",
      "website": "https://ch.flyingtiger.com/",
      "wheelchair": "yes"
    },
    "distance_to_station": 221.59238862018591
  },
  {
    "feature_type": "shops",
    "lat": 46.9490504,
    "lon": 7.4396246,
    "tags": {
      "addr:floor": "0",
      "indoor": "yes",
      "level": "0",
      "name": "Schalter SBB international",
      "shop": "ticket",
      "toilets:wheelchair": "no",
      "wheelchair": "yes"
    },
    "distance_to_station": 240.80980738901783
  },
  {
    "feature_type": "shops",
    "lat": 46.9491249,
    "lon": 7.4400647,
    "tags": {
      "addr:postcode": "3011",
      "addr:street": "Bahnhofplatz",
      "brand": "Tally Weijl",
      "brand:wikidata": "Q689695",
      "brand:wikipedia": "en:Tally Weijl",
      "indoor": "yes",
      "level": "0",
      "name": "Tally Weijl",
      "shop": "clothes",
      "website": "https://www.sbb.ch/de/bahnhof-services/am-bahnhof/bahnhoefe/bahnhof-bern/geschaefte/shop-detail.html/geo-tally-weijl-a062",
      "wheelchair": "yes"
    },
    "distance_to_station": 246.1588141852844
  },
  {
    "feature_type": "shops",
    "lat": 46.949328,
    "lon": 7.4400932,
    "tags": {
      "check_date": "2022-12-21",
      "check_date:opening_hours": "2021-02-28",
      "email": "behb@copyquick.ch",
      "level": "0",
      "name": "CopyQuick",
      "opening_hours": "Mo-Fr 08:00-21:00; Sa-Su 09:00-19:00",
      "operator": "CopyQuick Pierre-Alain Mouttet AG",
      "phone": "+41 313282929",
      "shop": "copyshop",
      "website": "https://www.copyquick.ch/",
      "wheelchair": "yes"
    },
    "distance_to_station": 227.31065660391874
  },
  {
    "feature_type": "shops",
    "lat": 46.9488043,
    "lon": 7.4402645,
    "tags": {
      "branch": "Bern Bahnhof Parterre",
      "brand": "k kiosk",
      "brand:wikidata": "Q60381703",
      "cash_withdrawal": "yes",
      "cash_withdrawal:fee": "no",
      "cash_withdrawal:operator": "sonect",
      "cash_withdrawal:purchase_required": "no",
      "cash_withdrawal:type": "checkout",
      "check_date": "2023-08-29",
      "indoor": "yes",
      "level": "0",
      "name": "k kiosk",
      "opening_hours": "Mo-Th 05:30-23:30; Fr 05:30-23:45; Sa 07:00-23:45; Su 07:00-23:30",
      "shop": "newsagent",
      "wheelchair": "yes"
    },
    "distance_to_station": 284.82620488962385
  },
  {
    "feature_type": "shops",
    "lat": 46.9491484,
    "lon": 7.4400355,
    "tags": {
      "addr:city": "Bern",
      "addr:country": "CH",
      "addr:floor": "1",
      "addr:housenumber": "11",
      "addr:postcode": "3011",
      "addr:street": "Bahnhofplatz",
      "check_date:opening_hours": "2022-12-03",
      "contact:email": "bern@beerworld.ch",
      "contact:fax": "+41 31 3115105",
      "contact:phone": "+41 31 3115110",
      "indoor": "yes",
      "level": "1",
      "name": "Drinks of the World",
      "opening_hours": "Mo-Su 09:00-22:00",
      "operator": "Drinks of the World GmbH",
      "payment:cash": "yes",
      "payment:credit_cards": "yes",
      "payment:debit_cards": "yes",
      "shop": "alcohol",
      "website": "https://beerworld.ch/store-bern",
      "wheelchair": "yes"
    },
    "distance_to_station": 242.82767391507002
  },
  {
    "feature_type": "shops",
    "lat": 46.9491126,
    "lon": 7.4400921,
    "tags": {
      "brand": "Bayard Co Ltd",
      "brand:wikidata": "Q18018661",
      "clothes": "women;men",
      "email": "bayardoutlet.sbb@modebayard.ch",
      "indoor": "yes",
      "level": "1",
      "name": "Bayard Co Ltd Outlet",
      "opening_hours": "Mo-Fr 09:00-21:00; Sa,Su,PH 10:00-20:00",
      "operator": "Mode Bayard AG",
      "phone": "+41 31 311 74 40",
      "shop": "clothes",
      "website": "https://modebayard.ch/de/places/6038",
      "wheelchair": "yes"
    },
    "distance_to_station": 248.32151249614358
  },
  {
    "feature_type": "shops",
    "lat": 46.9485978,
    "lon": 7.4397926,
    "tags": {
      "brand": "Orell F\u00fcssli",
      "brand:wikidata": "Q1511140",
      "check_date:opening_hours": "2025-03-24",
      "email": "kundenservice@orellfuessli.ch",
      "indoor": "yes",
      "kids_area": "yes",
      "level": "1",
      "name": "Orell F\u00fcssli",
      "opening_hours": "Mo-Fr 07:30-21:00; Sa 08:00-18:00; Su,PH 08:00-20:00",
      "opening_hours:url": "https://www.orellfuessli.ch/buchhandlung/1058",
      "phone": "+41 848 849 848",
      "shop": "books",
      "wheelchair": "yes"
    },
    "distance_to_station": 292.5882114971584
  },
  {
    "feature_type": "shops",
    "lat": 46.9487248,
    "lon": 7.4396973,
    "tags": {
      "brand": "5\u00e0sec",
      "brand:wikidata": "Q2817899",
      "check_date:opening_hours": "2021-02-28",
      "level": "1",
      "name": "5\u00e0sec",
      "opening_hours": "Mo-Fr 07:00-21:00; Sa 07:00-20:00; Su 10:00-20:00",
      "phone": "+41 313120077",
      "shop": "dry_cleaning",
      "website": "https://www.5asec.ch"
    },
    "distance_to_station": 276.9325894842162
  },
  {
    "feature_type": "shops",
    "lat": 46.9489814,
    "lon": 7.4401962,
    "tags": {
      "check_date:opening_hours": "2023-08-24",
      "description": "Termine vereinbaren und abmelden per E-Mail nicht m\u00f6glich.",
      "female": "yes",
      "indoor": "yes",
      "level": "1",
      "male": "yes",
      "name": "Upstairs Coiffure",
      "opening_hours": "Mo-Fr 07:30-21:00; Sa 07:30-20:00; Su 09:00-20:00",
      "phone": "+41 31 310 15 15",
      "shop": "hairdresser",
      "website:booking": "https://www.hellocut.ch/coiffure-upstairs-Bern-coiffeur-termin-online-buchen-reservieren-tzc119czt",
      "wheelchair": "yes"
    },
    "distance_to_station": 264.9088115561503
  },
  {
    "feature_type": "shops",
    "lat": 46.948547,
    "lon": 7.4400422,
    "tags": {
      "addr:city": "Bern",
      "addr:full": "Bahnhofplatz 10a, 3011 Bern",
      "addr:postcode": "3011",
      "alt_name": "Spr\u00fcngli Bern",
      "branch": "Bern Bahnhof",
      "brand": "Spr\u00fcngli",
      "brand:wikidata": "Q692605",
      "indoor": "yes",
      "level": "-1",
      "name": "Spr\u00fcngli",
      "opening_hours": "Mo-Fr 07:00-20:00; Sa,Su 08:00-20:00",
      "operator": "Confiserie Spr\u00fcngli",
      "phone": "+41 313116507",
      "shop": "pastry",
      "website": "https://www.spruengli.ch/de/standorte/bahnhof-bern.html",
      "wheelchair": "yes"
    },
    "distance_to_station": 304.2568713356543
  },
  {
    "feature_type": "shops",
    "lat": 46.9479419,
    "lon": 7.4400158,
    "tags": {
      "brand": "Jack & Jones",
      "brand:wikidata": "Q6077665",
      "clothes": "men",
      "indoor": "room",
      "level": "-1",
      "name": "Jack & Jones",
      "opening_hours": "Mo-Fr 09:00-21:00; Sa-Su 10:00-20:00",
      "shop": "clothes",
      "website": "https://www.jackjones.com",
      "wheelchair": "yes"
    },
    "distance_to_station": 367.24115923354987
  },
  {
    "feature_type": "shops",
    "lat": 46.9480614,
    "lon": 7.4399871,
    "tags": {
      "addr:city": "Bern",
      "addr:postcode": "3011",
      "alt_name": "L'Occitane Bern",
      "branch": "Bern",
      "brand": "L'Occitane",
      "brand:wikidata": "Q1880676",
      "email": "kontakt@ch.loccitane.com",
      "indoor": "room",
      "level": "-1",
      "name": "L'Occitane",
      "opening_hours": "Mo-Fr 09:00-21:00; Sa 09:00-20:00; Su 10:00-20:00",
      "operator": "L'Occitane (Suisse)",
      "phone": "+41 31 3117341",
      "shop": "cosmetics",
      "website": "https://ch.loccitane.com/",
      "wheelchair": "yes"
    },
    "distance_to_station": 353.9021129953452
  },
  {
    "feature_type": "shops",
    "lat": 46.9491766,
    "lon": 7.439887,
    "tags": {
      "level": "-1",
      "name": "TiNail's",
      "opening_hours": "Mo-Fr 09:00-21:00; Sa-Su 10:00-20:00",
      "shop": "beauty",
      "website": "https://www.tinails.ch/",
      "wheelchair": "no"
    },
    "distance_to_station": 235.1271574324569
  },
  {
    "feature_type": "shops",
    "lat": 46.9491079,
    "lon": 7.439965,
    "tags": {
      "brand": "Claire's",
      "brand:wikidata": "Q2974996",
      "check_date:opening_hours": "2025-02-08",
      "level": "0",
      "name": "Claire's",
      "opening_hours": "Mo-Fr 09:00-21:00; Sa 09:00-20:00; Su 10:00-20:00",
      "operator": "Claire's Switzerland GmbH",
      "phone": "+41 31 560 29 38",
      "shop": "fashion_accessories",
      "website": "https://www.claires.com/",
      "wheelchair": "yes"
    },
    "distance_to_station": 244.54562139465523
  },
  {
    "feature_type": "shops",
    "lat": 46.9477365,
    "lon": 7.4400036,
    "tags": {
      "addr:floor": "-1",
      "alt_name": "Migros Christoffel",
      "branch": "Bern Christoffel",
      "brand": "Migros",
      "brand:wikidata": "Q680727",
      "brand:wikipedia": "de:Migros",
      "check_date": "2024-10-23",
      "contact:addr": "Christoffel-Unterf\u00fchrung, 3011 Bern",
      "indoor": "yes",
      "level": "-1",
      "name": "Migros",
      "opening_hours": "06:00-22:00",
      "operator": "Genossenschaft Migros Aare",
      "payment:american_express": "yes",
      "payment:contactless": "yes",
      "payment:credit_cards": "yes",
      "payment:diners_club": "yes",
      "payment:jcb": "yes",
      "payment:maestro": "yes",
      "payment:mastercard": "yes",
      "payment:postfinance_card": "yes",
      "payment:visa": "yes",
      "shop": "supermarket",
      "website": "https://filialen.migros.ch/de/migros-supermarkt-bern-christoffel",
      "wheelchair": "yes"
    },
    "distance_to_station": 388.88349814716673
  },
  {
    "feature_type": "shops",
    "lat": 46.9491588,
    "lon": 7.4401917,
    "tags": {
      "brand": "k kiosk",
      "brand:wikidata": "Q60381703",
      "brand:wikipedia": "it:K Kiosk",
      "check_date:opening_hours": "2024-09-03",
      "level": "-1",
      "name": "k kiosk",
      "opening_hours": "Mo-Th 05:45-23:30; Fr 05:45-24:00; Sa 06:00-24:00; Su 06:00-22:00",
      "shop": "newsagent",
      "wheelchair": "yes"
    },
    "distance_to_station": 247.3642923976723
  },
  {
    "feature_type": "shops",
    "lat": 46.949142,
    "lon": 7.4400944,
    "tags": {
      "indoor": "yes",
      "indoor_seating": "no",
      "level": "-1",
      "name": "Reinhard",
      "opening_hours": "Mo-Fr 05:45-21:00; Sa 06:00-20:00; Su,PH 06:30-20:00",
      "opening_hours:url": "https://reinhard.swiss/standorte/bahnhof/",
      "outdoor_seating": "no",
      "phone": "+41 31 318 18 11",
      "shop": "bakery",
      "takeaway": "only",
      "website": "https://reinhard.swiss/",
      "wheelchair": "yes"
    },
    "distance_to_station": 245.49734749947302
  },
  {
    "feature_type": "shops",
    "lat": 46.9494179,
    "lon": 7.4417535,
    "tags": {
      "brand": "Coop City",
      "brand:wikidata": "Q120492050",
      "check_date:opening_hours": "2023-07-09",
      "internet_access": "wlan",
      "internet_access:fee": "no",
      "internet_access:ssid": "Coop free",
      "name": "Coop City Ryfflihof",
      "opening_hours": "Mo 09:00-19:00; Tu,We 08:00-19:00; Th 08:00-21:00; Fr 08:00-20:00; Sa 08:00-17:00",
      "shop": "department_store",
      "toilets": "yes",
      "type": "multipolygon",
      "website": "https://www.coop-city.ch/de/standorte/coop-city-bern-ryfflihof/2192_POS",
      "wheelchair": "yes"
    },
    "distance_to_station": 303.7780588424925
  }
]