[
  {
    "feature_type": "libraries",
    "lat": 46.9513579,
    "lon": 7.461082,
    "tags": {
      "addr:city": "Bern",
      "addr:country": "CH",
      "addr:housenumber": "31",
      "addr:postcode": "3006",
      "addr:street": "Alter Aargauerstalden",
      "alt_name": "Bibliothek Rosengarten",
      "amenity": "library",
      "contact:email": "info@kornhausbibliotheken.ch",
      "contact:mobile": "+41 79 2712098",
      "contact:phone": "+41 31 5509901",
      "name": "Lesepavillon Rosengarten",
      "note": "Postadresse: Laubeggstrasse 1, 3013 Bern",
      "opening_hours": "Apr-Oct Mo-Fr 14:00-18:00; Apr-Oct Sa 11:00-15:00",
      "operator": "Kornhausbibliotheken Bern",
      "operator:short": "KOB",
      "operator:type": "public",
      "operator:wikidata": "Q1784554",
      "ref:isil": "CH-002073-3",
      "source": "Survey and website",
      "website": "https://www.kornhausbibliotheken.ch/Standorte/Rosengarten.aspx",
      "wikidata": "Q107146459"
    },
    "distance_to_station": 496.2979415785797
  }
]