[
  {
    "feature_type": "offices",
    "lat": 46.944092,
    "lon": 7.4546054,
    "tags": {
      "addr:city": "Bern",
      "addr:housenumber": "1",
      "addr:postcode": "3005",
      "addr:street": "Jungfraustrasse",
      "alt_name": "Argentinische Botschaft",
      "contact:addr:full": "Jungfraustrasse 1, 3005 Bern",
      "contact:email": "esuiz@mrecic.gov.ar",
      "contact:fax": "+41 31 3564340",
      "contact:phone": "+41 31 3564343",
      "country": "AR",
      "diplomatic": "embassy",
      "embassy": "yes",
      "name": "Botschaft Argentinien",
      "name:de": "Botschaft Argentinien",
      "name:en": "Embassy of Argentina",
      "name:fr": "Ambassade de l'Argentine",
      "office": "diplomatic",
      "opening_hours": "Mo-Fr 09:00-17:00; Sa-Su off; PH off",
      "source": "survey and https://www.eda.admin.ch/eda/de/home/vertretungen-und-reisehinweise/argentinien/argentinien-vertretunginderschweiz.html",
      "target": "CH",
      "website": "http://www.esuiz.mrecic.gob.ar",
      "wikidata": "Q26979980"
    },
    "distance_to_station": 432.2564807500571
  },
  {
    "feature_type": "offices",
    "lat": 46.9439659,
    "lon": 7.4547631,
    "tags": {
      "addr:city": "Bern",
      "addr:housenumber": "1",
      "addr:postcode": "3005",
      "addr:street": "Jungfraustrasse",
      "alt_name": "Malaysische Botschaft",
      "contact:addr:full": "Jungfraustrasse 1, 3005 Bern",
      "contact:email": "malberne@kln.gov.my",
      "contact:fax": "+41 31 3504702",
      "contact:phone": "+41 31 3504700",
      "country": "MY",
      "diplomatic": "embassy",
      "embassy": "yes",
      "name": "Botschaft Malaysia",
      "name:de": "Botschaft Malaysia",
      "name:en": "Embassy of Malaysia",
      "name:fr": "Ambassade de la Malaisie",
      "office": "diplomatic",
      "opening_hours": "Mo-Fr 09:00-13:00,14:00-17:00; Sa-Su off; PH off",
      "source": "survey and https://www.eda.admin.ch/eda/de/home/vertretungen-und-reisehinweise/malaysia/malaysia-vertretunginderschweiz.html",
      "target": "CH",
      "website": "http://mw.kln.gov.my/web/che_berne/home",
      "wikidata": "Q5369779"
    },
    "distance_to_station": 430.6110121149041
  },
  {
    "feature_type": "offices",
    "lat": 46.9412118,
    "lon": 7.4494316,
    "tags": {
      "alt_name": "Schweizerisches Literaturarchiv",
      "amenity": "archive",
      "contact:addr": "Hallwylstrasse 15, 3005 Bern",
      "contact:email": "arch.lit@nb.admin.ch",
      "contact:fax": "+41 58 462 84 08",
      "contact:phone": "+41 58 462 92 58",
      "contact:website": "http://www.nb.admin.ch/sla",
      "description": "Sammlung - KGS-Nr: Nummer des Kulturgutes, zu finden in den KGS-Listen des Bundes und der Kantone. BABS: Bundesamt f\u00fcr Bev\u00f6lkerungsschutz",
      "name": "Schweizerisches Literaturarchiv",
      "office": "yes",
      "opening_hours": "Mo-Fr 10:00-17:00; Sa-Su off",
      "operator": "Schweizerische Nationalbibliothek",
      "ref:isil": "CH-000015-0",
      "ref:kgs": "8835",
      "short_name": "SLA",
      "source": "survey and website",
      "wikidata": "Q675617",
      "wikipedia": "de:Schweizerisches Literaturarchiv"
    },
    "distance_to_station": 97.17505506220866
  },
  {
    "feature_type": "offices",
    "lat": 46.9412092,
    "lon": 7.4559391,
    "tags": {
      "addr:city": "Bern",
      "addr:housenumber": "36",
      "addr:postcode": "3005",
      "addr:street": "Thunstrasse",
      "alt_name": "Peruanische Botschaft",
      "contact:addr:full": "Thunstrasse 36, 3005 Bern",
      "contact:email": "info@embaperu.ch",
      "contact:fax": "+41 31 3518570",
      "contact:phone": "+41 31 3518555",
      "country": "PE",
      "diplomatic": "embassy",
      "diplomatic:services:consulate": "yes",
      "embassy": "yes",
      "name": "Botschaft Peru",
      "name:de": "Botschaft Peru",
      "name:en": "Embassy of Peru",
      "name:es": "Embajada del Per\u00fa",
      "name:fr": "Ambassade P\u00e9rou",
      "name:it": "Ambasciata Per\u00f9",
      "office": "diplomatic",
      "opening_hours": "Mo-Fr 09:00-13:00, 14:00-17:00; Sa-Su off",
      "source": "website, survey and https://www.eda.admin.ch/eda/de/home/vertretungen-und-reisehinweise/peru/peru-vertretung-inderschweiz.html",
      "target": "CH",
      "website": "https://www.embaperu.ch",
      "wikidata": "Q26980029"
    },
    "distance_to_station": 397.0263606477388
  },
  {
    "feature_type": "offices",
    "lat": 46.941387,
    "lon": 7.4564728,
    "tags": {
      "addr:city": "Bern",
      "addr:housenumber": "45",
      "addr:postcode": "3005",
      "addr:street": "Thunstrasse",
      "alt_name": "Kroatische Botschaft",
      "contact:addr:full": "Thunstrasse 45, 3005 Bern",
      "contact:email": "vrhbern@mvep.hr",
      "contact:fax": "+41 31 3520373",
      "contact:phone": "+41 31 3520275",
      "country": "HR",
      "diplomatic": "embassy",
      "embassy": "yes",
      "name": "Botschaft Kroatien",
      "name:en": "Embassy of Croatia",
      "name:es": "Embajada Croacia",
      "name:fr": "Ambassade Croatie",
      "name:it": "Ambasciata Croazia",
      "office": "diplomatic",
      "opening_hours": "Mo-Fr 08:30-16:30; Sa-Su off",
      "source": "survey and https://www.eda.admin.ch/eda/de/home/vertretungen-und-reisehinweise/kroatien/kroatien-vertretunginderschweiz.html",
      "target": "CH",
      "wikidata": "Q26980141"
    },
    "distance_to_station": 437.7473307650572
  },
  {
    "feature_type": "offices",
    "lat": 46.9408047,
    "lon": 7.4471356,
    "tags": {
      "contact:addr": "Hallwylstrasse 4, 3005 Bern",
      "contact:email": "weko@weko.admin.ch",
      "contact:fax": "+41 58 4622053",
      "contact:phone": "+41 58 4622040",
      "contact:post_addr": "Hallwylstrasse 4, 3003 Bern",
      "contact:website": "https://www.weko.admin.ch/weko/de/home/die-weko/kontakt.html",
      "name": "Wettbewerbskommission",
      "name:de": "Wettbewerbskommission",
      "name:en": "Competition Commission",
      "name:fr": "Commission de la concurrence",
      "name:it": "Commissione della concorrenza",
      "office": "government",
      "short_name": "WEKO",
      "short_name:de": "WEKO",
      "short_name:fr": "COMCO",
      "short_name:it": "COMCO",
      "website": "https://www.weko.admin.ch",
      "wikidata": "Q2565834",
      "wikipedia": "de:Wettbewerbskommission"
    },
    "distance_to_station": 275.97252887991846
  },
  {
    "feature_type": "offices",
    "lat": 46.9406298,
    "lon": 7.4565128,
    "tags": {
      "addr:city": "Bern",
      "addr:housenumber": "77-79",
      "addr:postcode": "3005",
      "addr:street": "Kirchenfeldstrasse",
      "alt_name": "\u00d6sterreichische Botschaft",
      "contact:addr:full": "Kirchenfeldstrasse 77-79, 3005 Bern",
      "contact:email": "bern-ob@bmeia.gv.at",
      "contact:fax": "+41 31 3515664",
      "contact:phone": "+41 31 3565252",
      "country": "AT",
      "diplomatic": "embassy",
      "embassy": "yes",
      "name": "Botschaft \u00d6sterreich",
      "name:de": "Botschaft \u00d6sterreich",
      "name:en": "Embassy of Austria",
      "name:es": "Embajada Austria",
      "name:fr": "Ambassade d'Autriche",
      "name:it": "Ambasciata Austria",
      "office": "diplomatic",
      "opening_hours": "Mo-Tu 09:00-12:00; We 09:00-12:00, 14:00-16:00; Th-Fr 09:00-12:00; Sa-Su off",
      "source": "survey and https://www.eda.admin.ch/eda/en/fdfa/representations-and-travel-advice/austria/austria-representation-in-ch.html",
      "target": "CH",
      "website": "https://www.bmeia.gv.at/botschaft/bern.html",
      "wikidata": "Q26980150"
    },
    "distance_to_station": 446.0303118828819
  },
  {
    "feature_type": "offices",
    "lat": 46.9404793,
    "lon": 7.448259,
    "tags": {
      "contact:addr": "Bernastrasse 28, 3005 Bern",
      "contact:email": "info@bwl.admin.ch",
      "contact:fax": "+41 58 4622057",
      "contact:phone": "+41 58 4622171",
      "contact:post_addr": "Bernastrasse 28, 3003 Bern",
      "government": "administrative",
      "name": "Bundesamt f\u00fcr wirtschaftliche Landesversorgung BWL",
      "name:de": "Bundesamt f\u00fcr wirtschaftliche Landesversorgung BWL",
      "name:en": "Federal Office for National Economic Supply FONES",
      "name:fr": "Office f\u00e9d\u00e9ral pour l'approvisionnement \u00e9conomique du pays OFAE",
      "name:it": "Ufficio federale per l'approvvigionamento economico del Paese UFAE",
      "office": "government",
      "short_name": "BWL",
      "source": "survey and website",
      "website": "https://www.bwl.admin.ch"
    },
    "distance_to_station": 205.17304935440387
  },
  {
    "feature_type": "offices",
    "lat": 46.9406917,
    "lon": 7.4482326,
    "tags": {
      "alt_name": "Eidgen\u00f6ssische M\u00fcnzst\u00e4tte Swissmint",
      "contact:addr": "Bernastrasse 28, 3005 Bern",
      "contact:email": "info@swissmint.ch",
      "contact:facebook": "https://www.facebook.com/swissmint",
      "contact:fax": "+41 58 4626007",
      "contact:phone": "+41 58 4800800",
      "contact:post_addr": "Bernastrasse 28, 3003 Bern",
      "government": "administrative",
      "name": "Swissmint",
      "office": "government",
      "source": "survey and website",
      "website": "https://www.swissmint.ch"
    },
    "distance_to_station": 198.2922246169864
  },
  {
    "feature_type": "offices",
    "lat": 46.9397083,
    "lon": 7.4517474,
    "tags": {
      "contact:addr": "Helvetiastrasse 45, 3005 Bern",
      "contact:email": "info@perex.ch",
      "contact:phone": "+41 31 3528818",
      "contact:website": "https://perex.ch/kontakt.html",
      "name": "Perex",
      "office": "advertising_agency",
      "operator": "Perex GmbH",
      "source": "survey and website",
      "website": "https://perex.ch"
    },
    "distance_to_station": 189.345982321973
  },
  {
    "feature_type": "offices",
    "lat": 46.9429991,
    "lon": 7.4475936,
    "tags": {
      "alt_name": "Schweizer Milchproduzenten SMP Genossenschaft",
      "brand:wikidata": "Q62998483",
      "brand:wikimedia_commons": "Category:Genossenschaftsverband Schweizer Milchproduzenten",
      "brand:wikipedia": "de:Schweizer Milchproduzenten",
      "contact:addr": "Weststrasse 10, 3005 Bern",
      "contact:email": "smp@swissmilk.ch",
      "contact:fax": "+41 31 3595851",
      "contact:phone": "+41 31 3595111",
      "name": "Schweizer Milchproduzenten",
      "name:de": "Schweizer Milchproduzenten",
      "name:en": "Swiss milk producers",
      "name:fr": "Producteurs Suisse de lait",
      "office": "cooperative",
      "short_name": "SMP",
      "short_name:de": "SMP",
      "short_name:fr": "PSL",
      "website": "https://www.swissmilk.ch/de/produzenten/"
    },
    "distance_to_station": 305.7828944807649
  },
  {
    "feature_type": "offices",
    "lat": 46.9434739,
    "lon": 7.4480686,
    "tags": {
      "addr:city": "Bern",
      "addr:housenumber": "2-4",
      "addr:postcode": "3005",
      "addr:street": "Bernastrasse",
      "alt_name": "Bulgarische Botschaft",
      "contact:addr:full": "Bernastrasse 2-4, 3005 Bern",
      "contact:email": "embassy.bern@mfa.bg",
      "contact:fax": "+41 31 3510064",
      "contact:phone": "+41 31 3511455",
      "country": "BG",
      "diplomatic": "embassy",
      "embassy": "yes",
      "name": "Botschaft Bulgarien",
      "name:bg": "\u043f\u043e\u0441\u043e\u043b\u0441\u0442\u0432\u043e \u0411\u044a\u043b\u0433\u0430\u0440\u0438\u044f",
      "name:de": "Botschaft Bulgarien",
      "name:en": "Embassy Bulgaria",
      "name:es": "Embajada Bulgaria",
      "name:fr": "Ambassade Bulgarie",
      "name:it": "Ambasciata Bulgaria",
      "office": "diplomatic",
      "opening_hours": "Mo-Fr 09:00-12:00; Sa-Su off; PH off",
      "source": "survey and website",
      "target": "CH",
      "website": "https://www.mfa.bg/de/embassies/switzerland",
      "wikidata": "Q26980112"
    },
    "distance_to_station": 317.78100711680673
  },
  {
    "feature_type": "offices",
    "lat": 46.9429427,
    "lon": 7.4512451,
    "tags": {
      "contact:addr": "Thunstrasse 10, 3005 Bern",
      "contact:email": "info@indato.ch",
      "contact:fax": "+41 31 3316405",
      "contact:phone": "+41 31 3316404",
      "name": "indato",
      "office": "it",
      "operator": "indato GmbH",
      "source": "survey and website",
      "website": "https://www.indato.ch/"
    },
    "distance_to_station": 191.8161350893646
  },
  {
    "feature_type": "offices",
    "lat": 46.9428413,
    "lon": 7.450089,
    "tags": {
      "alt_name": "Stadtarchiv der Stadt Bern",
      "contact:addr": "Helvetiastrasse 6, 3005 Bern",
      "contact:email": "stadtarchiv@bern.ch",
      "contact:fax": "+41 31 3216250",
      "contact:phone": "+41 31 3216240",
      "government": "archive",
      "name": "Stadtarchiv",
      "name:fr": "Archives de la ville",
      "office": "government",
      "opening_hours": "Mo-Fr 13:30-17:00; Sa-Su off; PH off",
      "operator": "Stadt Bern",
      "source": "survey and website",
      "start_date": "1803",
      "website": "https://www.bern.ch/politik-und-verwaltung/stadtverwaltung/sk/stadtarchiv"
    },
    "distance_to_station": 182.38481584538462
  },
  {
    "feature_type": "offices",
    "lat": 46.9411447,
    "lon": 7.4550705,
    "tags": {
      "contact:addr": "D\u00e4hlh\u00f6lzliweg 12, 3005 Bern",
      "contact:email": "info@voev.ch",
      "contact:fax": "+41 31 3592310",
      "contact:phone": "+41 31 3592323",
      "name": "Verband \u00f6ffentlicher Verkehr V\u00d6V",
      "name:de": "Verband \u00f6ffentlicher Verkehr V\u00d6V",
      "name:fr": "Union des transports publics UTP",
      "name:it": "Unione dei trasporti pubblici UTP",
      "office": "union",
      "short_name": "V\u00d6V",
      "source": "survey and website",
      "website": "https://www.voev.ch"
    },
    "distance_to_station": 331.28337918384335
  },
  {
    "feature_type": "offices",
    "lat": 46.9406144,
    "lon": 7.4561006,
    "tags": {
      "addr:city": "Bern",
      "addr:housenumber": "73-75",
      "addr:postcode": "3005",
      "addr:street": "Kirchenfeldstrasse",
      "alt_name": "Philippinische Botschaft",
      "contact:addr:full": "Kirchenfeldstrasse 73-75, 3005 Bern",
      "contact:email": "berne.pe@dfa.gov.ph",
      "contact:facebook": "https://www.facebook.com/pages/Philippine-Embassy-Berne-Switzerland/463390403769007",
      "contact:fax": "+41 31 3522602",
      "contact:phone": "+41 31 3501717",
      "country": "PH",
      "diplomatic": "embassy",
      "embassy": "yes",
      "name": "Botschaft Philippinen",
      "name:de": "Botschaft Philippinen",
      "name:en": "Embassy Philippines",
      "name:es": "Embajada Filipinas",
      "name:fr": "Ambassade Philippines",
      "name:it": "Ambasciata Filippine",
      "office": "diplomatic",
      "opening_hours": "Mo-Fr 09:00-17:00; Sa-Su off",
      "source": "survey and https://www.eda.admin.ch/eda/en/fdfa/representations-and-travel-advice/philippines/philippines-representation-in-ch.html",
      "target": "CH",
      "website": "https://www.bernepe.dfa.gov.ph/",
      "wikidata": "Q26979953"
    },
    "distance_to_station": 415.4412342580558
  },
  {
    "feature_type": "offices",
    "lat": 46.9421342,
    "lon": 7.4547199,
    "tags": {
      "contact:addr": "Dufourstrasse 21, 3005 Bern",
      "contact:email": "info@artexperts.ch",
      "contact:fax": "+41 31 3517804",
      "contact:phone": "+41 31 3527278",
      "name": "ARTexperts",
      "office": "art_consulting",
      "operator": "ARTexperts GmbH",
      "source": "survey and website",
      "start_date": "2001",
      "website": "https://www.artexperts.ch/"
    },
    "distance_to_station": 319.68028380689907
  },
  {
    "feature_type": "offices",
    "lat": 46.9419627,
    "lon": 7.4549944,
    "tags": {
      "alt_name": "Furrer + Frey",
      "contact:addr": "Thunstrasse 35, 3005 Bern",
      "contact:email": "schweiz@furrerfrey.ch",
      "contact:email_1": "adm@furrerfrey.ch",
      "contact:fax": "+41 31 3576100",
      "contact:phone": "+41 31 3576111",
      "name": "Furrer+Frey",
      "office": "engineering",
      "opening_hours": "Mo-Fr 07:45-12:00, 13:00-17:00; Sa-Su off; PH off",
      "operator": "Furrer+Frey AG",
      "source": "survey and website",
      "website": "https://www.furrerfrey.ch"
    },
    "distance_to_station": 334.60566562073365
  },
  {
    "feature_type": "offices",
    "lat": 46.9418954,
    "lon": 7.4552005,
    "tags": {
      "contact:addr": "Thunstrasse 37, 3005 Bern",
      "contact:email": "info@vogel-messtechnik.ch",
      "contact:phone": "+41 31 3576175",
      "contact:website": "http://www.vogel-messtechnik.ch/kontakt",
      "name": "Vogel Messtechnik",
      "office": "engineering",
      "operator": "Ingenieurb\u00fcro Vogel Messtechnik (Einzelunternehmen)",
      "source": "survey and website",
      "start_date": "2003",
      "website": "http://www.vogel-messtechnik.ch"
    },
    "distance_to_station": 348.23246203141383
  },
  {
    "feature_type": "offices",
    "lat": 46.9423788,
    "lon": 7.453866,
    "tags": {
      "contact:addr": "Thunstrasse 29, 3005 Bern",
      "contact:email": "be@it-personal.ch",
      "contact:facebook": "https://www.facebook.com/itpersonal",
      "contact:fax": "+41 31 3570701",
      "contact:mobile": "+41 79 6678500",
      "contact:phone": "+41 31 3570700",
      "contact:xing": "https://www.xing.com/companies/muehlemannit-personalag",
      "name": "m\u00fchlemann IT-personal",
      "office": "employment_agency",
      "operator": "m\u00fchlemann IT-personal AG",
      "source": "survey and website",
      "website": "https://www.it-personal.ch"
    },
    "distance_to_station": 270.1381771479394
  },
  {
    "feature_type": "offices",
    "lat": 46.9426364,
    "lon": 7.4532464,
    "tags": {
      "alt_name": "TCFG",
      "contact:addr": "Thunstrasse 23, 3005 Bern",
      "contact:email": "berne@tcfg.ch",
      "contact:fax": "+41 31 3562526",
      "contact:phone": "+41 31 3562525",
      "contact:website": "https://tcfg.ch/de/info/kontakt",
      "name": "The Corporate Finance Group",
      "note": "Mergers & Acquisitions, Corporate Finance und Restrukturierung",
      "office": "financial_services",
      "operator": "The Corporate Finance Group AG",
      "short_name": "TCFG",
      "source": "survey and website",
      "website": "https://tcfg.ch/de/uber-uns/standorte-schweiz/bern"
    },
    "distance_to_station": 246.19860131265744
  },
  {
    "feature_type": "offices",
    "lat": 46.9379968,
    "lon": 7.4503467,
    "tags": {
      "alt_name": "Luginb\u00fchl & Eckmann Rechtsanw\u00e4lte",
      "contact:addr": "Jubil\u00e4umsstrasse 41, 3005 Bern",
      "contact:email": "sekretariat@luginbuehl-eckmann.ch",
      "contact:fax": "+41 31 3526664",
      "contact:phone": "+41 31 3526601",
      "name": "Luginb\u00fchl & Eckmann",
      "office": "lawyer",
      "opening_hours": "Mo-Th 08:00-12:00, 13:00-17:00; Fr 08:00-12:00, 13:00-16:00; Sa-Su off; PH off",
      "source": "survey and website",
      "website": "http://www.luginbuehl-eckmann.ch"
    },
    "distance_to_station": 363.54270821810843
  },
  {
    "feature_type": "offices",
    "lat": 46.9436764,
    "lon": 7.4518245,
    "tags": {
      "addr:city": "Bern",
      "addr:housenumber": "12",
      "addr:postcode": "3005",
      "addr:street": "Marienstrasse",
      "alt_name": "Spanisches Konsulat",
      "consulate": "consulate_general",
      "contact:addr:full": "Marienstrasse 12, 3005 Bern",
      "contact:email": "cog.berna@maec.es",
      "contact:fax": "+41 31 3562221",
      "contact:phone": "+41 31 3562220",
      "country": "ES",
      "diplomatic": "consulate",
      "name": "Generalkonsulat Spanien",
      "office": "diplomatic",
      "opening_hours": "Mo-Fr 08:30-12:30; Sa 08:30-11:30; Su off; PH off",
      "source": "survey and https://www.eda.admin.ch/eda/de/home/vertretungen-und-reisehinweise/spanien/spanien-vertretunginderschweiz.html",
      "target": "CH",
      "website": "http://www.exteriores.gob.es/consulados/berna"
    },
    "distance_to_station": 282.03963256595324
  },
  {
    "feature_type": "offices",
    "lat": 46.9429788,
    "lon": 7.451013,
    "tags": {
      "alt_name": "Tourismus Kanton Bern",
      "brand": "Made in Bern",
      "contact:addr": "Thunstrasse 8, 3005 Bern",
      "contact:email": "info@madeinbern.com",
      "contact:facebook": "https://www.facebook.com/madeinbern",
      "contact:instagram": "https://instagram.com/madeinbern",
      "contact:phone": "+41 31 3003300",
      "contact:twitter": "https://www.twitter.com/madeinbern",
      "contact:website": "https://www.madeinbern.com/de/kontakt",
      "name": "BE! Tourismus",
      "office": "company",
      "operator": "BE! Tourismus AG",
      "website": "https://www.madeinbern.com"
    },
    "distance_to_station": 192.85531987894277
  },
  {
    "feature_type": "offices",
    "lat": 46.9437415,
    "lon": 7.4553445,
    "tags": {
      "addr:city": "Bern",
      "addr:housenumber": "3",
      "addr:postcode": "3005",
      "addr:street": "Jungfraustrasse",
      "contact:addr:full": "Jungfraustrasse 3, 3005 Bern",
      "country": "GR",
      "diplomatic": "embassy",
      "embassy": "residence",
      "name": "Residenz Griechenland",
      "office": "diplomatic",
      "target": "CH"
    },
    "distance_to_station": 447.35517409651214
  },
  {
    "feature_type": "offices",
    "lat": 46.9413041,
    "lon": 7.4501623,
    "tags": {
      "contact:addr": "Hallwylstrasse 15, 3005 Bern",
      "contact:email": "info@bak.admin.ch",
      "contact:fax": "+41 58 4629273",
      "contact:phone": "+41 58 4629266",
      "contact:twitter": "https://twitter.com/CulturaCH",
      "name": "Bundesamt f\u00fcr Kultur",
      "office": "government",
      "short_name": "BAK",
      "website": "https://www.bak.admin.ch",
      "wikidata": "Q661413"
    },
    "distance_to_station": 41.904110384474755
  },
  {
    "feature_type": "offices",
    "lat": 46.9417748,
    "lon": 7.4561139,
    "tags": {
      "addr:city": "Bern",
      "addr:housenumber": "3",
      "addr:street": "D\u00e4hlh\u00f6lzliweg",
      "email": "info@kd3.ch",
      "fax": "+41 31 352 90 08",
      "name": "Kanzlei D3",
      "office": "lawyer",
      "opening_hours": "Mo-Th 08:00-12:00,13:30-17:30; Fr 08:00-12:00,13:30-17:00",
      "phone": "+41 31 352 52 52",
      "website": "https://www.kd3.ch"
    },
    "distance_to_station": 414.28301584344797
  },
  {
    "feature_type": "offices",
    "lat": 46.9428576,
    "lon": 7.4505624,
    "tags": {
      "contact:addr": "Helvetiastrasse 7, 3005 Bern",
      "contact:phone": "+41 31 9222757",
      "name": "EducARTES",
      "note": "Kontaktadresse: Res Publica Consulting AG, Helvetiastrasse 7, 3005 Bern",
      "office": "company",
      "operator": "EducARTES GmbH"
    },
    "distance_to_station": 178.35270722254648
  },
  {
    "feature_type": "offices",
    "lat": 46.942781,
    "lon": 7.4505832,
    "tags": {
      "contact:addr": "Helvetiastrasse 7, 3005 Bern",
      "contact:email": "info@rpconsulting.ch",
      "contact:fax": "+41 31 9222758",
      "contact:phone": "+41 31 9222757",
      "name": "Res Publica Consulting",
      "office": "company",
      "operator": "Res Publica Consulting AG",
      "website": "https://www.rpconsulting.ch"
    },
    "distance_to_station": 169.75603238571924
  },
  {
    "feature_type": "offices",
    "lat": 46.9417843,
    "lon": 7.4509112,
    "tags": {
      "contact:addr": "Helvetiastrasse 17, 3005 Bern",
      "contact:email": "info@diff.ch",
      "contact:facebook": "https://www.facebook.com/diff.ch",
      "contact:instagram": "https://www.instagram.com/agentur_diff",
      "contact:linkedin": "https://www.linkedin.com/company/diff-kommunikation-ag",
      "contact:phone": "+41 31 3138020",
      "name": "diff.",
      "office": "advertising_agency",
      "operator": "diff. Kommunikation AG",
      "website": "https://www.diff.ch"
    },
    "distance_to_station": 60.61347857963114
  },
  {
    "feature_type": "offices",
    "lat": 46.9407156,
    "lon": 7.4474301,
    "tags": {
      "contact:addr": "Hallwylstrasse 4, 3005 Bern",
      "contact:email": "info@bwo.admin.ch",
      "contact:fax": "+41 58 4809110",
      "contact:phone": "+41 58 4809111",
      "contact:post_addr": "Hallwylstrasse 4, 3003 Bern",
      "contact:website": "https://www.bwo.admin.ch/bwo/de/home/das-bwo/kontakt.html",
      "name": "Bundesamt f\u00fcr Wohnungswesen",
      "name:de": "Bundesamt f\u00fcr Wohnungswesen",
      "name:en": "Federal Office for Housing",
      "name:fr": "Office f\u00e9d\u00e9ral du logement",
      "office": "government",
      "website": "https://www.bwo.admin.ch",
      "wikidata": "Q31841186",
      "wikipedia": "de:Bundesamt f\u00fcr Wohnungswesen"
    },
    "distance_to_station": 256.1663396466043
  },
  {
    "feature_type": "offices",
    "lat": 46.9431265,
    "lon": 7.4507807,
    "tags": {
      "email": "hallo@w-realestate.swiss",
      "name": "W Real Estate",
      "office": "estate_agent",
      "phone": "+41 31 350 50 30",
      "website": "https://w-realestate.swiss/"
    },
    "distance_to_station": 207.97062198040987
  },
  {
    "feature_type": "offices",
    "lat": 46.9439063,
    "lon": 7.4471151,
    "tags": {
      "alt_name": "Botschaft der Ukraine in der Schweizerischen Eidgenossenschaft",
      "contact:addr": "Feldeggweg 5, 3005 Bern",
      "contact:email": "emb_ch@mfa.gov.ua",
      "contact:fax": "+41 31 3516416",
      "contact:phone": "+41 31 3522316",
      "country": "UA",
      "diplomatic": "embassy",
      "embassy": "yes",
      "name": "Botschaft Ukraine",
      "name:de": "Botschaft Ukraine",
      "name:en": "Embassy of Ukraine",
      "name:es": "Embajada Ucrania",
      "name:fr": "Ambassade d'Ukraine",
      "name:it": "Ambasciata Ucraina",
      "name:ru": "\u041f\u043e\u0441\u043e\u043b\u044c\u0441\u0442\u0432\u043e \u0423\u043a\u0440\u0430\u0438\u043d\u0430",
      "name:uk": "\u041f\u043e\u0441\u043e\u043b\u044c\u0441\u0442\u0432\u043e \u0423\u043a\u0440\u0430\u0457\u043d\u0438 \u0432 \u0428\u0432\u0435\u0439\u0446\u0430\u0440\u0441\u044c\u043a\u0456\u0439 \u041a\u043e\u043d\u0444\u0435\u0434\u0435\u0440\u0430\u0446\u0456\u0457 \u0442\u0430 \u0432 \u041a\u043d\u044f\u0437\u0456\u0432\u0441\u0442\u0432\u0456 \u041b\u0456\u0445\u0442\u0435\u043d\u0448\u0442\u0435\u0439\u043d",
      "office": "diplomatic",
      "opening_hours": "Mo-Fr 08:30-12:30,14:00-18:00; Sa-Su off",
      "target": "CH",
      "website": "https://switzerland.mfa.gov.ua",
      "wikidata": "Q5369902"
    },
    "distance_to_station": 401.58685191068827
  },
  {
    "feature_type": "offices",
    "lat": 46.9412405,
    "lon": 7.455852,
    "tags": {
      "addr:city": "Bern",
      "addr:housenumber": "36",
      "addr:postcode": "3005",
      "addr:street": "Thunstrasse",
      "contact:email": "info@fls-fsp.ch",
      "contact:phone": "+41 31 350 11 50",
      "name": "Fonds Landschaft Schweiz",
      "name:fr": "Fonds suisse pour le paysage",
      "name:it": "Fondo svizzero per il paesaggio",
      "name:rm": "Fond svizzer per la cuntrada",
      "office": "association",
      "short_name:de": "FLS",
      "short_name:fr": "FSP",
      "short_name:it": "FSP",
      "short_name:rm": "FSC",
      "website": "https://fls-fsp.ch/"
    },
    "distance_to_station": 390.3827030063605
  },
  {
    "feature_type": "offices",
    "lat": 46.9402029,
    "lon": 7.4554172,
    "tags": {
      "addr:city": "Bern",
      "addr:floor": "2",
      "addr:housenumber": "68",
      "addr:postcode": "3005",
      "addr:street": "Kirchenfeldstrasse",
      "alt_name": "Irl\u00e4ndische Botschaft",
      "check_date": "2024-10-20",
      "contact:addr:full": "Kirchenfeldstrasse 68, 3005 Bern",
      "contact:email": "berne@dfa.ie",
      "contact:facebook": "https://www.facebook.com/IRESWITZERLAND",
      "contact:fax": "+41 31 352 14 55",
      "contact:phone": "+41 31 350 03 80",
      "contact:twitter": "https://twitter.com/IrlEmbBerne",
      "contact:website": "https://www.ireland.ie/en/switzerland/berne/",
      "contact:youtube": "https://youtube.com/user/IrishForeignMinistry",
      "country": "IE",
      "diplomatic": "embassy",
      "embassy": "yes",
      "level": "2",
      "name": "Botschaft Irland",
      "name:am": "\u12e8\u12a0\u12e8\u122d\u120b\u1295\u12f5 \u12a4\u121d\u1263\u1232",
      "name:ar": "\u0633\u0641\u0627\u0631\u0629 \u0623\u064a\u0631\u0644\u0646\u062f\u0627",
      "name:bg": "\u041f\u043e\u0441\u043e\u043b\u0441\u0442\u0432\u043e \u043d\u0430 \u0418\u0440\u043b\u0430\u043d\u0434\u0438\u044f",
      "name:cs": "Velvyslanectv\u00ed Irska",
      "name:da": "Den irske ambassade",
      "name:de": "Botschaft von Irland",
      "name:el": "\u03a0\u03c1\u03b5\u03c3\u03b2\u03b5\u03af\u03b1 \u03c4\u03b7\u03c2 \u0399\u03c1\u03bb\u03b1\u03bd\u03b4\u03af\u03b1\u03c2",
      "name:en": "Embassy of Ireland",
      "name:es": "Embajada de Irlanda",
      "name:fi": "Irlannin Suurl\u00e4hetyst\u00f6",
      "name:fr": "Ambassade d'Irlande",
      "name:ga": "Ambas\u00e1id na h\u00c9ireann",
      "name:hr": "Veleposlanstvo Irske",
      "name:hu": "\u00cdrorsz\u00e1g Nagyk\u00f6vets\u00e9g",
      "name:id": "Kedutaan Besar Irlandia",
      "name:it": "Ambasciata d'Irlanda",
      "name:ja": "\u30a2\u30a4\u30eb\u30e9\u30f3\u30c9\u5927\u4f7f\u9928",
      "name:lt": "Airijos Respublikos ambasada",
      "name:lv": "\u012arijas v\u0113stniec\u012bba",
      "name:nl": "Ambassade van Ierland",
      "name:no": "Irlands ambassade",
      "name:pl": "Ambasada Irlandii",
      "name:pt": "Embaixada da Irlanda",
      "name:ro": "Ambasada Irlandei",
      "name:ru": "\u041f\u043e\u0441\u043e\u043b\u044c\u0441\u0442\u0432\u043e \u0418\u0440\u043b\u0430\u043d\u0434\u0438\u0438",
      "name:sk": "Ve\u013evyslanectvo \u00cdrska",
      "name:sl": "Irsko veleposlani\u0161tvo",
      "name:sv": "Irlands ambassad",
      "name:tr": "\u0130rlanda B\u00fcy\u00fckel\u00e7ili\u011fi",
      "name:vi": "\u0110\u1ea1i s\u1ee9 qu\u00e1n Ireland",
      "name:zh": "\u7231\u5c14\u5170\u5927\u4f7f\u9986",
      "office": "diplomatic",
      "opening_hours": "Mo-Fr open \"By appointment only\";PH off",
      "target": "CH;DZ;LI",
      "wikidata": "Q26979593"
    },
    "distance_to_station": 376.09626306722134
  },
  {
    "feature_type": "offices",
    "lat": 46.9401371,
    "lon": 7.4565117,
    "tags": {
      "addr:city": "Bern",
      "addr:housenumber": "78",
      "addr:postcode": "3005",
      "addr:street": "Kirchenfeldstrasse",
      "alt_name": "Rum\u00e4nische Botschaft",
      "building": "residential",
      "contact:addr:full": "Kirchenfeldstrasse 78, 3005 Bern",
      "contact:email": "ambasada@roamb.ch",
      "contact:facebook": "https://www.facebook.com/pages/Ambasada-Romaniei-in-Elvetia/1472843829652840",
      "contact:fax": "+41 31 3526455",
      "contact:phone": "+41 31 3523522",
      "country": "RO",
      "diplomatic": "embassy",
      "embassy": "yes",
      "name": "Botschaft Rum\u00e4nien",
      "name:de": "Botschaft Rum\u00e4nien",
      "name:en": "Embassy Romania",
      "name:es": "Embajada Rumania",
      "name:fr": "Ambassade de Roumanie",
      "name:it": "Ambasciata Romania",
      "name:ro": "Ambasada Rom\u00e2niei",
      "office": "diplomatic",
      "opening_hours": "Mo-Th 08:30-12:30, 13:30-17:30; Fr 08:30-16:30; Sa-Su off; PH off",
      "source": "survey and https://www.eda.admin.ch/eda/de/home/vertretungen-und-reisehinweise/rumaenien/rumaenien-vertretunginderschweiz.html",
      "target": "CH",
      "website": "http://berna.mae.ro",
      "wikidata": "Q26980152"
    },
    "distance_to_station": 457.7247712628729
  },
  {
    "feature_type": "offices",
    "lat": 46.9400548,
    "lon": 7.4550955,
    "tags": {
      "addr:city": "Bern",
      "addr:housenumber": "64",
      "addr:postcode": "3005",
      "addr:street": "Kirchenfeldstrasse",
      "alt_name": "Saudi-Arabische Botschaft",
      "building": "embassy",
      "contact:addr:full": "Kirchenfeldstrasse 64, 3005 Bern",
      "contact:email": "chemb@mofa.gov.sa",
      "contact:fax": "+41 31 3514581",
      "contact:phone": "+41 31 3521555;+41 31 3521556",
      "country": "SA",
      "diplomatic": "embassy",
      "embassy": "yes",
      "name": "Botschaft Saudi-Arabien",
      "name:ar": "\u0633\u0641\u0627\u0631\u0629 \u0627\u0644\u0645\u0645\u0644\u0643\u0629 \u0627\u0644\u0639\u0631\u0628\u064a\u0629 \u0627\u0644\u0633\u0639\u0648\u062f\u064a\u0629 \u0641\u064a \u0628\u064a\u0631\u0646 \u0640 \u0633\u0648\u064a\u0633\u0631\u0627",
      "name:de": "Botschaft Saudi-Arabien",
      "name:en": "Embassy of Saudi Arabia",
      "name:fr": "Ambassade d'Arabie saoudite",
      "name:it": "Ambasciata dell'Arabia Saudita",
      "office": "diplomatic",
      "opening_hours": "Mo-Fr 09:00-15:00; Sa-Su off; PH off",
      "source": "survey and https://www.eda.admin.ch/eda/de/home/vertretungen-und-reisehinweise/saudi-arabien/saudi-arabien-vertretunginderschweiz.html",
      "target": "CH",
      "website": "https://embassies.mofa.gov.sa/sites/Switzerland/EN/Pages/default.aspx",
      "wikidata": "Q26979957"
    },
    "distance_to_station": 358.7754160891562
  },
  {
    "feature_type": "offices",
    "lat": 46.9400661,
    "lon": 7.4547551,
    "tags": {
      "addr:city": "Bern",
      "addr:housenumber": "60",
      "addr:postcode": "3005",
      "addr:street": "Kirchenfeldstrasse",
      "alt_name": "Botschaft S\u00fcdafrika - Residenz",
      "building": "embassy",
      "contact:addr:full": "Kirchenfeldstrasse 60, 3005 Bern",
      "country": "ZA",
      "diplomatic": "embassy",
      "embassy": "residence",
      "name": "Residenz S\u00fcdafrika",
      "office": "diplomatic",
      "source": "Orthofotos Bern",
      "target": "CH"
    },
    "distance_to_station": 334.43175090542974
  },
  {
    "feature_type": "offices",
    "lat": 46.9399688,
    "lon": 7.4505192,
    "tags": {
      "addr:city": "Bern",
      "addr:housenumber": "28",
      "addr:postcode": "3005",
      "addr:street": "Kirchenfeldstrasse",
      "alt_name": "Indische Botschaft",
      "building": "embassy",
      "contact:addr:full": "Kirchenfeldstrasse 28, 3005 Bern",
      "contact:email": "hoc.berne@mea.gov.in",
      "contact:fax": "+41 31 3511557",
      "contact:phone": "+41 31 3501130",
      "country": "IN",
      "diplomatic": "embassy",
      "embassy": "yes",
      "name": "Botschaft Indien",
      "name:de": "Botschaft Indien",
      "name:en": "Embassy India",
      "name:fr": "Ambassade d'Inde",
      "office": "diplomatic",
      "opening_hours": "Mo-Fr 09:00-13:00; 13:30-17:30; Sa-Su off; PH off",
      "source": "survey, website and https://www.eda.admin.ch/eda/de/home/vertretungen-und-reisehinweise/indien/indien-vertretunginderschweiz.html",
      "target": "CH",
      "website": "https://www.indembassybern.gov.in/",
      "wikidata": "Q26979889"
    },
    "distance_to_station": 143.94897051872192
  },
  {
    "feature_type": "offices",
    "lat": 46.9396798,
    "lon": 7.4505716,
    "tags": {
      "addr:city": "Bern",
      "addr:country": "CH",
      "addr:housenumber": "51",
      "addr:postcode": "3005",
      "addr:street": "Thormannstrasse",
      "alt_name": "Botschaft C\u00f4te d\u2019Ivoire",
      "building": "yes",
      "contact:email": "acibe-1@acibe.org",
      "contact:fax": "+41 31 3508081",
      "contact:phone": "+41 31 3508080",
      "country": "CI",
      "diplomatic": "embassy",
      "embassy": "yes",
      "name": "Botschaft Elfenbeink\u00fcste",
      "name:de": "Botschaft Elfenbeink\u00fcste",
      "name:fr": "Ambassade de C\u00f4te d\u2019Ivoire",
      "office": "diplomatic",
      "opening_hours": "Mo-Fr 08:30-15:30",
      "source": "Orthofotos Bern",
      "target": "CH",
      "website": "http://www.acibe.org",
      "wikidata": "Q26979964"
    },
    "distance_to_station": 175.66845912388834
  },
  {
    "feature_type": "offices",
    "lat": 46.9397142,
    "lon": 7.4508778,
    "tags": {
      "addr:city": "Bern",
      "addr:housenumber": "42",
      "addr:postcode": "3005",
      "addr:street": "Helvetiastrasse",
      "building": "embassy",
      "country": "MA",
      "diplomatic": "embassy",
      "embassy": "yes",
      "name": "Botschaft Marokko",
      "name:fr": "Ambassade du Maroc",
      "office": "diplomatic",
      "source": "Orthofotos Bern",
      "target": "CH"
    },
    "distance_to_station": 172.00226849167643
  },
  {
    "feature_type": "offices",
    "lat": 46.9391457,
    "lon": 7.4506841,
    "tags": {
      "addr:city": "Bern",
      "addr:housenumber": "57",
      "addr:postcode": "3005",
      "addr:street": "Thormannstrasse",
      "building": "yes",
      "contact:addr:full": "Thormannstrasse 57, 3005 Bern",
      "country": "PE",
      "diplomatic": "embassy",
      "embassy": "residence",
      "name": "Residenz Peru",
      "name:de": "Residenz Peru",
      "name:fr": "R\u00e9sidence P\u00e9rou",
      "office": "diplomatic",
      "source": "Orthofotos Bern",
      "target": "CH"
    },
    "distance_to_station": 234.75178140303473
  },
  {
    "feature_type": "offices",
    "lat": 46.9392562,
    "lon": 7.4493878,
    "tags": {
      "addr:city": "Bern",
      "addr:housenumber": "47",
      "addr:postcode": "3005",
      "addr:street": "Bernastrasse",
      "building": "yes",
      "country": "PK",
      "diplomatic": "embassy",
      "embassy": "yes",
      "name": "Botschaft Pakistan",
      "name:fr": "Ambassade du Pakistan",
      "office": "diplomatic",
      "opening_hours": "Mo-Fr 10:00-12:00",
      "source": "Orthofotos Bern",
      "target": "CH",
      "wikidata": "Q26979929"
    },
    "distance_to_station": 244.05266365269028
  },
  {
    "feature_type": "offices",
    "lat": 46.9404124,
    "lon": 7.4465906,
    "tags": {
      "alt_name": "Bundesarchiv",
      "building": "public",
      "check_date": "2023-09-13",
      "contact:addr": "Archivstrasse 24, 3005 Bern",
      "contact:email": "bundesarchiv@bar.admin.ch",
      "contact:fax": "+41 31 3227823",
      "contact:phone": "+41 31 3228989",
      "heritage": "2",
      "heritage:operator": "babs",
      "image": "https://upload.wikimedia.org/wikipedia/commons/thumb/a/a7/Swiss_Federal_Archives_building.JPG/800px-Swiss_Federal_Archives_building.JPG",
      "name": "Schweizerisches Bundesarchiv",
      "name:de": "Schweizerisches Bundesarchiv",
      "name:en": "Swiss Federal Archives",
      "name:fr": "Archives f\u00e9d\u00e9rales suisses",
      "name:it": "Archivio federale svizzero",
      "note": "KGS-Nr: Nummer des Kulturgutes, zu finden in den KGS-Listen des Bundes und der Kantone. BABS: Bundesamt f\u00fcr Bev\u00f6lkerungsschutz",
      "office": "government",
      "opening_hours": "Mo off; Tu-Th 09:00-19:00; Fr-Su off",
      "ref:kgs": "614",
      "short_name": "BAR",
      "source": "Orthofotos Bern",
      "website": "https://www.bar.admin.ch/",
      "wheelchair": "yes",
      "wikidata": "Q679141",
      "wikimedia_commons": "Category:Swiss Federal Archives",
      "wikipedia": "de:Schweizerisches Bundesarchiv"
    },
    "distance_to_station": 326.5227712431444
  },
  {
    "feature_type": "offices",
    "lat": 46.9406392,
    "lon": 7.4571458,
    "tags": {
      "addr:city": "Bern",
      "addr:housenumber": "50",
      "addr:postcode": "3005",
      "addr:street": "Thunstrasse",
      "alt_name": "Britische Botschaft",
      "building": "embassy",
      "contact:addr:full": "Thunstrasse 50, 3005 Bern",
      "contact:email": "info.berne@fcdo.gov.uk",
      "contact:facebook": "https://www.facebook.com/britishembassyberne/",
      "contact:fax": "+41 31 359 77 01",
      "contact:twitter": "https://twitter.com/UKEmbassyBerne",
      "contact:website": "https://www.gov.uk/world/organisations/british-embassy-berne",
      "country": "GB",
      "diplomatic": "embassy",
      "embassy": "yes",
      "emergency:phone": "+41 31 359 77 00",
      "name": "Botschaft Grossbritannien",
      "name:en": "British Embassy",
      "name:es": "Embajada Reino Unido",
      "name:fr": "Ambassade du Royaume-Uni",
      "name:it": "Ambasciata Regno Unito",
      "name:tr": "Birle\u015fik Krall\u0131k B\u00fcy\u00fckel\u00e7ili\u011fi",
      "office": "diplomatic",
      "opening_hours": "open \"By appointment only\";PH off",
      "source": "survey and https://www.eda.admin.ch/eda/en/fdfa/representations-and-travel-advice/great-britain/great-britain-representation-in-ch.html",
      "target": "CH;LI",
      "wikidata": "Q26980133"
    },
    "distance_to_station": 493.40659570270583
  },
  {
    "feature_type": "offices",
    "lat": 46.9373501,
    "lon": 7.4467906,
    "tags": {
      "addr:city": "Bern",
      "addr:country": "CH",
      "addr:housenumber": "2",
      "addr:postcode": "3005",
      "addr:street": "Einsteinstrasse",
      "building": "public",
      "building:levels": "4",
      "contact:email": "info@sbfi.admin.ch",
      "name": "Staatssekretariat f\u00fcr Bildung, Forschung und Innovation",
      "name:de": "Staatssekretariat f\u00fcr Bildung, Forschung und Innovation",
      "name:en": "State Secretariat for Education, Research and Innovation",
      "name:fr": "Secr\u00e9tariat d\u2019Etat \u00e0 la formation, \u00e0 la recherche et \u00e0 l\u2019innovation",
      "name:it": "Segreteria di Stato per la formazione, la ricerca e l\u2019innovazione",
      "note": "Moved to this location by November 6, 2014",
      "office": "government",
      "short_name": "SFBI",
      "short_name:de": "SFBI",
      "short_name:en": "SERI",
      "short_name:fr": "SEFRI",
      "short_name:it": "SEFRI",
      "website": "https://www.sbfi.admin.ch/",
      "wikidata": "Q2325266",
      "wikipedia": "de:Staatssekretariat f\u00fcr Bildung, Forschung und Innovation"
    },
    "distance_to_station": 526.5433050156666
  },
  {
    "feature_type": "offices",
    "lat": 46.9399799,
    "lon": 7.4508071,
    "tags": {
      "addr:city": "Bern",
      "addr:housenumber": "30",
      "addr:postcode": "3005",
      "addr:street": "Kirchenfeldstrasse",
      "alt_name": "Nordmazedonische Botschaft",
      "building": "residential",
      "contact:addr:full": "Kirchenfeldstrasse 30, 3005 Bern",
      "contact:email": "bern@mfa.gov.mk",
      "contact:fax": "+41 31 3520037",
      "contact:phone": "+41 31 3520002",
      "country": "MK",
      "diplomatic": "embassy",
      "embassy": "yes",
      "name": "Botschaft Nordmazedonien",
      "name:de": "Botschaft Nordmazedonien",
      "name:en": "Embassy North Macedonia",
      "name:fr": "Ambassade de la Mac\u00e9doine du Nord",
      "office": "diplomatic",
      "opening_hours": "Mo-Fr 08:00-16:00; Sa-Su off; PH off",
      "source": "survey and https://www.eda.admin.ch/eda/en/home/representations-and-travel-advice/nordmazedonien/nordmazedonien-vertretung-in-der-ch.html",
      "target": "CH"
    },
    "distance_to_station": 142.17643410857005
  },
  {
    "feature_type": "offices",
    "lat": 46.940506,
    "lon": 7.4549064,
    "tags": {
      "alt_name": "Tunesische Botschaft",
      "building": "office",
      "contact:addr:full": "Kirchenfeldstrasse 63, 3005 Bern",
      "contact:email": "at.berne@diplomatie.gov.tn",
      "contact:fax": "+41 31 3510445",
      "contact:phone": "+41 31 3528226",
      "country": "TN",
      "diplomatic": "embassy",
      "embassy": "yes",
      "name": "Botschaft Tunesien",
      "name:de": "Botschaft Tunesien",
      "name:en": "Tunisian Embassy",
      "name:fr": "Ambassade de Tunisie",
      "office": "diplomatic",
      "opening_hours": "Mo-Fr 09:00-13:00; Sa-Su off; PH off",
      "source": "survey and https://www.eda.admin.ch/eda/de/home/vertretungen-und-reisehinweise/tunesien/tunesien-vertretunginderschweiz.html",
      "target": "CH",
      "wikidata": "Q26979972"
    },
    "distance_to_station": 329.34930362227743
  },
  {
    "feature_type": "offices",
    "lat": 46.9441932,
    "lon": 7.4476655,
    "tags": {
      "addr:city": "Bern",
      "addr:country": "CH",
      "addr:housenumber": "1",
      "addr:postcode": "3005",
      "addr:street": "Feldeggweg",
      "alt_name": "Eidgen\u00f6ssischer Datenschutz- und \u00d6ffentlichkeitsbeauftragter",
      "building": "office",
      "contact:email": "info@edoeb.admin.ch",
      "contact:fax": "+41 31 3259996",
      "contact:phone": "+41 31 3224395",
      "contact:website": "https://www.edoeb.admin.ch/org/00926/00927/index.html",
      "name": "Eidg. Datenschutz- und \u00d6ffentlichkeitsbeauftragter",
      "name:de": "Eidgen\u00f6ssischer Datenschutz- und \u00d6ffentlichkeitsbeauftragter",
      "name:en": "Federal Data Protection and Information Commissioner",
      "name:fr": "Pr\u00e9pos\u00e9 f\u00e9d\u00e9ral \u00e0 la protection des donn\u00e9es",
      "name:it": "Incaricato federale della protezione dei dati e della trasparenza",
      "office": "government",
      "opening_hours": "Mo-Fr 10:00-12:00",
      "short_name": "ED\u00d6B",
      "source": "Orthofotos Bern",
      "website": "https://www.edoeb.admin.ch/",
      "wikidata": "Q1241631",
      "wikipedia": "de:Eidgen\u00f6ssischer Datenschutz- und \u00d6ffentlichkeitsbeauftragter"
    },
    "distance_to_station": 400.03306776398983
  }
]