[
  {
    "feature_type": "supermarkets",
    "lat": 46.9483633,
    "lon": 7.4449955,
    "tags": {
      "alt_name": "Migros Marktgasse (MMM)",
      "branch": "Bern Marktgasse",
      "brand": "Migros",
      "brand:wikidata": "Q680727",
      "brand:wikipedia": "de:Migros",
      "cash_withdrawal": "migros_bank;postfinance_card",
      "cash_withdrawal:fee": "no",
      "cash_withdrawal:purchase_required": "no",
      "cash_withdrawal:type": "checkout",
      "check_date": "2024-05-29",
      "contact:addr:full": "Marktgasse 46, 3011 Bern",
      "contact:phone": "+41 58 5676300",
      "internet_access": "wlan",
      "internet_access:fee": "no",
      "internet_access:ssid": "MIGROS WiFi",
      "level": "-1;0",
      "name": "Migros",
      "opening_hours": "Mo 09:00-19:00; Tu-We 08:00-19:00; Th 08:00-21:00; Fr 08:00-20:00; Sa 07:30-17:00; PH off",
      "operator": "Genossenschaft Migros Aare",
      "shop": "supermarket",
      "website": "https://filialen.migros.ch/de/migros-supermarkt-bern-marktgasse",
      "wheelchair": "yes"
    },
    "distance_to_station": 336.74847462939704
  },
  {
    "feature_type": "supermarkets",
    "lat": 46.9481457,
    "lon": 7.4459907,
    "tags": {
      "branch": "Bern Marktgasse",
      "brand": "Coop",
      "brand:wikidata": "Q432564",
      "check_date:opening_hours": "2024-09-04",
      "name": "Coop",
      "opening_hours": "Mo-We 07:00-19:00; Fr 07:00-20:00; Sa 07:00-18:00; Su,PH off; Th 07:00-20:00",
      "phone": "+41 31 307 49 65",
      "shop": "supermarket",
      "website": "https://www.coop.ch/de/standorte/coop-supermarkt-bern-marktgasse/5744_POS"
    },
    "distance_to_station": 269.15686391053146
  },
  {
    "feature_type": "supermarkets",
    "lat": 46.9484692,
    "lon": 7.445074,
    "tags": {
      "addr:floor": "1",
      "brand": "Denner",
      "brand:wikidata": "Q379911",
      "brand:wikipedia": "en:Denner (supermarket)",
      "cash_withdrawal": "migros_bank;postfinance_card",
      "cash_withdrawal:fee": "no",
      "cash_withdrawal:purchase_required": "no",
      "cash_withdrawal:type": "checkout",
      "contact:addr": "Marktgasse 44, 3011 Bern",
      "contact:phone": "+41 31 3181131",
      "level": "1",
      "name": "Denner",
      "opening_hours": "Mo 09:00-19:00; Tu-We 08:00-19:00; Th 08:00-21:00; Fr 08:00-20:00; Sa 07:30-17:00; Su off; PH off",
      "shop": "supermarket",
      "website": "https://www.denner.ch/"
    },
    "distance_to_station": 341.21870676617544
  },
  {
    "feature_type": "supermarkets",
    "lat": 46.9483336,
    "lon": 7.4432918,
    "tags": {
      "addr:floor": "-1",
      "branch": "Bern Spitalgasse",
      "brand": "Coop",
      "brand:wikidata": "Q432564",
      "contact:addr": "Spitalgasse 2, 3011 Bern",
      "contact:fax": "+41 31 3100121",
      "contact:phone": "+41 31 3100120",
      "level": "-1",
      "name": "Coop",
      "opening_hours": "Mo-We 07:00-19:00; Th 07:00-21:00; Fr 07:00-19:00; Sa 07:00-17:00; Su off",
      "shop": "supermarket",
      "website": "https://www.coop.ch/",
      "wheelchair": "yes"
    },
    "distance_to_station": 435.31823023512345
  },
  {
    "feature_type": "supermarkets",
    "lat": 46.9475464,
    "lon": 7.4433871,
    "tags": {
      "alt_name": "Alnatura Bern B\u00e4renplatz",
      "branch": "Bern B\u00e4renplatz",
      "brand": "Alnatura",
      "brand:wikidata": "Q876811",
      "contact:addr": "B\u00e4renplatz 8, 3011 Bern",
      "contact:fax": "+41 58 5635091",
      "contact:phone": "+41 58 5635090",
      "levels": "1",
      "name": "Alnatura",
      "opening_hours": "Mo 09:00-19:00; Tu-We 08:00-19:00; Th 08:00-21:00; Fr 08:00-20:00; Sa 08:00-17:00; Su off",
      "operator": "Genossenschaft Migros Aare",
      "organic": "only",
      "shop": "supermarket",
      "website": "https://www.alnatura.ch/"
    },
    "distance_to_station": 387.8194219633633
  },
  {
    "feature_type": "supermarkets",
    "lat": 46.9476038,
    "lon": 7.4433729,
    "tags": {
      "brand": "Denner",
      "brand:wikidata": "Q379911",
      "cash_withdrawal": "migros_bank;postfinance_card",
      "cash_withdrawal:fee": "no",
      "cash_withdrawal:purchase_required": "no",
      "cash_withdrawal:type": "checkout",
      "contact:addr": "B\u00e4renplatz 8, 3011 Bern",
      "contact:phone": "+41 31 3033790",
      "levels": "1",
      "name": "Denner Express",
      "opening_hours": "Mo 08:00-19:00; Tu-We 08:00-19:00; Th 08:00-21:00; Fr 08:00-20:00; Sa 08:00-17:00; Su off",
      "operator": "Denner AG",
      "shop": "supermarket",
      "website": "https://www.denner.ch"
    },
    "distance_to_station": 391.3157877401956
  },
  {
    "feature_type": "supermarkets",
    "lat": 46.9481074,
    "lon": 7.4497207,
    "tags": {
      "alt_name": "VOI Kramgasse",
      "branch": "Bern Kramgasse",
      "brand": "VOI",
      "brand:wikidata": "Q110277616",
      "check_date": "2025-07-17",
      "contact:addr": "Kramgasse 54, 3011 Bern",
      "contact:phone": "+41 58 5674940",
      "name": "VOI",
      "opening_hours": "Mo-Fr 08:00-20:00; Sa 08:00-17:00; Su off; PH off",
      "operator": "Fatime und Fatmire Kamili",
      "shop": "supermarket",
      "website": "https://www.voi-migrospartner.ch/de-CH/filialen#voi-voi-bern-kramgasse"
    },
    "distance_to_station": 245.19205917361046
  },
  {
    "feature_type": "supermarkets",
    "lat": 46.9483679,
    "lon": 7.4477304,
    "tags": {
      "brand": "ALDI",
      "brand:wikidata": "Q41171672",
      "check_date": "2025-02-05",
      "name": "ALDI",
      "opening_hours": "Mo-Fr 08:00-20:00; Sa 07:30-18:00; Su,PH off",
      "phone": "+41 31 372 96 37",
      "shop": "supermarket",
      "website": "https://www.aldi-suisse.ch/",
      "wheelchair": "yes"
    },
    "distance_to_station": 242.68667500488758
  }
]