[
  {
    "feature_type": "schools",
    "lat": 46.9567601,
    "lon": 7.4454367,
    "tags": {
      "addr:city": "Bern",
      "addr:country": "CH",
      "addr:housenumber": "12",
      "addr:postcode": "3013",
      "addr:street": "Lagerweg",
      "alt_name": "autonome schule denk-mal",
      "amenity": "school",
      "contact:email": "denk-mal@denk-mal.info",
      "name": "denk:mal",
      "source": "survey and website",
      "website": "https://www.denk-mal.info/"
    },
    "distance_to_station": 584.690231443776
  },
  {
    "feature_type": "schools",
    "lat": 46.9482831,
    "lon": 7.4503483,
    "tags": {
      "alt_name": "Musikschule Konservatorium Bern",
      "amenity": "school",
      "check_date": "2024-05-15",
      "contact:addr": "Kramgasse 36, 3011 Bern",
      "contact:email": "office@konsibern.ch",
      "contact:facebook": "https://www.facebook.com/Konsi-Bern-178316062229493",
      "contact:fax": "+41 31 3122053",
      "contact:instagram": "https://www.instagram.com/konsibern",
      "contact:phone": "+41 31 3265353",
      "contact:website": "https://www.konsibern.ch/de/kontakt",
      "name": "Musikschule Konservatorium",
      "name:ja": "\u30b3\u30f3\u30b5\u30eb\u30d0\u30c8\u30ea\u30a6\u30e0\u97f3\u697d\u5b66\u6821",
      "short_name": "konsibern",
      "source": "Survey and website",
      "website": "https://www.konsibern.ch",
      "wikidata": "Q1955243"
    },
    "distance_to_station": 862.6621182277333
  },
  {
    "feature_type": "schools",
    "lat": 46.9489071,
    "lon": 7.4532101,
    "tags": {
      "alt_name": "Berufsfachschule des Detailhandels bsd",
      "amenity": "school",
      "contact:addr": "Postgasse 66, 3011 Bern",
      "contact:email": "info@bsd-bern.ch",
      "contact:fax": "+41 31 3276122",
      "contact:phone": "+41 31 3276111",
      "contact:website": "http://www.bsd-bern.ch/de/unsere-schule/kontakt/",
      "name": "Berufsfachschule Detailhandel",
      "opening_hours": "Mo-Fr 07:30-12:15, 13:30-17:00; Sa-Su off",
      "short_name": "bsd",
      "source": "website",
      "website": "https://www.bsd-bern.ch/"
    },
    "distance_to_station": 769.5787565538496
  },
  {
    "feature_type": "schools",
    "lat": 46.9493949,
    "lon": 7.4455561,
    "tags": {
      "amenity": "school",
      "check_date": "2025-08-05",
      "contact:addr": "Waisenhausplatz 29, 3011 Bern",
      "contact:email": "info@nms.phbern.ch",
      "contact:phone": "+41 31 385 85 15",
      "name": "IVP NMS Bern",
      "operator": "NMS Bern",
      "website": "https://www.nmsbern.ch/ivp/",
      "wikidata": "Q1961196"
    },
    "distance_to_station": 912.2907805396582
  },
  {
    "feature_type": "schools",
    "lat": 46.9593356,
    "lon": 7.453641,
    "tags": {
      "amenity": "school",
      "contact:addr": "Stockerenweg 8, 3014 Bern",
      "isced:field": "7",
      "isced:subcategory": "2",
      "level": "-1",
      "name": "Berner Sozialjahr JUVESO",
      "operator": "Sozialjahr JUVESO GmbH",
      "operator:type": "private",
      "short_name": "JUVESO Bern",
      "website": "https://www.sozialjahr.ch/schulen/bern"
    },
    "distance_to_station": 393.0026268361417
  },
  {
    "feature_type": "schools",
    "lat": 46.9560366,
    "lon": 7.4438668,
    "tags": {
      "amenity": "school",
      "building": "yes",
      "building:colour": "aqua",
      "building:levels": "4",
      "check_date": "2025-03-18",
      "name": "GIBB Campus IET",
      "roof:colour": "aqua",
      "roof:shape": "flat",
      "wheelchair": "yes"
    },
    "distance_to_station": 695.3256029351734
  },
  {
    "feature_type": "schools",
    "lat": 46.9547028,
    "lon": 7.4448101,
    "tags": {
      "alt_name": "gibb Gewerblich-Industrielle Berufsschule Bern Hauptgeb\u00e4ude",
      "amenity": "school",
      "building": "yes",
      "contact:addr": "Lorrainestrasse 1, 3013 Bern",
      "contact:fax": "+41 31 3359102",
      "contact:phone": "+41 31 3359145",
      "heritage": "2",
      "heritage:operator": "babs",
      "historic": "yes",
      "image": "https://upload.wikimedia.org/wikipedia/commons/thumb/1/16/Gewerbeschule_S\u00fcd-Ost.jpg/800px-Gewerbeschule_S\u00fcd-Ost.jpg",
      "name": "Gewerbeschule",
      "operator": "Stadt Bern",
      "ref:kgs": "623",
      "start_date": "1939",
      "website": "https://www.gibb.ch",
      "wheelchair": "yes",
      "wikidata": "Q1520485",
      "wikimedia_commons": "Category:Gewerbeschule Bern",
      "wikipedia": "de:Gewerblich Industrielle Berufsschule Bern"
    },
    "distance_to_station": 635.5774773859627
  },
  {
    "feature_type": "schools",
    "lat": 46.9545593,
    "lon": 7.444585,
    "tags": {
      "amenity": "school",
      "building": "yes",
      "name": "Technische Fachschule Bern Shedhalle"
    },
    "distance_to_station": 655.6323885753977
  },
  {
    "feature_type": "schools",
    "lat": 46.9551654,
    "lon": 7.4437692,
    "tags": {
      "amenity": "school",
      "building": "yes",
      "check_date": "2025-03-19",
      "name": "Technische Fachschule Bern",
      "wikidata": "Q33121148"
    },
    "distance_to_station": 706.2272162673104
  },
  {
    "feature_type": "schools",
    "lat": 46.9558795,
    "lon": 7.4446386,
    "tags": {
      "addr:city": "Bern",
      "addr:country": "CH",
      "addr:housenumber": "5",
      "addr:postcode": "3013",
      "addr:street": "Lorrainestrasse",
      "alt_name": "gibb - Gewerblich-Industrielle Berufsschule Bern Campus BMS",
      "amenity": "school",
      "building": "yes",
      "building:colour": "aqua",
      "building:levels": "2",
      "building:part": "yes",
      "check_date": "2025-08-13",
      "name": "gibb - Campus BMS - Aula",
      "roof:colour": "aqua",
      "roof:shape": "flat"
    },
    "distance_to_station": 636.2174825969256
  },
  {
    "feature_type": "schools",
    "lat": 46.9539178,
    "lon": 7.4517339,
    "tags": {
      "amenity": "school",
      "building": "school",
      "name": "gibb - Geb\u00e4ude Viktoria",
      "source": "Orthofotos Bern",
      "website": "https://www.gibb.ch/"
    },
    "distance_to_station": 233.10324295684123
  },
  {
    "feature_type": "schools",
    "lat": 46.9552021,
    "lon": 7.4533735,
    "tags": {
      "amenity": "school",
      "building": "school",
      "name": "Schulhaus Spitalacker",
      "source": "Orthofotos Bern"
    },
    "distance_to_station": 75.27692056057774
  },
  {
    "feature_type": "schools",
    "lat": 46.9624679,
    "lon": 7.4531541,
    "tags": {
      "addr:city": "Bern",
      "addr:country": "CH",
      "addr:housenumber": "61",
      "addr:postcode": "3014",
      "addr:street": "Standstrasse",
      "amenity": "school",
      "contact:fax": "+41 31 321 25 11",
      "contact:phone": "+41 31 321 25 10",
      "name": "Schule Breitfeld",
      "website": "https://breitenrain-lorraine.ch/schulkreis-breitenrain-lorraine/standort-breitfeld-wankdorf/schulhaus-breitfeld/"
    },
    "distance_to_station": 738.2443251326616
  },
  {
    "feature_type": "schools",
    "lat": 46.961662,
    "lon": 7.4494688,
    "tags": {
      "amenity": "school",
      "name": "Basisstufe Otter"
    },
    "distance_to_station": 701.9406078043124
  },
  {
    "feature_type": "schools",
    "lat": 46.9588898,
    "lon": 7.4441473,
    "tags": {
      "amenity": "school",
      "check_date": "2024-07-06",
      "name": "Volksschule Lorraine"
    },
    "distance_to_station": 754.6838851820686
  },
  {
    "feature_type": "schools",
    "lat": 46.9505826,
    "lon": 7.4461625,
    "tags": {
      "addr:city": "Bern",
      "addr:country": "CH",
      "addr:postcode": "3011",
      "addr:street": "Langmauerweg",
      "amenity": "school",
      "name": "NMS Bern - Schulanlage Aarhof",
      "toilets:wheelchair": "yes",
      "wheelchair": "yes"
    },
    "distance_to_station": 781.4624817922457
  },
  {
    "feature_type": "schools",
    "lat": 46.9512185,
    "lon": 7.4620415,
    "tags": {
      "addr:city": "Bern",
      "addr:country": "CH",
      "addr:housenumber": "23",
      "addr:postcode": "3006",
      "addr:street": "Laubeggstrasse",
      "alt_name": "Schulhaus Laubeggstrasse 23",
      "amenity": "school",
      "contact:email": "laubegg.schulleitung@kirchenfeld-schosshalde.ch",
      "contact:phone": "+41 31 3517246",
      "name": "Schule Laubeggstrasse 23",
      "website": "https://kirchenfeld-schosshalde.ch/index.php?page=504"
    },
    "distance_to_station": 858.293408430749
  },
  {
    "feature_type": "schools",
    "lat": 46.9536418,
    "lon": 7.4461636,
    "tags": {
      "amenity": "school",
      "contact:addr": "Sch\u00e4nzlihalde 31, 3013 Bern",
      "contact:email": "office.bern@sfgb-b.ch",
      "contact:fax": "+41 31 3370338",
      "contact:phone": "+41 31 3370337",
      "name": "Schule f\u00fcr Gestaltung Bern und Biel",
      "source": "survey and website",
      "website": "https://www.sfgb-b.ch/"
    },
    "distance_to_station": 574.1083356617338
  },
  {
    "feature_type": "schools",
    "lat": 46.9544406,
    "lon": 7.4432246,
    "tags": {
      "addr:city": "Bern",
      "addr:country": "CH",
      "addr:housenumber": "3e",
      "addr:postcode": "3013",
      "addr:street": "Lorrainestrasse",
      "alt_name": "gibb Gewerblich-Industrielle Berufsschule Bern Lehrhalle",
      "amenity": "school",
      "building": "yes",
      "contact:fax": "+41 31 3359484",
      "contact:phone": "+41 31 3359494",
      "grades": "Berufsmaturit\u00e4tsschule (BMS)",
      "name": "Lehrhalle",
      "website": "https://www.gibb.ch/"
    },
    "distance_to_station": 759.6583790386679
  },
  {
    "feature_type": "schools",
    "lat": 46.9624116,
    "lon": 7.4568074,
    "tags": {
      "alt_name": "Schulhaus Markus",
      "amenity": "school",
      "contact:addr": "Weingartstrasse, 18, 3014 Bern",
      "contact:phone": "+41 31 3212500",
      "operator": "Stadt Bern",
      "operator:type": "public",
      "website": "https://breitenrain-lorraine.ch/schulkreis-breitenrain-lorraine/standort-breitfeld-wankdorf/schulhaus-markus/"
    },
    "distance_to_station": 787.2715234966392
  },
  {
    "feature_type": "schools",
    "lat": 46.9624465,
    "lon": 7.4564761,
    "tags": {
      "alt_name": "Markusschulhaus",
      "amenity": "school",
      "building": "public",
      "contact:addr": "Weingartstrasse 18, 3014 Bern",
      "contact:phone": "+41 31 3212500",
      "name": "Schulhaus Markus",
      "operator": "Stadt Bern",
      "operator:type": "public",
      "source": "Orthofotos Bern",
      "website": "https://breitenrain-lorraine.ch/schulkreis-breitenrain-lorraine/standort-breitfeld-wankdorf/schulhaus-markus/"
    },
    "distance_to_station": 781.9832296339537
  },
  {
    "feature_type": "schools",
    "lat": 46.9560156,
    "lon": 7.4444902,
    "tags": {
      "addr:city": "Bern",
      "addr:country": "CH",
      "addr:housenumber": "5",
      "addr:postcode": "3013",
      "addr:street": "Lorrainestrasse",
      "alt_name": "gibb - Gewerblich-Industrielle Berufsschule Bern Campus BMS",
      "amenity": "school",
      "building": "yes",
      "building:colour": "aqua",
      "building:levels": "4",
      "check_date": "2025-03-18",
      "name": "gibb - Campus BMS",
      "roof:colour": "aqua",
      "roof:shape": "flat",
      "website": "https://www.gibb.ch/",
      "wheelchair": "yes"
    },
    "distance_to_station": 647.8224357338884
  },
  {
    "feature_type": "schools",
    "lat": 46.9497619,
    "lon": 7.4450193,
    "tags": {
      "amenity": "school",
      "name": "NMS"
    },
    "distance_to_station": 907.4895076145027
  },
  {
    "feature_type": "schools",
    "lat": 46.9549301,
    "lon": 7.453536,
    "tags": {
      "addr:city": "Bern",
      "addr:country": "CH",
      "addr:postcode": "3013",
      "alt_name": "Schule Spitalacker",
      "amenity": "school",
      "name": "Schulstandort Spitalacker",
      "website": "https://www.breitenrain-lorraine.ch/spitalacker"
    },
    "distance_to_station": 107.94721554921432
  },
  {
    "feature_type": "schools",
    "lat": 46.9488562,
    "lon": 7.4482442,
    "tags": {
      "amenity": "school",
      "building": "yes",
      "name": "Volkshochschule Bern",
      "type": "multipolygon",
      "website": "https://www.vhsbe.ch/",
      "wheelchair": "limited"
    },
    "distance_to_station": 855.3352679907816
  },
  {
    "feature_type": "schools",
    "lat": 46.956962,
    "lon": 7.4476676,
    "tags": {
      "amenity": "school",
      "name": "Schule Breitenrain",
      "type": "multipolygon"
    },
    "distance_to_station": 424.7601734861534
  },
  {
    "feature_type": "schools",
    "lat": 46.9463661,
    "lon": 7.4391616,
    "tags": {
      "amenity": "school",
      "name": "Schule f\u00fcr Gestaltung Bern und Biel",
      "type": "site"
    },
    "distance_to_station": 1488.514003370927
  }
]