[
  {
    "feature_type": "clinics",
    "lat": 46.9445614,
    "lon": 7.4348287,
    "tags": {
      "amenity": "clinic",
      "contact:addr": "Gutenbergstrasse 18, 3011 Bern",
      "contact:email": "info@augenzentrum-gutenberg.ch",
      "contact:fax": "+41 31 3117322",
      "contact:phone": "+41 31 3116022",
      "contact:website": "https://www.augenzentrum-gutenberg.ch/index.php/kontakt2",
      "healthcare": "clinic",
      "healthcare:speciality": "ophthalmology",
      "name": "Augen Zentrum Gutenberg",
      "operator": "Augen Zentrum Gutenberg AG",
      "source": "survey and website",
      "website": "https://www.augenzentrum-gutenberg.ch"
    },
    "distance_to_station": 436.8980853131311
  },
  {
    "feature_type": "clinics",
    "lat": 46.9444648,
    "lon": 7.4347504,
    "tags": {
      "amenity": "clinic",
      "contact:addr": "Gutenbergstrasse 18, 3011 Bern",
      "contact:email": "info@augenzentrum-fankhauser.ch",
      "contact:fax": "+41 31 3019881",
      "contact:phone": "+41 31 3019880",
      "contact:website": "https://www.augenzentrum-fankhauser.ch/index.php/kontakt2",
      "healthcare": "clinic",
      "healthcare:speciality": "ophthalmology",
      "name": "Augen Zentrum Prof. Fankhauser",
      "operator": "Augen Zentrum Fankhauser AG",
      "source": "survey and website",
      "website": "https://www.augenzentrum-fankhauser.ch"
    },
    "distance_to_station": 431.2200465172207
  },
  {
    "feature_type": "clinics",
    "lat": 46.9481466,
    "lon": 7.4264733,
    "tags": {
      "amenity": "clinic",
      "building": "hospital",
      "contact:email": "augenheilkunde@insel.ch",
      "contact:fax": "+41 31 382 47 79",
      "contact:phone": "+41 31 632 25 01",
      "healthcare": "clinic",
      "internet_access": "wlan",
      "internet_access:fee": "no",
      "name": "Augenklinik Inselspital",
      "website": "https://www.augenheilkunde.insel.ch/de/",
      "wheelchair": "yes"
    },
    "distance_to_station": 440.1411773303462
  },
  {
    "feature_type": "clinics",
    "lat": 46.9472436,
    "lon": 7.4269277,
    "tags": {
      "amenity": "clinic",
      "building": "hospital",
      "building:levels": "5",
      "contact:addr:full": "Freiburgstrasse 7, 3010 Bern",
      "contact:email": "zentrale.dienste@zmk.unibe.ch",
      "contact:fax": "+41 31 6324906",
      "contact:phone": "+41 31 6322572",
      "healthcare": "clinic",
      "healthcare:speciality": "dental_oral_maxillo_facial_surgery",
      "name": "Zahnmedizinische Kliniken Universit\u00e4t Bern",
      "opening_hours": "Mo-Fr 07:45-08:45; Sa-Su off",
      "roof:shape": "flat",
      "short_name": "zmk",
      "website": "https://www.zmk.unibe.ch"
    },
    "distance_to_station": 335.2290046335677
  },
  {
    "feature_type": "clinics",
    "lat": 46.9466849,
    "lon": 7.4231505,
    "tags": {
      "amenity": "clinic",
      "building": "hospital",
      "healthcare": "clinic",
      "healthcare:speciality": "dermatology",
      "name": "Dermatologische Universit\u00e4tsklinik",
      "operator": "Insel Gruppe AG",
      "wheelchair": "yes"
    },
    "distance_to_station": 505.4536551758631
  }
]