[
  {
    "feature_type": "supermarkets",
    "lat": 46.9561025,
    "lon": 7.4467039,
    "tags": {
      "addr:city": "Bern",
      "addr:country": "CH",
      "addr:housenumber": "9",
      "addr:postcode": "3013",
      "addr:street": "Dammweg",
      "alt_name": "Migros Lorraine",
      "branch": "Bern Lorraine",
      "brand": "Migros",
      "brand:wikidata": "Q680727",
      "brand:wikipedia": "de:Migros",
      "cash_withdrawal": "migros_bank;postfinance_card",
      "cash_withdrawal:fee": "no",
      "cash_withdrawal:purchase_required": "no",
      "cash_withdrawal:type": "checkout",
      "internet_access": "yes",
      "internet_access:fee": "no",
      "name": "Migros",
      "opening_hours": "Mo-Fr 08:00-20:00, Sa 08:00-17:00; PH off",
      "operator": "Genossenschaft Migros Aare",
      "shop": "supermarket",
      "website": "https://filialen.migros.ch/de/migros-supermarkt-bern-lorraine",
      "wheelchair": "yes"
    },
    "distance_to_station": 578.724343230541
  },
  {
    "feature_type": "supermarkets",
    "lat": 46.959181,
    "lon": 7.4550434,
    "tags": {
      "addr:city": "Bern",
      "addr:housenumber": "2",
      "addr:postcode": "3014",
      "addr:street": "Stauffacherstrasse",
      "brand": "Coop",
      "brand:wikidata": "Q432564",
      "brand:wikipedia": "de:Coop (Schweiz)",
      "check_date:opening_hours": "2025-03-29",
      "level": "0",
      "name": "Coop",
      "opening_hours": "Mo-Fr 07:30-20:00, Sa 07:30-17:00",
      "operator": "Coop",
      "shop": "supermarket",
      "wheelchair": "yes"
    },
    "distance_to_station": 679.9288054220949
  },
  {
    "feature_type": "supermarkets",
    "lat": 46.9613051,
    "lon": 7.4529884,
    "tags": {
      "brand": "Denner",
      "brand:wikidata": "Q379911",
      "cash_withdrawal": "migros_bank;postfinance_card",
      "cash_withdrawal:fee": "no",
      "cash_withdrawal:purchase_required": "no",
      "cash_withdrawal:type": "checkout",
      "contact:addr": "Scheibenstrasse 29, 3014 Bern",
      "contact:phone": "+41 58 9990323",
      "name": "Denner",
      "opening_hours": "Mo-Th 08:00-19:00; Fr 08:00-21:00; Sa 08:00-17:00; Su off",
      "shop": "supermarket",
      "source": "survey and website",
      "website": "https://www.denner.ch/",
      "wheelchair": "yes"
    },
    "distance_to_station": 481.05899325598074
  },
  {
    "feature_type": "supermarkets",
    "lat": 46.9575274,
    "lon": 7.4535985,
    "tags": {
      "contact:addr:full": "Moserstrasse 42, 3014 Bern",
      "contact:phone": "+41 31 3331391",
      "name": "Siam Food",
      "opening_hours": "Mo-Th 09:00-18:30; Fr 09:00-19:00; Sa 09:00-17:00",
      "operator": "Siam Food GmbH",
      "shop": "supermarket"
    },
    "distance_to_station": 674.4861603144768
  },
  {
    "feature_type": "supermarkets",
    "lat": 46.9611612,
    "lon": 7.4531347,
    "tags": {
      "brand": "Alnatura",
      "brand:wikidata": "Q876811",
      "cash_withdrawal": "postfinance_card",
      "cash_withdrawal:fee": "no",
      "cash_withdrawal:purchase_required": "no",
      "cash_withdrawal:type": "checkout",
      "contact:addr": "Scheibenstrasse 27, 3014 Bern",
      "name": "Alnatura Super Natur Markt",
      "opening_hours": "Mo-Th 08:00-19:00; Fr 08:00-20:00; Sa 08:00-17:00",
      "operator": "Migros",
      "organic": "only",
      "shop": "supermarket",
      "short_name": "Alnatura",
      "wheelchair": "yes"
    },
    "distance_to_station": 492.4657741071213
  },
  {
    "feature_type": "supermarkets",
    "lat": 46.9581546,
    "lon": 7.4537816,
    "tags": {
      "addr:city": "Bern",
      "addr:housenumber": "11",
      "addr:postcode": "3013",
      "addr:street": "Breitenrainstrasse",
      "alt_name": "Migros Breitenrain",
      "branch": "Bern Breitenrain",
      "brand": "Migros",
      "brand:wikidata": "Q680727",
      "brand:wikipedia": "de:Migros",
      "cash_withdrawal": "migros_bank;postfinance_card",
      "cash_withdrawal:fee": "no",
      "cash_withdrawal:purchase_required": "no",
      "cash_withdrawal:type": "checkout",
      "check_date:opening_hours": "2024-02-06",
      "contact:addr": "Breitenrainstrasse 11, 3013 Bern",
      "contact:phone": "+41 58 5676080",
      "level": "-1",
      "name": "Migros",
      "opening_hours": "Mo-Fr 07:30-20:00, Sa 07:30-17:00; PH off",
      "operator": "Genossenschaft Migros Aare",
      "shop": "supermarket",
      "toilets:wheelchair": "yes",
      "website": "https://filialen.migros.ch/de/migros-supermarkt-bern-breitenrain",
      "wheelchair": "yes"
    },
    "distance_to_station": 645.0380970941874
  },
  {
    "feature_type": "supermarkets",
    "lat": 46.9637339,
    "lon": 7.455829,
    "tags": {
      "addr:city": "Bern",
      "addr:housenumber": "56",
      "addr:postcode": "3014",
      "addr:street": "Winkelriedstrasse",
      "contact:addr": "Winkelriedstrasse 56, 3014 Bern",
      "name": "Lebensmittel Baumgartner",
      "opening_hours": "Mo-Fr 06:30-12:15,15:00-20:00; Sa 08:00-17:00; So 08:00-18:00",
      "phone": "0319217557",
      "shop": "supermarket",
      "website": "https://baumgartner-lebensmittel.ch"
    },
    "distance_to_station": 747.574842602113
  }
]