[
  {
    "feature_type": "bars",
    "lat": 46.9471888,
    "lon": 7.4393923,
    "tags": {
      "addr:city": "Bern",
      "addr:housenumber": "11",
      "addr:postcode": "3011",
      "addr:street": "Bubenbergplatz",
      "amenity": "bar",
      "check_date": "2024-10-31",
      "name": "L\u2018Ovestino",
      "old_name": "Cin\u00e9 Gotthard",
      "opening_hours": "Tu-Th 16:30-00:30; Fr-Sa 16:30-02:30",
      "website": "https://lovestino.ch",
      "wheelchair": "yes"
    },
    "distance_to_station": 439.0442160125245
  },
  {
    "feature_type": "bars",
    "lat": 46.9494296,
    "lon": 7.4426429,
    "tags": {
      "addr:city": "Bern",
      "addr:housenumber": "35",
      "addr:postcode": "3011",
      "addr:street": "Aarbergergasse",
      "amenity": "bar",
      "contact:facebook": "HotShotBern",
      "level": "1",
      "mobile": "+41 79 302 10 53",
      "name": "Hotshots"
    },
    "distance_to_station": 358.71050165422054
  },
  {
    "feature_type": "bars",
    "lat": 46.9475147,
    "lon": 7.4419182,
    "tags": {
      "amenity": "bar",
      "check_date": "2024-12-12",
      "name": "Supernova"
    },
    "distance_to_station": 471.56737942481647
  },
  {
    "feature_type": "bars",
    "lat": 46.9496731,
    "lon": 7.4429986,
    "tags": {
      "amenity": "bar",
      "contact:addr": "Sterneng\u00e4sschen 1, 3011 Bern",
      "contact:email": "kurt@kurtundkurt.ch",
      "contact:phone": "+41 31 382 77 77",
      "cuisine": "regional",
      "level": "0",
      "name": "Kurt & Kurt",
      "opening_hours": "Tu-Th 16:00-23:00; Fr-Sa 16:00-02:00",
      "operator": "SATT GastroTainment AG",
      "website": "https://www.kurtundkurt.ch/",
      "wheelchair": "yes"
    },
    "distance_to_station": 369.65892091948683
  },
  {
    "feature_type": "bars",
    "lat": 46.9494343,
    "lon": 7.4424554,
    "tags": {
      "alt_name": "Ebrietas Metal & Rock Bar Bern",
      "amenity": "bar",
      "contact:addr": "Aarbergergasse 46, 3011 Bern",
      "contact:facebook": "https://de-de.facebook.com/people/Ebrietas-Bern/100039573236494/",
      "contact:phone": "+41 31 311 23 43",
      "email": "bar@ebrietas.ch",
      "name": "Ebrietas",
      "opening_hours": "Mo-Th 16:00-00:30; Fr 16:00-03:30; Sa 17:00-03:30; Su 18:00-24:00",
      "opening_hours:url": "https://ebrietas.ch/kontakt",
      "operator": "Ebrietas GmbH",
      "website": "https://ebrietas.ch",
      "wheelchair": "limited"
    },
    "distance_to_station": 346.33334870819493
  },
  {
    "feature_type": "bars",
    "lat": 46.9500736,
    "lon": 7.4437492,
    "tags": {
      "alt_name": "Das Lehrerzimmer - PROGR, Zentrum f\u00fcr Kulturproduktion",
      "amenity": "bar",
      "check_date": "2023-08-25",
      "contact:addr": "Waisenhausplatz 30, 3011 Bern",
      "contact:email": "info@lehrerzimmer.be",
      "contact:phone": "+41 77 4262232",
      "name": "Lehrerzimmer",
      "opening_hours": "Mo 18:00-00:30; Tu-Fr 12:00-00:30; Sa 10:00-00:30; Su 10:00-21:00",
      "smoking": "outside",
      "source": "Survey and website",
      "website": "https://www.lehrerzimmer.be/",
      "wheelchair": "yes"
    },
    "distance_to_station": 407.1719053006109
  },
  {
    "feature_type": "bars",
    "lat": 46.9514573,
    "lon": 7.4425651,
    "tags": {
      "amenity": "bar",
      "check_date": "2024-08-13",
      "contact:addr": "Hodlerstrasse 16, 3011 Bern",
      "contact:email": "info@cafferoma.ch",
      "contact:facebook": "https://www.facebook.com/cafferomabern",
      "contact:phone": "+41 31 311 04 62",
      "contact:website": "https://www.cafferoma.ch/",
      "name": "Caff\u00e8 Roma",
      "opening_hours": "Tu-We 16:00-22:00; Th 16:00-23:00; Fr-Sa 16:00-00:30"
    },
    "distance_to_station": 303.57749325713775
  },
  {
    "feature_type": "bars",
    "lat": 46.9529726,
    "lon": 7.4361823,
    "tags": {
      "addr:city": "Bern",
      "addr:housenumber": "18a",
      "addr:postcode": "3012",
      "addr:street": "Gesellschaftsstrasse",
      "amenity": "bar",
      "check_date": "2025-05-01",
      "contact:addr": "Gesellschaftsstrasse 18a, 3012 Bern",
      "description": "Weinladen und Weinbar",
      "email": "cavatappi3012@gmail.com",
      "level": "0",
      "name": "Cavatappi",
      "opening_hours": "Tu-We,Fr 17:00-20:00; Th 17:00-22:00; Sa 14:00-17:00",
      "outdoor_seating": "yes",
      "payment:cash": "yes",
      "payment:postcard": "yes",
      "payment:twint": "yes",
      "phone": "+41786264993",
      "source": "survey and website",
      "website": "https://lisas-cavatappi.jimdofree.com/",
      "wheelchair": "limited"
    },
    "distance_to_station": 277.5483318674871
  },
  {
    "feature_type": "bars",
    "lat": 46.9499192,
    "lon": 7.4416425,
    "tags": {
      "amenity": "bar",
      "check_date": "2023-09-22",
      "contact:addr": "Aarbergergasse 60, 3011 Bern",
      "contact:email": "mail@aernibern.ch",
      "contact:facebook": "https://www.facebook.com/aernibern",
      "contact:phone": "+41 31 3116480",
      "name": "Aerni Bar",
      "opening_hours": "Mo-We,Fr 08:00-18:30; Th 08:00-20:00; Sa 08:00-16:00",
      "operator": "AERNI riedogroup AG",
      "source": "survey and website",
      "website": "https://aernibern.ch/bar-bern/bar.html",
      "wheelchair": "yes"
    },
    "distance_to_station": 265.6560000487845
  },
  {
    "feature_type": "bars",
    "lat": 46.9498827,
    "lon": 7.4434724,
    "tags": {
      "alt_name": "Burgunder Bar",
      "amenity": "bar",
      "check_date": "2023-02-02",
      "contact:addr": "Speichergasse 15, 3011 Bern",
      "contact:email": "info@burgunderbar.ch",
      "contact:phone": "+41 31 3111115",
      "name": "Burgunder",
      "old_name": "Restaurant Burgunder",
      "opening_hours": "Mo-We 16:30-23:00; Th 15:00-01:30; Fr 15:00-02:00; Sa 10:00-02:00; Su 11:00-22:00",
      "operator": "Burgunder Bar GmbH",
      "source": "survey and website",
      "website": "https://www.burgunderbar.ch/"
    },
    "distance_to_station": 393.8311130256062
  },
  {
    "feature_type": "bars",
    "lat": 46.9476472,
    "lon": 7.4417834,
    "tags": {
      "addr:city": "Bern",
      "addr:country": "CH",
      "addr:housenumber": "35",
      "addr:postcode": "3011",
      "addr:street": "Spitalgasse",
      "alt_name": "Delinat-Weinbar Bern",
      "amenity": "bar",
      "contact:phone": "+41 31 3110773",
      "name": "Delinat-Weinbar",
      "opening_hours": "Mo off; Tu-Fr 15:00-22:00; Sa 12:00-22:00; Su,PH off",
      "operator": "Delinat",
      "outdoor_seating": "no",
      "shop": "wine",
      "source": "Survey and website",
      "website": "https://www.delinat.com/weinbar-bern",
      "wheelchair": "no"
    },
    "distance_to_station": 453.6469759460908
  },
  {
    "feature_type": "bars",
    "lat": 46.9495964,
    "lon": 7.4411692,
    "tags": {
      "amenity": "bar",
      "check_date": "2023-09-22",
      "contact:addr": "Genfergasse 10, 3011 Bern",
      "contact:email": "info@zumkuckuck.ch",
      "contact:mobile": "+41 77 5289267",
      "name": "Zum Kuckuck",
      "opening_hours": "Mo 11:30-14:00; Tu-Th 11:30-14:00,17:00-24:30; Fr 11:30-02:00; Sa 17:00-02:00",
      "website": "https://www.zumkuckuck.ch"
    },
    "distance_to_station": 256.87447985250253
  },
  {
    "feature_type": "bars",
    "lat": 46.9494767,
    "lon": 7.4380742,
    "tags": {
      "addr:city": "Bern",
      "addr:housenumber": "14",
      "addr:postcode": "3012",
      "addr:street": "Parkterrasse",
      "amenity": "bar",
      "contact:discord": "https://discord.com/invite/RqFzzJezZd",
      "contact:email": "info@erupt.ch",
      "contact:website": "https://www.erupt.ch/",
      "internet_access": "yes",
      "level": "1",
      "name": "Erupt Gaming Lounge",
      "opening_hours": "Tu-Fr 17:00-23:00; Sa 14:00-23:30"
    },
    "distance_to_station": 184.86243926546658
  },
  {
    "feature_type": "bars",
    "lat": 46.9480569,
    "lon": 7.4378979,
    "tags": {
      "addr:housenumber": "9",
      "addr:street": "Bogensch\u00fctzenstrasse",
      "amenity": "bar",
      "name": "Kater Karlo",
      "website": "https://www.katerkarlo.ch/"
    },
    "distance_to_station": 342.5484120045729
  },
  {
    "feature_type": "bars",
    "lat": 46.9485835,
    "lon": 7.4398595,
    "tags": {
      "amenity": "bar",
      "brewery": "Simmentaler",
      "email": "bern@simmentalerbrewhouse.ch",
      "indoor": "yes",
      "indoor_seating": "yes",
      "level": "0",
      "microbrewery": "yes",
      "name": "Simmentaler Brewhouse",
      "opening_hours": "Mo-We 06:30-22:30; Th 06:30-00:30; Fr 06:30-00:30; Sa 08:00-00:30; Su 09:00-21:00",
      "operator": "Simmentaler Brewhouse AG",
      "outdoor_seating": "yes",
      "phone": "+41 33 511 11 39",
      "website": "https://www.simmentalerbrewhouse.ch/",
      "wheelchair": "yes"
    },
    "distance_to_station": 295.70323073518415
  }
]