[
  {
    "feature_type": "atms",
    "lat": 46.9471126,
    "lon": 7.4386856,
    "tags": {
      "amenity": "atm",
      "cash_in": "yes",
      "check_date": "2024-01-15",
      "contact:addr": "Bubenbergplatz 17, 3011 Bern",
      "contact:email": "bekb@bekb.ch",
      "covered": "yes",
      "currency:CHF": "yes",
      "currency:EUR": "yes",
      "drive_through": "no",
      "fee": "yes",
      "name": "Bancomat BEKB | BCBE Bern-Bubenbergplatz",
      "operator": "Berner Kantonalbank AG",
      "source": "survey and website",
      "website": "https://www.bekb.ch/de/pages/standorte?mode=list&region=3A38F603842D431B8D2EFBAB607EA987",
      "wheelchair": "yes"
    },
    "distance_to_station": 443.4262588031079
  },
  {
    "feature_type": "atms",
    "lat": 46.9471669,
    "lon": 7.4402855,
    "tags": {
      "addr:city": "Bern",
      "addr:country": "CH",
      "addr:postcode": "3011",
      "addr:street": "Bubenbergplatz",
      "amenity": "atm",
      "brand": "UBS",
      "brand:wikidata": "Q193199",
      "check_date": "2024-02-11",
      "name": "UBS",
      "opening_hours": "24/7",
      "operator": "UBS",
      "operator:wikidata": "Q193199",
      "wheelchair": "limited",
      "wheelchair:description": "ATM is very high built into the wall."
    },
    "distance_to_station": 455.6707982478973
  },
  {
    "feature_type": "atms",
    "lat": 46.9489692,
    "lon": 7.4401304,
    "tags": {
      "amenity": "atm",
      "check_date": "2022-12-03",
      "level": "-1",
      "operator": "PostFinance",
      "operator:wikidata": "Q449233",
      "wheelchair": "no"
    },
    "distance_to_station": 263.87938801596664
  },
  {
    "feature_type": "atms",
    "lat": 46.949299,
    "lon": 7.4402558,
    "tags": {
      "amenity": "atm",
      "cash_in": "yes",
      "check_date": "2021-03-07",
      "level": "1",
      "operator": "PostFinance"
    },
    "distance_to_station": 236.4347854892778
  },
  {
    "feature_type": "atms",
    "lat": 46.9493045,
    "lon": 7.4423364,
    "tags": {
      "amenity": "atm",
      "cash_in": "no",
      "check_date": "2024-11-14",
      "opening_hours": "24/7",
      "operator": "PostFinance"
    },
    "distance_to_station": 346.83805478506815
  },
  {
    "feature_type": "atms",
    "lat": 46.9474257,
    "lon": 7.4415544,
    "tags": {
      "alt_name": "Postomat",
      "amenity": "atm",
      "check_date": "2023-09-21",
      "name": "Postfinance",
      "operator": "PostFinance AG"
    },
    "distance_to_station": 466.0645804694603
  },
  {
    "feature_type": "atms",
    "lat": 46.9483053,
    "lon": 7.4410955,
    "tags": {
      "addr:full": "Bahnhofplatz 7, 3011 Bern",
      "amenity": "atm",
      "currency:CHF": "yes",
      "currency:EUR": "yes",
      "drive_through": "no",
      "fee": "yes",
      "name": "Bancomat Valiant Bahnhofplatz",
      "operator": "Valiant Bank AG",
      "wheelchair": "yes"
    },
    "distance_to_station": 363.9380758434889
  },
  {
    "feature_type": "atms",
    "lat": 46.9481603,
    "lon": 7.4374114,
    "tags": {
      "amenity": "atm",
      "cash_in": "no",
      "check_date": "2025-01-28",
      "currency:CHF": "yes",
      "currency:EUR": "yes",
      "indoor": "yes",
      "opening_hours": "Mo-Su 05:00-01:00",
      "operator": "PostFinance",
      "wheelchair": "no"
    },
    "distance_to_station": 339.1023276823603
  },
  {
    "feature_type": "atms",
    "lat": 46.9491416,
    "lon": 7.4389377,
    "tags": {
      "amenity": "atm",
      "cash_in": "yes",
      "check_date": "2024-06-01",
      "level": "2",
      "operator": "PostFinance",
      "wheelchair": "no"
    },
    "distance_to_station": 219.26761824915252
  },
  {
    "feature_type": "atms",
    "lat": 46.9494104,
    "lon": 7.4438434,
    "tags": {
      "amenity": "atm",
      "brand": "Raiffeisen",
      "brand:wikidata": "Q681189",
      "check_date": "2023-01-09",
      "opening_hours": "24/7",
      "operator": "Raiffeisen",
      "operator:wikidata": "Q681189"
    },
    "distance_to_station": 440.11658912711596
  },
  {
    "feature_type": "atms",
    "lat": 46.9479824,
    "lon": 7.4364235,
    "tags": {
      "amenity": "atm",
      "cash_in": "no",
      "check_date": "2025-07-17",
      "currency:CHF": "yes",
      "drive_through": "no",
      "indoor": "yes",
      "level": "2",
      "opening_hours": "Mo-Fr 06:00-22:30; Sa 06:00-22:00; Su,PH closed",
      "operator": "PostFinance",
      "wheelchair": "yes"
    },
    "distance_to_station": 384.0162203762488
  },
  {
    "feature_type": "atms",
    "lat": 46.9479774,
    "lon": 7.4363874,
    "tags": {
      "amenity": "atm",
      "brand": "Migros Bank",
      "brand:de": "Migros Bank",
      "brand:fr": "Banque Migros",
      "brand:it": "Banca Migros",
      "brand:wikidata": "Q1593349",
      "cash_in": "no",
      "check_date": "2025-07-17",
      "currency:CHF": "yes",
      "drive_through": "no",
      "indoor": "yes",
      "level": "2",
      "name:de": "Migros Bank",
      "name:fr": "Banque Migros",
      "name:it": "Banca Migros",
      "opening_hours": "Mo-Fr 06:00-22:30; Sa 06:00-22:00; Su,PH closed",
      "operator": "Migros Bank",
      "operator:wikidata": "Q1593349",
      "wheelchair": "yes"
    },
    "distance_to_station": 385.70347670103655
  },
  {
    "feature_type": "atms",
    "lat": 46.9481804,
    "lon": 7.4374028,
    "tags": {
      "amenity": "atm",
      "cash_in": "no",
      "currency:CHF": "yes",
      "currency:EUR": "yes",
      "indoor": "yes",
      "opening_hours": "Mo-Su 05:00-01:00",
      "operator": "PostFinance",
      "wheelchair": "yes"
    },
    "distance_to_station": 337.12376906612934
  },
  {
    "feature_type": "atms",
    "lat": 46.949149,
    "lon": 7.4398037,
    "tags": {
      "amenity": "atm",
      "indoor": "yes",
      "level": "-1",
      "operator": "Raiffeisen",
      "operator:wikidata": "Q681189"
    },
    "distance_to_station": 235.39656705157978
  },
  {
    "feature_type": "atms",
    "lat": 46.9491409,
    "lon": 7.4398064,
    "tags": {
      "amenity": "atm",
      "indoor": "yes",
      "level": "-1",
      "operator": "Raiffeisen",
      "operator:wikidata": "Q681189"
    },
    "distance_to_station": 236.3062372823852
  },
  {
    "feature_type": "atms",
    "lat": 46.9491249,
    "lon": 7.439812,
    "tags": {
      "amenity": "atm",
      "indoor": "yes",
      "level": "-1",
      "operator": "Raiffeisen",
      "operator:wikidata": "Q681189"
    },
    "distance_to_station": 238.11125414559137
  },
  {
    "feature_type": "atms",
    "lat": 46.9491168,
    "lon": 7.4398148,
    "tags": {
      "amenity": "atm",
      "indoor": "yes",
      "level": "0",
      "operator": "PostFinance",
      "operator:wikidata": "Q449233",
      "wheelchair": "yes"
    },
    "distance_to_station": 239.02415921688905
  },
  {
    "feature_type": "atms",
    "lat": 46.9491008,
    "lon": 7.4398203,
    "tags": {
      "amenity": "atm",
      "indoor": "yes",
      "level": "0",
      "operator": "UBS",
      "operator:wikidata": "Q193199",
      "wheelchair": "no"
    },
    "distance_to_station": 240.8268080978619
  },
  {
    "feature_type": "atms",
    "lat": 46.9489572,
    "lon": 7.4401352,
    "tags": {
      "amenity": "atm",
      "check_date": "2022-12-03",
      "level": "-1",
      "operator": "PostFinance",
      "operator:wikidata": "Q449233",
      "wheelchair": "no"
    },
    "distance_to_station": 265.23800288964185
  },
  {
    "feature_type": "atms",
    "lat": 46.9494066,
    "lon": 7.4438595,
    "tags": {
      "amenity": "atm",
      "brand": "Raiffeisen",
      "brand:wikidata": "Q681189",
      "check_date": "2023-01-22",
      "opening_hours": "24/7",
      "operator": "Raiffeisen",
      "operator:wikidata": "Q681189"
    },
    "distance_to_station": 441.4021322404207
  },
  {
    "feature_type": "atms",
    "lat": 46.9480157,
    "lon": 7.4404062,
    "tags": {
      "amenity": "atm",
      "brand": "Raiffeisen",
      "brand:wikidata": "Q681189",
      "cash_in": "no",
      "indoor": "yes",
      "level": "-1",
      "operator": "Raiffeisen",
      "operator:wikidata": "Q681189",
      "wheelchair": "yes"
    },
    "distance_to_station": 369.3473972284142
  },
  {
    "feature_type": "atms",
    "lat": 46.9493026,
    "lon": 7.4436023,
    "tags": {
      "amenity": "atm",
      "location": "outdoor",
      "opening_hours": "24/7",
      "operator": "Cr\u00e9dit Agricole next bank"
    },
    "distance_to_station": 429.08979967886836
  },
  {
    "feature_type": "atms",
    "lat": 46.9491088,
    "lon": 7.4398175,
    "tags": {
      "amenity": "atm",
      "indoor": "yes",
      "level": "0",
      "operator": "Raiffeisen",
      "operator:wikidata": "Q681189"
    },
    "distance_to_station": 239.9239748424481
  }
]