[
  {
    "feature_type": "coworking",
    "lat": 46.9478561,
    "lon": 7.4361231,
    "tags": {
      "amenity": "coworking_space",
      "facebook": "https://www.facebook.com/welle7workspace/",
      "level": "3-6",
      "name": "Welle7 Workspace",
      "office": "coworking",
      "opening_hours": "Mo-Fr 07:00-21:30; Sa 07:00-19:00",
      "website": "https://www.welle7.ch/de/workspace"
    },
    "distance_to_station": 406.7640778829237
  },
  {
    "feature_type": "coworking",
    "lat": 46.9478396,
    "lon": 7.4362713,
    "tags": {
      "amenity": "coworking_space",
      "facebook": "https://www.facebook.com/welle7workspace/",
      "level": "0",
      "name": "Workspace",
      "office": "coworking",
      "opening_hours": "Mo-Fr 07:00-21:30; Sa 07:00-20:00",
      "website": "https://www.welle7.ch/en/workspace"
    },
    "distance_to_station": 403.3366926975069
  },
  {
    "feature_type": "coworking",
    "lat": 46.949867,
    "lon": 7.4408713,
    "tags": {
      "amenity": "coworking_space",
      "childcare": "yes",
      "email": "ahoi@bollwerk21.ch",
      "name": "Ahoi",
      "phone": "+41 31 382 82 82",
      "website": "https://ahoi-bollwerk21.ch/"
    },
    "distance_to_station": 220.27287376122138
  }
]