[
  {
    "feature_type": "shops",
    "lat": 46.9534929,
    "lon": 7.4732333,
    "tags": {
      "name": "Blumenladen",
      "shop": "florist"
    },
    "distance_to_station": 456.11954896453557
  },
  {
    "feature_type": "shops",
    "lat": 46.9542008,
    "lon": 7.470299,
    "tags": {
      "name": "Galgenfeld Garage",
      "shop": "car_repair"
    },
    "distance_to_station": 289.4767014413397
  },
  {
    "feature_type": "shops",
    "lat": 46.9547538,
    "lon": 7.4711755,
    "tags": {
      "contact:addr": "Libellenweg 4a, 3006 Bern",
      "contact:email": "info@carrep-degiorgi.ch",
      "contact:phone": "+41 31 3322060",
      "name": "Car Rep De Giorgi",
      "opening_hours": "Mo-Th 07:30-12:00,13:15-17:15; Fr 07:30-12:00,13:15-17:00; Sa-Su off",
      "operator": "Car Rep De Giorgi AG",
      "shop": "car_repair",
      "source": "survey and website",
      "website": "https://www.carrep-degiorgi.ch/"
    },
    "distance_to_station": 380.01502187831835
  },
  {
    "feature_type": "shops",
    "lat": 46.9549432,
    "lon": 7.4709345,
    "tags": {
      "contact:addr": "Libellenweg 4, 3006 Bern",
      "contact:email": "bern@pneu-egger.ch",
      "contact:fax": "+41 58 2007716",
      "contact:phone": "+41 58 2007160",
      "name": "Pneu Egger",
      "opening_hours": "Mo-Fr 07:30-12:00, 13:30-18:00; Sa 07:30-11:30; Su off",
      "shop": "car_repair",
      "source": "survey and website",
      "website": "https://www.pneu-egger.ch/de/filialen/detail/filiale_bern/"
    },
    "distance_to_station": 381.0668765464451
  },
  {
    "feature_type": "shops",
    "lat": 46.9556365,
    "lon": 7.4691583,
    "tags": {
      "name": "Automobil Ucak",
      "shop": "car_repair"
    },
    "distance_to_station": 372.4132518658641
  },
  {
    "feature_type": "shops",
    "lat": 46.9523184,
    "lon": 7.4616425,
    "tags": {
      "alt_name": "Coiffure Rosengarten",
      "contact:addr": "Reiterstrasse 19, 3013 Bern",
      "contact:phone": "+41 31 3317744",
      "name": "Rosengarten",
      "opening_hours": "Mo off; Tu-Fr 08:00-18:00; Sa 08:00-15:00; Su off",
      "operator": "Rita Trachsel",
      "shop": "hairdresser",
      "source": "survey"
    },
    "distance_to_station": 437.45054145774924
  },
  {
    "feature_type": "shops",
    "lat": 46.9540708,
    "lon": 7.4735398,
    "tags": {
      "alt_name": "Bildhaueratelier Kurzweg - Grabsteine / Grabmale",
      "contact:addr": "Ostermundigenstrasse 81, 3006 Bern",
      "contact:email": "info@kurzweg.ch",
      "contact:fax": "+41 31 3338012",
      "contact:phone": "+41 31 3338010",
      "contact:website": "http://www.kurzweg.ch/standorte/kontaktformular/",
      "craft": "stonemason",
      "description": "de:Grabstein-Ausstellung Schosshaldenfriedhof",
      "name": "Kurzweg",
      "opening_hours": "Tu-Fr 09:00-12:00,14:00-17:30; Sa 09:00-15:00",
      "shop": "craft",
      "source": "survey and website",
      "website": "http://www.kurzweg.ch/standorte/schosshalden-friedhof"
    },
    "distance_to_station": 497.3563944585443
  },
  {
    "feature_type": "shops",
    "lat": 46.9553249,
    "lon": 7.4699356,
    "tags": {
      "alt_name": "Enoteca Cappelletti",
      "contact:addr": "Zikadenweg 6, 3006 Bern",
      "contact:email": "info@cappelletti.ch",
      "contact:fax": "+41 31 3354445",
      "contact:phone": "+41 31 3354444",
      "name": "Vini Cappelletti",
      "opening_hours": "Mo-Fr 08:00-12:00, 13:00-17:15; Sa-Su off",
      "operator": "Vini Cappelletti AG",
      "shop": "alcohol",
      "source": "survey and website",
      "website": "https://www.cappelletti.ch/"
    },
    "distance_to_station": 367.47485868064064
  },
  {
    "feature_type": "shops",
    "lat": 46.9536085,
    "lon": 7.4708786,
    "tags": {
      "alt_name": "Bildatelier Mario M\u00fcller",
      "contact:addr": "Ostermundigenstrasse 61b, 3006 Bern",
      "contact:email": "bildatelier@gmx.ch",
      "contact:phone": "+41 79 9306637",
      "craft": "stonemason",
      "name": "Bildatelier",
      "operator": "Mario M\u00fcller",
      "shop": "craft",
      "source": "survey and website",
      "website": "http://www.steinbildhaueratelier-bern.ch"
    },
    "distance_to_station": 290.9849036019383
  },
  {
    "feature_type": "shops",
    "lat": 46.9537111,
    "lon": 7.4712752,
    "tags": {
      "addr:city": "Bern",
      "addr:country": "CH",
      "addr:housenumber": "61",
      "addr:postcode": "3006",
      "addr:street": "Ostermundigenstrasse",
      "contact:email": "info@jeker-stein.ch",
      "contact:fax": "+41 31 3320565",
      "contact:phone": "+41 31 3324212",
      "craft": "stonemason",
      "name": "Jeker Natursteine",
      "opening_hours": "Mo-Fr 07:00-18:00; Sa 09:00-16:00; Su off",
      "operator": "Jeker Natursteine AG",
      "shop": "craft",
      "source": "survey and website",
      "website": "https://www.jeker-stein.ch/"
    },
    "distance_to_station": 323.1036094599604
  },
  {
    "feature_type": "shops",
    "lat": 46.9539785,
    "lon": 7.4728531,
    "tags": {
      "addr:floor": "1",
      "alt_name": "Coiffure & Make-up Daniel Sewer",
      "contact:addr": "Ostermundigenstrasse 75, 3006 Bern",
      "contact:email": "danielsewer@mail.ch",
      "contact:facebook": "https://www.facebook.com/danielsewer",
      "contact:instagram": "https://www.instagram.com/danielsewer.ch",
      "contact:mobile": "+41 76 722 27 26",
      "name": "Daniel Sewer",
      "opening_hours": "Mo off; Tu-We 09:00-18:00; Th 09:00-19:00; Fr 09:00-18:00; Sa 08:00-14:00; Su off",
      "operator": "daniel sewer gmbh",
      "shop": "hairdresser",
      "source": "survey and website",
      "website": "https://www.danielsewer.ch"
    },
    "distance_to_station": 445.0129146435019
  },
  {
    "feature_type": "shops",
    "lat": 46.952517,
    "lon": 7.4678952,
    "tags": {
      "contact:addr": "Ostermundigenstrasse 40, 3006 Bern",
      "contact:email": "info@nicolemathys.ch",
      "contact:facebook": "https://www.facebook.com/wohndesignbern",
      "contact:mobile": "+41 79 6876919",
      "craft": "upholsterer",
      "name": "Nicole Mathys",
      "opening_hours": "Mo-Tu 08:00-15:00; We-Th 13:30-18:30; Fr-Su off; PH off",
      "shop": "interior_decoration",
      "website": "https://www.nicolemathys.ch"
    },
    "distance_to_station": 37.67067996324117
  },
  {
    "feature_type": "shops",
    "lat": 46.9543173,
    "lon": 7.4728353,
    "tags": {
      "name": "W\u00fcrth AG",
      "shop": "repair"
    },
    "distance_to_station": 458.95650853273906
  },
  {
    "feature_type": "shops",
    "lat": 46.9503763,
    "lon": 7.4618431,
    "tags": {
      "alt_name": "Galerie Stuker",
      "contact:addr": "Alter Aargauerstalden 30, 3006 Bern",
      "contact:email": "info@galeriestuker.ch",
      "contact:fax": "+41 31 3508008",
      "contact:phone": "+41 31 3508000",
      "name": "Auktionshaus Stuker",
      "opening_hours": "Mo-Fr 09:00-12:00, 14:00-17:00",
      "shop": "auction_house",
      "website": "https://galeriestuker.ch/"
    },
    "distance_to_station": 483.8725335582374
  }
]