[
  {
    "feature_type": "supermarkets",
    "lat": 46.9561025,
    "lon": 7.4467039,
    "tags": {
      "addr:city": "Bern",
      "addr:country": "CH",
      "addr:housenumber": "9",
      "addr:postcode": "3013",
      "addr:street": "Dammweg",
      "alt_name": "Migros Lorraine",
      "branch": "Bern Lorraine",
      "brand": "Migros",
      "brand:wikidata": "Q680727",
      "brand:wikipedia": "de:Migros",
      "cash_withdrawal": "migros_bank;postfinance_card",
      "cash_withdrawal:fee": "no",
      "cash_withdrawal:purchase_required": "no",
      "cash_withdrawal:type": "checkout",
      "internet_access": "yes",
      "internet_access:fee": "no",
      "name": "Migros",
      "opening_hours": "Mo-Fr 08:00-20:00, Sa 08:00-17:00; PH off",
      "operator": "Genossenschaft Migros Aare",
      "shop": "supermarket",
      "website": "https://filialen.migros.ch/de/migros-supermarkt-bern-lorraine",
      "wheelchair": "yes"
    },
    "distance_to_station": 479.9534449417872
  },
  {
    "feature_type": "supermarkets",
    "lat": 46.959181,
    "lon": 7.4550434,
    "tags": {
      "addr:city": "Bern",
      "addr:housenumber": "2",
      "addr:postcode": "3014",
      "addr:street": "Stauffacherstrasse",
      "brand": "Coop",
      "brand:wikidata": "Q432564",
      "brand:wikipedia": "de:Coop (Schweiz)",
      "check_date:opening_hours": "2025-03-29",
      "level": "0",
      "name": "Coop",
      "opening_hours": "Mo-Fr 07:30-20:00, Sa 07:30-17:00",
      "operator": "Coop",
      "shop": "supermarket",
      "wheelchair": "yes"
    },
    "distance_to_station": 403.9937403788265
  },
  {
    "feature_type": "supermarkets",
    "lat": 46.9613051,
    "lon": 7.4529884,
    "tags": {
      "brand": "Denner",
      "brand:wikidata": "Q379911",
      "cash_withdrawal": "migros_bank;postfinance_card",
      "cash_withdrawal:fee": "no",
      "cash_withdrawal:purchase_required": "no",
      "cash_withdrawal:type": "checkout",
      "contact:addr": "Scheibenstrasse 29, 3014 Bern",
      "contact:phone": "+41 58 9990323",
      "name": "Denner",
      "opening_hours": "Mo-Th 08:00-19:00; Fr 08:00-21:00; Sa 08:00-17:00; Su off",
      "shop": "supermarket",
      "source": "survey and website",
      "website": "https://www.denner.ch/",
      "wheelchair": "yes"
    },
    "distance_to_station": 608.8785843427693
  },
  {
    "feature_type": "supermarkets",
    "lat": 46.9536697,
    "lon": 7.4546054,
    "tags": {
      "addr:city": "Bern",
      "addr:housenumber": "49",
      "addr:postcode": "3013",
      "addr:street": "Viktoriastrasse",
      "alt_name": "VOI Viktoriastrasse",
      "branch": "Bern Viktoriastrasse",
      "brand": "VOI",
      "brand:wikidata": "Q110277616",
      "name": "VOI",
      "opening_hours": "Mo-Fr 07:30-20:00, Sa 07:30-17:00; PH off",
      "operator": "Genossenschaft Migros Aare",
      "shop": "supermarket",
      "website": "https://www.voi-migrospartner.ch/de-CH/filialen#voi-voi-bern-viktoriastrasse"
    },
    "distance_to_station": 269.39651420714057
  },
  {
    "feature_type": "supermarkets",
    "lat": 46.9575274,
    "lon": 7.4535985,
    "tags": {
      "contact:addr:full": "Moserstrasse 42, 3014 Bern",
      "contact:phone": "+41 31 3331391",
      "name": "Siam Food",
      "opening_hours": "Mo-Th 09:00-18:30; Fr 09:00-19:00; Sa 09:00-17:00",
      "operator": "Siam Food GmbH",
      "shop": "supermarket"
    },
    "distance_to_station": 194.38917776711307
  },
  {
    "feature_type": "supermarkets",
    "lat": 46.9611612,
    "lon": 7.4531347,
    "tags": {
      "brand": "Alnatura",
      "brand:wikidata": "Q876811",
      "cash_withdrawal": "postfinance_card",
      "cash_withdrawal:fee": "no",
      "cash_withdrawal:purchase_required": "no",
      "cash_withdrawal:type": "checkout",
      "contact:addr": "Scheibenstrasse 27, 3014 Bern",
      "name": "Alnatura Super Natur Markt",
      "opening_hours": "Mo-Th 08:00-19:00; Fr 08:00-20:00; Sa 08:00-17:00",
      "operator": "Migros",
      "organic": "only",
      "shop": "supermarket",
      "short_name": "Alnatura",
      "wheelchair": "yes"
    },
    "distance_to_station": 592.9742059344538
  },
  {
    "feature_type": "supermarkets",
    "lat": 46.9581546,
    "lon": 7.4537816,
    "tags": {
      "addr:city": "Bern",
      "addr:housenumber": "11",
      "addr:postcode": "3013",
      "addr:street": "Breitenrainstrasse",
      "alt_name": "Migros Breitenrain",
      "branch": "Bern Breitenrain",
      "brand": "Migros",
      "brand:wikidata": "Q680727",
      "brand:wikipedia": "de:Migros",
      "cash_withdrawal": "migros_bank;postfinance_card",
      "cash_withdrawal:fee": "no",
      "cash_withdrawal:purchase_required": "no",
      "cash_withdrawal:type": "checkout",
      "check_date:opening_hours": "2024-02-06",
      "contact:addr": "Breitenrainstrasse 11, 3013 Bern",
      "contact:phone": "+41 58 5676080",
      "level": "-1",
      "name": "Migros",
      "opening_hours": "Mo-Fr 07:30-20:00, Sa 07:30-17:00; PH off",
      "operator": "Genossenschaft Migros Aare",
      "shop": "supermarket",
      "toilets:wheelchair": "yes",
      "website": "https://filialen.migros.ch/de/migros-supermarkt-bern-breitenrain",
      "wheelchair": "yes"
    },
    "distance_to_station": 265.45111943500143
  },
  {
    "feature_type": "supermarkets",
    "lat": 46.9481074,
    "lon": 7.4497207,
    "tags": {
      "alt_name": "VOI Kramgasse",
      "branch": "Bern Kramgasse",
      "brand": "VOI",
      "brand:wikidata": "Q110277616",
      "check_date": "2025-07-17",
      "contact:addr": "Kramgasse 54, 3011 Bern",
      "contact:phone": "+41 58 5674940",
      "name": "VOI",
      "opening_hours": "Mo-Fr 08:00-20:00; Sa 08:00-17:00; Su off; PH off",
      "operator": "Fatime und Fatmire Kamili",
      "shop": "supermarket",
      "website": "https://www.voi-migrospartner.ch/de-CH/filialen#voi-voi-bern-kramgasse"
    },
    "distance_to_station": 893.8004705015187
  },
  {
    "feature_type": "supermarkets",
    "lat": 46.9531082,
    "lon": 7.4584498,
    "tags": {
      "brand": "Coop",
      "brand:wikidata": "Q432564",
      "brand:wikipedia": "de:Coop (Schweiz)",
      "check_date:opening_hours": "2023-07-26",
      "contact:addr": "Viktoriastrasse 21, 3013 Bern",
      "contact:phone": "+41 31 3074930",
      "name": "Coop",
      "opening_hours": "Mo-Fr 07:30-20:00; Sa 07:00-17:00",
      "shop": "supermarket",
      "website": "https://www.coop.ch/de/services/standorte-und-oeffnungszeiten/detail.html/5434/coop-supermarkt-bern-schoenburg.html"
    },
    "distance_to_station": 513.5594333295649
  },
  {
    "feature_type": "supermarkets",
    "lat": 46.9637339,
    "lon": 7.455829,
    "tags": {
      "addr:city": "Bern",
      "addr:housenumber": "56",
      "addr:postcode": "3014",
      "addr:street": "Winkelriedstrasse",
      "contact:addr": "Winkelriedstrasse 56, 3014 Bern",
      "name": "Lebensmittel Baumgartner",
      "opening_hours": "Mo-Fr 06:30-12:15,15:00-20:00; Sa 08:00-17:00; So 08:00-18:00",
      "phone": "0319217557",
      "shop": "supermarket",
      "website": "https://baumgartner-lebensmittel.ch"
    },
    "distance_to_station": 904.9440172420033
  },
  {
    "feature_type": "supermarkets",
    "lat": 46.9483679,
    "lon": 7.4477304,
    "tags": {
      "brand": "ALDI",
      "brand:wikidata": "Q41171672",
      "check_date": "2025-02-05",
      "name": "ALDI",
      "opening_hours": "Mo-Fr 08:00-20:00; Sa 07:30-18:00; Su,PH off",
      "phone": "+41 31 372 96 37",
      "shop": "supermarket",
      "website": "https://www.aldi-suisse.ch/",
      "wheelchair": "yes"
    },
    "distance_to_station": 921.1529793002024
  }
]