[
  {
    "feature_type": "banks",
    "lat": 46.9472559,
    "lon": 7.4425408,
    "tags": {
      "addr:city": "Bern",
      "addr:housenumber": "21",
      "addr:postcode": "3011",
      "addr:street": "Schauplatzgasse",
      "alt_name": "DC Bank Deposito-Cassa der Stadt Bern",
      "amenity": "bank",
      "atm": "no",
      "contact:addr": "Schauplatzgasse 21, 3011 Bern",
      "contact:email": "info@dcbank.ch",
      "contact:phone": "+41 31 3288585",
      "name": "DC Bank",
      "note": "Moved from Kochergasse 6 to this location by 2014-12-01",
      "opening_hours": "Mo-Fr 09:00-17:00",
      "source": "website",
      "website": "https://www.dcbank.ch/",
      "wikidata": "Q1152211",
      "wikipedia": "de:DC Bank Deposito-Cassa der Stadt Bern"
    },
    "distance_to_station": 438.02957082070145
  },
  {
    "feature_type": "banks",
    "lat": 46.9474582,
    "lon": 7.4463619,
    "tags": {
      "alt_name": "Bank EEK AG",
      "amenity": "bank",
      "contact:addr": "Amthausgasse 14, 3011 Bern",
      "contact:email": "info@eek.ch",
      "contact:fax": "+41 31 3105299",
      "contact:phone": "+41 31 3105252",
      "name": "EEK",
      "opening_hours": "Mo-We 08:30-17:00; Th 08:30-18:00; Fr 08:30-17:00",
      "website": "https://www.eek.ch/",
      "wikidata": "Q806623"
    },
    "distance_to_station": 192.30592874748078
  },
  {
    "feature_type": "banks",
    "lat": 46.949459,
    "lon": 7.4438856,
    "tags": {
      "amenity": "bank",
      "brand": "Raiffeisen",
      "brand:wikidata": "Q681189",
      "check_date": "2025-07-19",
      "name": "Raiffeisen",
      "wheelchair": "yes"
    },
    "distance_to_station": 483.38879287029994
  },
  {
    "feature_type": "banks",
    "lat": 46.9481261,
    "lon": 7.4513782,
    "tags": {
      "alt_name": "Banca Popolare di Sondrio (Suisse) SA",
      "amenity": "bank",
      "atm": "yes",
      "contact:addr": "Kramgasse 16, 3011 Bern",
      "contact:email": "contact@bps-suisse.ch",
      "contact:fax": "+41 58 8554465",
      "contact:phone": "+41 58 8554450",
      "name": "BPS (Suisse)",
      "opening_hours": "Mo-Fr 09:00-12:00, 13:30-17:00; Sa-Su off; PH off",
      "source": "survey and website",
      "website": "https://www.bps-suisse.ch"
    },
    "distance_to_station": 328.32123068670484
  },
  {
    "feature_type": "banks",
    "lat": 46.9475245,
    "lon": 7.444366,
    "tags": {
      "alt_name": "Valiant Bank Bern Bundesplatz",
      "amenity": "bank",
      "brand": "Valiant",
      "brand:wikidata": "Q2509061",
      "check_date": "2024-05-15",
      "contact:addr": "Bundesplatz 4, 3011 Bern",
      "contact:email": "info@valiant.ch",
      "contact:fax": "+41 31 3209112",
      "contact:phone": "+41 31 3209111",
      "name": "Valiant",
      "opening_hours": "Mo-We 09:00-17:00; Th 09:00-18:00; Fr 09:00-17:00; Sa-Su off",
      "operator": "Valiant Bank AG",
      "source": "website and survey",
      "website": "https://www.valiant.ch/de/kontakt/geschaeftsstellen-gesamtuebersicht/a/show/bern-bundesplatz-63002003/",
      "wheelchair": "yes"
    },
    "distance_to_station": 319.4272359632565
  },
  {
    "feature_type": "banks",
    "lat": 46.9475783,
    "lon": 7.4447456,
    "tags": {
      "alt_name": "Credit Suisse Bern Bundesplatz",
      "alt_name:ja": "\u30af\u30ec\u30b8\u30fb\u30b9\u30a4\u30b9",
      "amenity": "bank",
      "atm": "yes",
      "branch": "Bern Bundesplatz",
      "brand": "Credit Suisse",
      "brand:wikidata": "Q372657",
      "contact:addr": "Bundesplatz 2, 3011 Bern",
      "contact:email": "info@credit-suisse.com",
      "contact:fax": "+41 31 3587298",
      "contact:phone": "+41 31 3588111",
      "name": "Credit Suisse",
      "name:ja": "\u30af\u30ec\u30c7\u30a3\u30fb\u30b9\u30a4\u30b9",
      "not:name:ja": "\u30af\u30ec\u30a4\u30b8\u30fc\u30b9\u30a4\u30b9",
      "opening_hours": "Mo-Fr 09:00-17:00; Th 09:00-18:00; PH off",
      "operator": "Credit Suisse",
      "short_name": "CS",
      "source": "website and survey",
      "website": "https://www.credit-suisse.com/ch/de/",
      "wheelchair": "yes"
    },
    "distance_to_station": 297.1977693547951
  },
  {
    "feature_type": "banks",
    "lat": 46.9471313,
    "lon": 7.4433727,
    "tags": {
      "alt_name": "Berner Kantonalbank Bern-Bundesplatz",
      "amenity": "bank",
      "branch": "| BCBE",
      "brand": "Berner Kantonalbank",
      "brand:de": "Berner Kantonalbank",
      "brand:fr": "Banque Cantonale Bernoise",
      "brand:wikidata": "Q824579",
      "contact:addr": "Bundesplatz 8, 3011 Bern",
      "contact:email": "bekb@bekb.ch",
      "contact:fax": "+41 31 6666040",
      "contact:phone": "+41 31 6661111",
      "contact:website": "https://www.bekb.ch/de/pages/kontakt-bekb?contact=59C718B0E6D9469C8E752E72C4F6F6D1&d=nolayout",
      "name": "Berner Kantonalbank",
      "name:de": "Berner Kantonalbank",
      "name:fr": "Banque Cantonale Bernoise",
      "opening_hours": "Mo-Fr 09:00-17:00",
      "operator": "Berner Kantonalbank AG",
      "short_name": "BEKB",
      "short_name:de": "BEKB",
      "short_name:fr": "BCBE",
      "source": "website",
      "website": "https://www.bekb.ch/de/pages/standorte?mode=detail&location=59C718B0E6D9469C8E752E72C4F6F6D1"
    },
    "distance_to_station": 373.4944491769297
  },
  {
    "feature_type": "banks",
    "lat": 46.9475099,
    "lon": 7.4432738,
    "tags": {
      "amenity": "bank",
      "atm": "no",
      "brand": "UBS",
      "brand:wikidata": "Q193199",
      "contact:addr": "B\u00e4renplatz 8, 3011 Bern",
      "contact:fax": "+41 31 3364741",
      "contact:phone": "+41 31 3362111",
      "name": "UBS",
      "opening_hours": "Mo-Fr 08:00-17:00; Sa-Su off",
      "operator": "UBS AG",
      "source": "Survey and website",
      "website": "https://www.ubs.ch"
    },
    "distance_to_station": 394.2499776898055
  },
  {
    "feature_type": "banks",
    "lat": 46.9475097,
    "lon": 7.445676,
    "tags": {
      "alt_name": "Bank Cler Bern",
      "amenity": "bank",
      "branch": "Bern",
      "brand": "Cler",
      "brand:wikidata": "Q806625",
      "contact:addr": "Amthausgasse 20, 3011 Bern",
      "contact:email": "info@cler.ch",
      "contact:phone": "+41 31 3277575",
      "name": "Bank Cler",
      "opening_hours": "Mo-Fr 09:00-17:00; PH off",
      "operator": "Bank Cler",
      "website": "https://www.cler.ch/de/services/standorte#query=&stores=false&detail=BCGS5"
    },
    "distance_to_station": 234.66351855232082
  },
  {
    "feature_type": "banks",
    "lat": 46.9493238,
    "lon": 7.443473,
    "tags": {
      "amenity": "bank",
      "atm": "yes",
      "name": "Cr\u00e9dit Agricole next bank",
      "opening_hours": "Mo-Fr 10:00-12:00,12:45-16:45"
    },
    "distance_to_station": 493.9790183548086
  },
  {
    "feature_type": "banks",
    "lat": 46.9487713,
    "lon": 7.4455342,
    "tags": {
      "addr:full": "Zeughausgasse 27, 3011 Bern",
      "alt_name": "Migros Bank Bern",
      "amenity": "bank",
      "branch": "Bern",
      "brand": "Migros Bank",
      "brand:de": "Migros Bank",
      "brand:fr": "Banque Migros",
      "brand:it": "Banca Migros",
      "brand:wikidata": "Q1593349",
      "name": "Migros Bank",
      "name:de": "Migros Bank",
      "name:fr": "Banque Migros",
      "name:it": "Banca Migros",
      "opening_hours": "PH off; Mo-Fr 09:00-12:00,13:30-17:00",
      "operator": "Migros Bank",
      "website": "https://www.migrosbank.ch/de/standorte.html/migros-bank-niederlassung-bern"
    },
    "distance_to_station": 345.95122406324043
  },
  {
    "feature_type": "banks",
    "lat": 46.9484974,
    "lon": 7.4468704,
    "tags": {
      "amenity": "bank",
      "contact:phone": "+41 31 307 50 00",
      "name": "Z\u00e4hringer Privatbank",
      "operator": "Z\u00e4hringer Privatbank AG",
      "website": "https://www.zaehringer-privatbank.ch/"
    },
    "distance_to_station": 271.97692462520286
  }
]