[
  {
    "feature_type": "bus_stops",
    "lat": 46.9525762,
    "lon": 7.4672613,
    "tags": {
      "brand": "Bernmobil",
      "bus": "yes",
      "ele": "578",
      "highway": "bus_stop",
      "name": "Galgenfeld",
      "network": "Libero",
      "network:wikidata": "Q2394193",
      "operator": "Bernmobil",
      "public_transport": "stop_position",
      "tactile_paving": "yes",
      "uic_name": "Bern, Galgenfeld",
      "uic_ref": "8590049"
    },
    "distance_to_station": 12.783749758379031
  },
  {
    "feature_type": "bus_stops",
    "lat": 46.9508166,
    "lon": 7.4728084,
    "tags": {
      "highway": "bus_stop",
      "name": "Zentrum Paul Klee",
      "public_transport": "stop_position",
      "trolleybus": "yes"
    },
    "distance_to_station": 451.7093477366353
  },
  {
    "feature_type": "bus_stops",
    "lat": 46.9493663,
    "lon": 7.4692545,
    "tags": {
      "highway": "bus_stop",
      "name": "Bitziusstrasse",
      "public_transport": "stop_position",
      "trolleybus": "yes"
    },
    "distance_to_station": 376.8695992930853
  },
  {
    "feature_type": "bus_stops",
    "lat": 46.9537132,
    "lon": 7.4728818,
    "tags": {
      "brand": "Bernmobil",
      "bus": "yes",
      "ele": "567",
      "highway": "bus_stop",
      "name": "Schosshaldenfriedhof",
      "network": "Libero",
      "network:wikidata": "Q2394193",
      "operator": "Bernmobil",
      "public_transport": "stop_position",
      "uic_name": "Bern, Schosshaldenfriedhof",
      "uic_ref": "8590050"
    },
    "distance_to_station": 437.1290552944814
  },
  {
    "feature_type": "bus_stops",
    "lat": 46.9537607,
    "lon": 7.4732163,
    "tags": {
      "brand": "Bernmobil",
      "bus": "yes",
      "ele": "567",
      "highway": "bus_stop",
      "name": "Schosshaldenfriedhof",
      "network": "Libero",
      "network:wikidata": "Q2394193",
      "operator": "Bernmobil",
      "public_transport": "stop_position",
      "uic_name": "Bern, Schosshaldenfriedhof",
      "uic_ref": "8590050"
    },
    "distance_to_station": 462.9241319212206
  },
  {
    "feature_type": "bus_stops",
    "lat": 46.952145,
    "lon": 7.4611405,
    "tags": {
      "bus": "yes",
      "ele": "569",
      "highway": "bus_stop",
      "name": "Rosengarten",
      "network": "Libero",
      "network:wikidata": "Q2394193",
      "operator": "Bernmobil",
      "public_transport": "stop_position",
      "tactile_paving": "yes",
      "uic_name": "Bern, Rosengarten",
      "uic_ref": "8587485"
    },
    "distance_to_station": 476.76579249935025
  },
  {
    "feature_type": "bus_stops",
    "lat": 46.9524887,
    "lon": 7.4667258,
    "tags": {
      "brand": "Bernmobil",
      "bus": "yes",
      "ele": "578",
      "highway": "bus_stop",
      "name": "Galgenfeld",
      "network": "Libero",
      "network:wikidata": "Q2394193",
      "operator": "Bernmobil",
      "public_transport": "stop_position",
      "tactile_paving": "yes",
      "uic_name": "Bern, Galgenfeld",
      "uic_ref": "8590049"
    },
    "distance_to_station": 51.15219001262038
  },
  {
    "feature_type": "bus_stops",
    "lat": 46.9520353,
    "lon": 7.461312,
    "tags": {
      "bus": "yes",
      "ele": "569",
      "highway": "bus_stop",
      "name": "Rosengarten",
      "network": "Libero",
      "network:wikidata": "Q2394193",
      "operator": "Bernmobil",
      "public_transport": "stop_position",
      "uic_name": "Bern, Rosengarten",
      "uic_ref": "8587485",
      "wheelchair": "yes"
    },
    "distance_to_station": 465.02379999362137
  }
]