[
  {
    "feature_type": "hotels",
    "lat": 46.9492876,
    "lon": 7.4446885,
    "tags": {
      "addr:city": "Bern",
      "addr:housenumber": "28",
      "addr:postcode": "3011",
      "addr:street": "Zeughausgasse",
      "alt_name": "Stay KooooK Bern City",
      "contact:whatsapp": "https://wa.me/41317770076",
      "internet_access": "wlan",
      "internet_access:fee": "yes",
      "name": "Stay KooooK Bern City",
      "phone": "+41 800 566 665",
      "tourism": "hotel",
      "website": "https://www.staykooook.com/bern-city/"
    },
    "distance_to_station": 430.03988945697563
  },
  {
    "feature_type": "hotels",
    "lat": 46.9486987,
    "lon": 7.4463572,
    "tags": {
      "addr:city": "Bern",
      "addr:housenumber": "9",
      "addr:postcode": "3011",
      "addr:street": "Zeughausgasse",
      "alt_name": "Hotel Bern;BEST WESTERN HOTELBERN",
      "beds": "150",
      "brand": "Best Western",
      "contact:addr": "Zeughausgasse 9, 3011 Bern",
      "contact:email": "reception@hotelbern.ch",
      "contact:fax": "+41 31 3292299",
      "contact:phone": "+41 31 3292222",
      "contact:website": "https://www.hotelbern.ch/",
      "internet_access": "wlan",
      "internet_access:fee": "no",
      "name": "Hotel Bern",
      "rooms": "99",
      "source": "survey and website",
      "tourism": "hotel",
      "website": "https://www.hotelbern.ch/",
      "wheelchair": "yes",
      "wikidata": "Q2531969"
    },
    "distance_to_station": 307.7312177192545
  },
  {
    "feature_type": "hotels",
    "lat": 46.9488838,
    "lon": 7.4445342,
    "tags": {
      "addr:city": "Bern",
      "addr:housenumber": "41",
      "addr:postcode": "3011",
      "addr:street": "Zeughausgasse",
      "alt_name": "Hotel Kreuz",
      "contact:addr": "Zeughausgasse 41, 3011 Bern",
      "contact:email": "info@kreuzbern.ch",
      "contact:fax": "+41 31 3299596",
      "contact:phone": "+41 31 3299595",
      "contact:website": "http://www.kreuzbern.ch",
      "internet_access": "yes",
      "internet_access:fee": "no",
      "name": "Kreuz",
      "operator": "Hotel Kreuz Bern AG",
      "source": "survey and website",
      "tourism": "hotel",
      "wheelchair": "yes"
    },
    "distance_to_station": 402.8938632661419
  },
  {
    "feature_type": "hotels",
    "lat": 46.947538,
    "lon": 7.4425105,
    "tags": {
      "addr:city": "Bern",
      "addr:housenumber": "10",
      "addr:postcode": "3011",
      "addr:street": "Schauplatzgasse",
      "beds": "125",
      "brand": "NH",
      "brand:wikidata": "Q830334",
      "contact:facebook": "https://www.facebook.com/thebristol.ch",
      "contact:instagram": "https://www.instagram.com/the_bristol_bern",
      "email": "nhbernthebristol@nh-hotels.com",
      "internet_access": "wlan",
      "internet_access:fee": "no",
      "name": "NH Bern The Bristol",
      "operator": "NH",
      "phone": "+41 31 311 01 01",
      "rooms": "100",
      "smoking": "separated",
      "stars": "4",
      "tourism": "hotel",
      "website": "https://www.nh-hotels.com/en/hotel/nh-bern-the-bristol"
    },
    "distance_to_station": 449.62804306848346
  },
  {
    "feature_type": "hotels",
    "lat": 46.9475154,
    "lon": 7.4431462,
    "tags": {
      "addr:city": "Bern",
      "addr:housenumber": "4",
      "addr:postcode": "3011",
      "addr:street": "Schauplatzgasse",
      "beds": "64",
      "brand": "Best Western",
      "brand:wikidata": "Q830334",
      "contact:addr": "Schauplatzgasse 4, 3011 Bern",
      "contact:email": "reception@baerenbern.ch",
      "contact:facebook": "https://www.facebook.com/hotelbaerenbern",
      "contact:fax": "+41 31 3116983",
      "contact:phone": "+41 31 3113367",
      "contact:website": "https://baerenbern.ch/de/kontakt.html",
      "internet_access": "wlan",
      "internet_access:fee": "no",
      "name": "B\u00e4ren",
      "operator": "Best Western",
      "rooms": "57",
      "smoking": "no",
      "source": "Survey and website",
      "stars": "4",
      "tourism": "hotel",
      "website": "https://baerenbern.ch"
    },
    "distance_to_station": 403.4879933144234
  },
  {
    "feature_type": "hotels",
    "lat": 46.9486884,
    "lon": 7.4487047,
    "tags": {
      "addr:city": "Bern",
      "addr:housenumber": "72",
      "addr:postcode": "3011",
      "addr:street": "Rathausgasse",
      "alt_name": "Hotel Restaurant Goldener Schl\u00fcssel",
      "check_date": "2025-07-16",
      "contact:addr": "Rathausgasse 72, 3011 Bern",
      "contact:email": "info@goldener-schluessel.ch",
      "contact:fax": "+41 31 3115688",
      "contact:phone": "+41 31 3110216",
      "contact:website": "http://www.goldener-schluessel.ch/contact-us/",
      "internet_access": "wlan",
      "internet_access:fee": "no",
      "name": "Goldener Schl\u00fcssel",
      "operator": "Marianne & Jost Troxler",
      "source": "website",
      "tourism": "hotel",
      "website": "https://hotel-goldener-schluessel.ch",
      "wheelchair": "limited"
    },
    "distance_to_station": 280.4790706817378
  },
  {
    "feature_type": "hotels",
    "lat": 46.9465303,
    "lon": 7.446704,
    "tags": {
      "addr:city": "Bern",
      "addr:housenumber": "3-5",
      "addr:postcode": "3011",
      "addr:street": "Kochergasse",
      "alt_name": "Hotel Bellevue Palace AG",
      "beds": "222",
      "contact:addr": "Kochergasse 3-5, 3011 Bern",
      "contact:email": "info@bellevue-palace.ch",
      "contact:fax": "+41 31 3204646",
      "contact:phone": "+41 31 3204545",
      "contact:website": "https://www.bellevue-palace.ch/en/hotel-destination/access",
      "internet_access": "wlan",
      "internet_access:fee": "no",
      "name": "Bellevue Palace",
      "opening_hours": "24/7",
      "operator": "Victoria-Jungfrau Collection AG",
      "rooms": "128",
      "smoking": "separated",
      "source": "survey and website",
      "stars": "5",
      "toilets:wheelchair": "yes",
      "tourism": "hotel",
      "website": "https://www.bellevue-palace.ch/",
      "wheelchair": "yes",
      "wikidata": "Q1395561"
    },
    "distance_to_station": 112.1556587666669
  }
]