[
  {
    "feature_type": "parking",
    "lat": 46.9566401,
    "lon": 7.456965,
    "tags": {
      "access": "customers",
      "amenity": "parking",
      "fee": "no",
      "layer": "-1",
      "operator": "Hotel Alpenblick",
      "parking": "underground"
    },
    "distance_to_station": 939.9918853713061
  },
  {
    "feature_type": "parking",
    "lat": 46.9568974,
    "lon": 7.4451816,
    "tags": {
      "amenity": "parking",
      "layer": "-1",
      "noexit": "yes",
      "parking": "underground"
    },
    "distance_to_station": 503.22954685188415
  },
  {
    "feature_type": "parking",
    "lat": 46.956415,
    "lon": 7.4432227,
    "tags": {
      "access": "yes",
      "amenity": "parking",
      "layer": "-1",
      "maxheight": "2.05",
      "parking": "underground"
    },
    "distance_to_station": 603.8835764519822
  },
  {
    "feature_type": "parking",
    "lat": 46.9555206,
    "lon": 7.4443467,
    "tags": {
      "access": "private",
      "amenity": "parking",
      "layer": "-1",
      "parking": "underground"
    },
    "distance_to_station": 667.2245367482245
  },
  {
    "feature_type": "parking",
    "lat": 46.9576903,
    "lon": 7.4530826,
    "tags": {
      "access": "customers",
      "amenity": "parking",
      "fee": "yes",
      "layer": "-2",
      "parking": "underground",
      "wheelchair": "yes"
    },
    "distance_to_station": 632.57386166242
  },
  {
    "feature_type": "parking",
    "lat": 46.9616658,
    "lon": 7.4466625,
    "tags": {
      "access": "private",
      "amenity": "parking",
      "layer": "-1",
      "parking": "underground"
    },
    "distance_to_station": 39.756548742878685
  },
  {
    "feature_type": "parking",
    "lat": 46.9595474,
    "lon": 7.4553673,
    "tags": {
      "access": "customers",
      "amenity": "parking",
      "fee": "yes",
      "layer": "-1",
      "maxheight": "1.85",
      "operator": "Coop",
      "parking": "underground"
    },
    "distance_to_station": 690.4588261467841
  },
  {
    "feature_type": "parking",
    "lat": 46.9530706,
    "lon": 7.4479194,
    "tags": {
      "amenity": "parking",
      "capacity": "240",
      "fee": "yes",
      "name": "Kursaal Parking",
      "parking": "multi-storey"
    },
    "distance_to_station": 920.7152570156393
  },
  {
    "feature_type": "parking",
    "lat": 46.9530541,
    "lon": 7.4507199,
    "tags": {
      "access": "private",
      "amenity": "parking",
      "parking": "surface"
    },
    "distance_to_station": 968.0553066269869
  },
  {
    "feature_type": "parking",
    "lat": 46.9572201,
    "lon": 7.4584592,
    "tags": {
      "access": "no",
      "amenity": "parking",
      "parking": "surface"
    },
    "distance_to_station": 1005.9910807957766
  },
  {
    "feature_type": "parking",
    "lat": 46.9613267,
    "lon": 7.4537731,
    "tags": {
      "amenity": "parking"
    },
    "distance_to_station": 540.7868858306367
  },
  {
    "feature_type": "parking",
    "lat": 46.9630904,
    "lon": 7.4565129,
    "tags": {
      "access": "private",
      "amenity": "parking",
      "name": "Kirche",
      "source": "local knowledge"
    },
    "distance_to_station": 775.0508308491281
  },
  {
    "feature_type": "parking",
    "lat": 46.9621123,
    "lon": 7.4476819,
    "tags": {
      "amenity": "parking",
      "parking": "surface"
    },
    "distance_to_station": 118.09750379294665
  },
  {
    "feature_type": "parking",
    "lat": 46.953919,
    "lon": 7.444648,
    "tags": {
      "access": "yes",
      "amenity": "parking",
      "capacity": "74",
      "charge": "2.20CHF/h. Max. 3h. 7-19:00 daily. Coins, CASH card",
      "covered": "no",
      "fee": "yes",
      "park_ride": "no",
      "parking": "surface",
      "payment:coins": "yes",
      "payment:credit_cards": "yes",
      "supervised": "no"
    },
    "distance_to_station": 835.7215488210716
  },
  {
    "feature_type": "parking",
    "lat": 46.9556359,
    "lon": 7.4461299,
    "tags": {
      "access": "private",
      "amenity": "parking",
      "parking": "surface"
    },
    "distance_to_station": 631.9179890348826
  },
  {
    "feature_type": "parking",
    "lat": 46.9695667,
    "lon": 7.4496086,
    "tags": {
      "access": "private",
      "amenity": "parking",
      "parking": "surface"
    },
    "distance_to_station": 944.9829723852519
  },
  {
    "feature_type": "parking",
    "lat": 46.9648722,
    "lon": 7.451554,
    "tags": {
      "access": "yes",
      "amenity": "parking",
      "fee": "yes",
      "parking": "surface"
    },
    "distance_to_station": 543.389528288342
  },
  {
    "feature_type": "parking",
    "lat": 46.9659018,
    "lon": 7.4540625,
    "tags": {
      "access": "private",
      "amenity": "parking",
      "fee": "yes",
      "lit": "yes",
      "operator": "RUAG Real Estate",
      "park_ride": "no",
      "parking": "surface",
      "supervised": "yes",
      "surface": "asphalt"
    },
    "distance_to_station": 759.9424165699294
  },
  {
    "feature_type": "parking",
    "lat": 46.9662165,
    "lon": 7.4549799,
    "tags": {
      "access": "private",
      "amenity": "parking",
      "fee": "yes",
      "operator": "RUAG Real Estate",
      "park_ride": "no",
      "parking": "surface",
      "supervised": "yes",
      "surface": "asphalt"
    },
    "distance_to_station": 835.4218412889841
  },
  {
    "feature_type": "parking",
    "lat": 46.9686617,
    "lon": 7.4457247,
    "tags": {
      "access": "private",
      "amenity": "parking",
      "parking": "surface",
      "surface": "fine_gravel"
    },
    "distance_to_station": 820.6352957363878
  },
  {
    "feature_type": "parking",
    "lat": 46.9655942,
    "lon": 7.437501,
    "tags": {
      "amenity": "parking"
    },
    "distance_to_station": 844.8527884305585
  },
  {
    "feature_type": "parking",
    "lat": 46.9614265,
    "lon": 7.4379418,
    "tags": {
      "access": "private",
      "amenity": "parking",
      "parking": "surface",
      "surface": "asphalt"
    },
    "distance_to_station": 664.2806701161069
  },
  {
    "feature_type": "parking",
    "lat": 46.961429,
    "lon": 7.4391942,
    "tags": {
      "access": "customers",
      "amenity": "parking",
      "fee": "no",
      "parking": "street_side"
    },
    "distance_to_station": 568.9877925394525
  },
  {
    "feature_type": "parking",
    "lat": 46.9616043,
    "lon": 7.439996,
    "tags": {
      "access": "yes",
      "amenity": "parking",
      "fee": "yes",
      "parking": "street_side"
    },
    "distance_to_station": 508.8686116305428
  },
  {
    "feature_type": "parking",
    "lat": 46.9596697,
    "lon": 7.4364328,
    "tags": {
      "amenity": "parking"
    },
    "distance_to_station": 800.0267987612096
  },
  {
    "feature_type": "parking",
    "lat": 46.9585105,
    "lon": 7.4574174,
    "tags": {
      "access": "no",
      "amenity": "parking",
      "parking": "surface"
    },
    "distance_to_station": 875.2968342384448
  },
  {
    "feature_type": "parking",
    "lat": 46.9541323,
    "lon": 7.4400614,
    "tags": {
      "amenity": "parking",
      "capacity": "2",
      "source": "Orthofotos Bern"
    },
    "distance_to_station": 943.0086560518345
  },
  {
    "feature_type": "parking",
    "lat": 46.9542257,
    "lon": 7.4399428,
    "tags": {
      "amenity": "parking",
      "capacity": "11",
      "name": "Bedag",
      "parking": "surface",
      "source": "Orthofotos Bern"
    },
    "distance_to_station": 939.1308547865854
  },
  {
    "feature_type": "parking",
    "lat": 46.9686904,
    "lon": 7.4546693,
    "tags": {
      "access": "private",
      "amenity": "parking",
      "parking": "surface",
      "surface": "asphalt"
    },
    "distance_to_station": 1021.9288006934477
  },
  {
    "feature_type": "parking",
    "lat": 46.9678805,
    "lon": 7.4555286,
    "tags": {
      "access": "private",
      "amenity": "parking",
      "parking": "surface"
    },
    "distance_to_station": 994.2806173885318
  },
  {
    "feature_type": "parking",
    "lat": 46.9613161,
    "lon": 7.437876,
    "tags": {
      "access": "private",
      "amenity": "parking",
      "parking": "surface"
    },
    "distance_to_station": 669.1598268627231
  },
  {
    "feature_type": "parking",
    "lat": 46.9599006,
    "lon": 7.4560158,
    "tags": {
      "access": "no",
      "amenity": "parking",
      "park_ride": "no",
      "parking": "surface"
    },
    "distance_to_station": 728.4913572354413
  },
  {
    "feature_type": "parking",
    "lat": 46.9598089,
    "lon": 7.4554742,
    "tags": {
      "access": "no",
      "amenity": "parking",
      "fee": "yes",
      "park_ride": "no"
    },
    "distance_to_station": 690.6779503392918
  },
  {
    "feature_type": "parking",
    "lat": 46.9649988,
    "lon": 7.4530065,
    "tags": {
      "access": "private",
      "amenity": "parking"
    },
    "distance_to_station": 633.294773160373
  },
  {
    "feature_type": "parking",
    "lat": 46.9612566,
    "lon": 7.4532403,
    "tags": {
      "access": "customers",
      "amenity": "parking",
      "fee": "no",
      "park_ride": "no",
      "parking": "street_side",
      "supervised": "no",
      "surface": "asphalt"
    },
    "distance_to_station": 500.264318309695
  },
  {
    "feature_type": "parking",
    "lat": 46.9584348,
    "lon": 7.445442,
    "tags": {
      "amenity": "parking"
    },
    "distance_to_station": 332.78454446472966
  },
  {
    "feature_type": "parking",
    "lat": 46.961394,
    "lon": 7.4489298,
    "tags": {
      "access": "private",
      "amenity": "parking",
      "parking": "surface"
    },
    "distance_to_station": 172.41911460177485
  },
  {
    "feature_type": "parking",
    "lat": 46.9552672,
    "lon": 7.4504148,
    "tags": {
      "access": "customers",
      "amenity": "parking",
      "capacity": "11",
      "fee": "no",
      "parking": "street_side"
    },
    "distance_to_station": 729.6258719586896
  },
  {
    "feature_type": "parking",
    "lat": 46.9551413,
    "lon": 7.4509737,
    "tags": {
      "access": "customers",
      "amenity": "parking",
      "capacity": "10",
      "fee": "no",
      "parking": "lane"
    },
    "distance_to_station": 759.8841377294403
  },
  {
    "feature_type": "parking",
    "lat": 46.9554222,
    "lon": 7.4513216,
    "tags": {
      "access": "private",
      "amenity": "parking",
      "parking": "surface"
    },
    "distance_to_station": 744.0693260160176
  },
  {
    "feature_type": "parking",
    "lat": 46.9598764,
    "lon": 7.4557158,
    "tags": {
      "access": "destination",
      "amenity": "parking",
      "fee": "no",
      "park_ride": "no",
      "surface": "asphalt"
    },
    "distance_to_station": 706.8089708305046
  },
  {
    "feature_type": "parking",
    "lat": 46.9662064,
    "lon": 7.4543828,
    "tags": {
      "access": "customers",
      "amenity": "parking",
      "capacity": "15",
      "fee": "yes",
      "operator": "RUAG Real Estate",
      "park_ride": "no",
      "parking": "surface",
      "supervised": "yes",
      "surface": "asphalt"
    },
    "distance_to_station": 800.7964304284651
  },
  {
    "feature_type": "parking",
    "lat": 46.9566071,
    "lon": 7.4571314,
    "tags": {
      "access": "private",
      "amenity": "parking",
      "parking": "surface"
    },
    "distance_to_station": 952.5858668778894
  },
  {
    "feature_type": "parking",
    "lat": 46.9583583,
    "lon": 7.4589063,
    "tags": {
      "access": "permit",
      "amenity": "parking",
      "parking": "surface"
    },
    "distance_to_station": 987.5420213111738
  },
  {
    "feature_type": "parking",
    "lat": 46.9592379,
    "lon": 7.4345682,
    "tags": {
      "access": "private",
      "amenity": "parking",
      "parking": "surface",
      "surface": "asphalt"
    },
    "distance_to_station": 949.2606685824024
  },
  {
    "feature_type": "parking",
    "lat": 46.957941,
    "lon": 7.4464629,
    "tags": {
      "access": "customers",
      "amenity": "parking",
      "capacity": "5",
      "parking": "surface"
    },
    "distance_to_station": 374.6568578396498
  },
  {
    "feature_type": "parking",
    "lat": 46.9539751,
    "lon": 7.4464025,
    "tags": {
      "amenity": "parking",
      "parking": "lane"
    },
    "distance_to_station": 815.4710936573285
  },
  {
    "feature_type": "parking",
    "lat": 46.9538454,
    "lon": 7.446909,
    "tags": {
      "amenity": "parking",
      "parking": "lane"
    },
    "distance_to_station": 829.8425239671916
  },
  {
    "feature_type": "parking",
    "lat": 46.954516,
    "lon": 7.4442995,
    "tags": {
      "amenity": "parking",
      "capacity": "20",
      "parking": "surface",
      "surface": "asphalt"
    },
    "distance_to_station": 776.3102256247709
  },
  {
    "feature_type": "parking",
    "lat": 46.9550432,
    "lon": 7.4437936,
    "tags": {
      "amenity": "parking",
      "capacity": "15",
      "parking": "surface",
      "surface": "asphalt"
    },
    "distance_to_station": 730.0333027059015
  },
  {
    "feature_type": "parking",
    "lat": 46.9549712,
    "lon": 7.4435581,
    "tags": {
      "amenity": "parking",
      "capacity": "10",
      "parking": "surface",
      "surface": "asphalt"
    },
    "distance_to_station": 743.1870120044005
  },
  {
    "feature_type": "parking",
    "lat": 46.9543946,
    "lon": 7.4430851,
    "tags": {
      "amenity": "parking",
      "capacity": "5",
      "capacity:disabled": "0",
      "parking": "surface",
      "surface": "asphalt"
    },
    "distance_to_station": 815.5319932948952
  },
  {
    "feature_type": "parking",
    "lat": 46.9542372,
    "lon": 7.4431475,
    "tags": {
      "amenity": "parking",
      "capacity": "7",
      "capacity:disabled": "0",
      "surface": "asphalt"
    },
    "distance_to_station": 830.4989474642632
  },
  {
    "feature_type": "parking",
    "lat": 46.9591749,
    "lon": 7.4434522,
    "tags": {
      "access": "yes",
      "amenity": "parking",
      "capacity": "3",
      "capacity:disabled": "0",
      "fee": "yes",
      "maxstay": "6 hours",
      "operator": "Stadt Bern",
      "operator:type": "government",
      "parking": "surface",
      "surface": "asphalt"
    },
    "distance_to_station": 340.8067981977425
  },
  {
    "feature_type": "parking",
    "lat": 46.9660622,
    "lon": 7.4403026,
    "tags": {
      "access": "private",
      "amenity": "parking",
      "parking": "surface"
    },
    "distance_to_station": 716.9409177291728
  },
  {
    "feature_type": "parking",
    "lat": 46.9611696,
    "lon": 7.4334674,
    "tags": {
      "amenity": "parking",
      "capacity": "5",
      "capacity:disabled": "3",
      "parking": "surface"
    },
    "distance_to_station": 1004.8211923265064
  },
  {
    "feature_type": "parking",
    "lat": 46.9546032,
    "lon": 7.4381185,
    "tags": {
      "amenity": "parking",
      "parking": "lane"
    },
    "distance_to_station": 989.4848244012661
  },
  {
    "feature_type": "parking",
    "lat": 46.9546211,
    "lon": 7.4383124,
    "tags": {
      "amenity": "parking",
      "parking": "street_side"
    },
    "distance_to_station": 978.3286140394146
  },
  {
    "feature_type": "parking",
    "lat": 46.9548625,
    "lon": 7.4385976,
    "tags": {
      "amenity": "parking",
      "parking": "street_side"
    },
    "distance_to_station": 943.8240486943067
  }
]