[
  {
    "feature_type": "pharmacies",
    "lat": 46.9531766,
    "lon": 7.4328144,
    "tags": {
      "amenity": "pharmacy",
      "brand": "TopPharm",
      "brand:wikidata": "Q110277794",
      "check_date": "2022-09-26",
      "contact:addr": "L\u00e4nggassstrasse 28, 3012 Bern",
      "contact:email": "laenggass.apotheke@bluewin.ch",
      "contact:fax": "+41 31 3022322",
      "contact:phone": "+41 31 3012322",
      "contact:website": "http://laenggass.apotheke.ch/site/kontakt.html",
      "dispensing": "yes",
      "healthcare": "pharmacy",
      "name": "L\u00e4nggass Apotheke",
      "opening_hours": "Mo-Fr 07:45-18:30; Sa 07:45-16:00; Su off; PH off",
      "operator": "Cornelia Hitz; Natalie Pfeiffer",
      "website": "https://apotheke.ch/laenggass",
      "wheelchair": "yes"
    },
    "distance_to_station": 496.14948603386443
  },
  {
    "feature_type": "pharmacies",
    "lat": 46.9541414,
    "lon": 7.4342577,
    "tags": {
      "alt_name": "Z\u00e4hringer Apotheke",
      "amenity": "pharmacy",
      "contact:addr": "Gesellschaftsstrasse 36, 3012 Bern",
      "contact:email": "info@apotheke-ballinari.ch",
      "contact:fax": "+41 31 3020697",
      "contact:phone": "+41 31 3011910",
      "delivery:covid19": "yes",
      "description:covid19": "Bestellen per Telefon und dann holen",
      "healthcare": "pharmacy",
      "name": "Z\u00e4hringer-Apotheke Ballinari",
      "opening_hours": "Mo-Fr 07:45-12:30,13:30-18:30; Sa 07:45-16:00; Su off; PH off",
      "source": "survey and website",
      "takeaway:covid19": "yes",
      "website": "https://www.apotheke-ballinari.ch/"
    },
    "distance_to_station": 472.2290867887943
  },
  {
    "feature_type": "pharmacies",
    "lat": 46.9475139,
    "lon": 7.4420831,
    "tags": {
      "amenity": "pharmacy",
      "branch": "Bern Storcheng\u00e4sschen",
      "brand": "Amavita",
      "brand:wikidata": "Q93733901",
      "check_date:opening_hours": "2023-06-28",
      "email": "ama334@amavita.ch",
      "fax": "+41 58 878 33 59",
      "healthcare": "pharmacy",
      "level": "0",
      "name": "Amavita",
      "opening_hours": "Mo-We,Fr 08:00-19:00; Th 08:00-19:30; Sa 08:00-17:00",
      "phone": "+41 58 878 33 50",
      "website": "https://www.amavita.ch/de/amavita-apotheke-storchengasschen-bern",
      "wheelchair": "yes"
    },
    "distance_to_station": 478.4441591221015
  },
  {
    "feature_type": "pharmacies",
    "lat": 46.9494172,
    "lon": 7.4407273,
    "tags": {
      "alt_name": "Bollwerk Apotheke",
      "amenity": "pharmacy",
      "contact:addr": "Bollwerk 15, 3011 Bern",
      "contact:email": "info@bollwerkapotheke.ch",
      "contact:fax": "+41 31 3116052",
      "contact:phone": "+41 31 3111731",
      "healthcare": "pharmacy",
      "name": "Bollwerk",
      "opening_hours": "Mo 08:00-19:00; Tu-We 07:30-19:00; Th 07:30-19:30; Fr 07:30-19:00; Sa 08:00-17:00",
      "operator": "Bollwerk Apotheke AG",
      "source": "survey and website",
      "website": "https://www.bollwerkapotheke.ch/",
      "wheelchair": "yes"
    },
    "distance_to_station": 247.15807711458797
  },
  {
    "feature_type": "pharmacies",
    "lat": 46.9487927,
    "lon": 7.4429172,
    "tags": {
      "addr:city": "Bern",
      "addr:housenumber": "15",
      "addr:postcode": "3011",
      "addr:street": "Neuengasse",
      "alt_name": "Apotheke Dr. Noyer Neuengasse Hauptgesch\u00e4ft",
      "amenity": "pharmacy",
      "dispensing": "yes",
      "email": "apotheke@drnoyer.ch",
      "fax": "+41 31 326 28 29",
      "healthcare": "pharmacy",
      "name": "Apotheke Dr. Noyer",
      "opening_hours": "Mo-Fr 08:00-19:00; Sa 08:00-17:00",
      "operator": "Apotheke Dr. Noyer AG",
      "phone": "+41 31 326 28 28",
      "website": "https://www.drnoyer.ch/neuengasse-hauptgeschaeft",
      "wheelchair": "yes"
    },
    "distance_to_station": 416.1857924227742
  },
  {
    "feature_type": "pharmacies",
    "lat": 46.9470929,
    "lon": 7.4410478,
    "tags": {
      "amenity": "pharmacy",
      "contact:addr": "Christoffelgasse 3, 3011 Bern",
      "contact:email": "mail@christoffelapotheke.ch",
      "contact:fax": "+41 31 311 44 62",
      "contact:phone": "+41 31 311 44 83",
      "contact:website": "https://www.christoffelapotheke.ch",
      "healthcare": "pharmacy",
      "name": "Christoffel-Apotheke",
      "opening_hours": "Mo-Fr 07:30-18:30; Sa 08:15-16:00"
    },
    "distance_to_station": 482.7581575545782
  },
  {
    "feature_type": "pharmacies",
    "lat": 46.9493911,
    "lon": 7.4413299,
    "tags": {
      "alt_name": "Coop Apotheke Bern Ryfflihof",
      "amenity": "pharmacy",
      "brand": "Coop Vitality",
      "brand:wikidata": "Q111725297",
      "check_date": "2023-02-07",
      "contact:addr": "Genfergasse 3, 3011 Bern",
      "contact:phone": "+41 31 3188670",
      "healthcare": "pharmacy",
      "name": "Coop Vitality",
      "opening_hours": "Mo 09:00-19:00; Tu,We 08:00-19:00; Th,Fr 08:00-20:00; Sa 08:00-18:00; PH off",
      "source": "survey and website",
      "toilets:wheelchair": "no",
      "website": "https://www.coop.ch/vitality",
      "wheelchair": "yes"
    },
    "distance_to_station": 281.150546972916
  },
  {
    "feature_type": "pharmacies",
    "lat": 46.9481358,
    "lon": 7.4375638,
    "tags": {
      "addr:city": "Bern",
      "addr:country": "CH",
      "addr:housenumber": "4a",
      "addr:postcode": "3008",
      "addr:street": "Schanzenstrasse",
      "alt_name": "Dr. Noyer Bahnhof Apotheke im PostParc Bern",
      "amenity": "pharmacy",
      "dispensing": "yes",
      "email": "postparc@drnoyer.ch",
      "fax": "+41 31 326 28 11",
      "healthcare": "pharmacy",
      "name": "Apotheke Dr. Noyer",
      "opening_hours": "Mo-Fr 07:30-19:00; Sa 09:00-17:00",
      "operator": "Apotheke Dr. Noyer AG",
      "phone": "+41 31 326 28 10",
      "website": "https://www.drnoyer.ch/postparc-bern"
    },
    "distance_to_station": 338.8587559358242
  },
  {
    "feature_type": "pharmacies",
    "lat": 46.9477825,
    "lon": 7.4416978,
    "tags": {
      "addr:city": "Bern",
      "alt_name": "Amavita Apotheke Ischi",
      "amenity": "pharmacy",
      "brand": "Amavita",
      "brand:wikidata": "Q93733901",
      "brand:wikipedia": "de:Amavita",
      "contact:addr": "Spitalgasse 37, 3011 Bern",
      "contact:email": "ama270@amavita.ch",
      "contact:fax": "+41 58 8781229",
      "contact:phone": "+41 58 8781220",
      "healthcare": "pharmacy",
      "levels": "1",
      "name": "Amavita",
      "opening_hours": "Mo-Fr 09:00-19:00; Sa 08:00-17:00",
      "operator": "GaleniCare AG",
      "website": "https://www.amavita.ch/de/amavita-apotheke-ischi"
    },
    "distance_to_station": 437.4602910438435
  },
  {
    "feature_type": "pharmacies",
    "lat": 46.9489753,
    "lon": 7.441516,
    "tags": {
      "addr:city": "Bern",
      "addr:housenumber": "41",
      "addr:postcode": "3011",
      "addr:street": "Neuengasse",
      "amenity": "pharmacy",
      "check_date": "2023-08-29",
      "dispensing": "yes",
      "healthcare": "pharmacy",
      "name": "Dropa Apotheke Bern",
      "opening_hours": "Mo-We,Fr 08:00-19:00; Th 08:00-20:00; Sa 08:00-17:00"
    },
    "distance_to_station": 323.74157224507445
  },
  {
    "feature_type": "pharmacies",
    "lat": 46.9481499,
    "lon": 7.4399538,
    "tags": {
      "addr:floor": "-1",
      "amenity": "pharmacy",
      "brand": "Amavita",
      "brand:wikidata": "Q93733901",
      "contact:addr": "Christoffel-Unterf\u00fchrung, 3011 Bern",
      "contact:email": "ama255@amavita.ch",
      "contact:fax": "+41 58 8513455",
      "contact:phone": "+41 58 8513255",
      "healthcare": "pharmacy",
      "indoor": "yes",
      "level": "-1",
      "name": "Amavita",
      "opening_hours": "Mo-Fr 07:00-21:00; Sa 08:00-21:00; Su 09:00-20:00",
      "operator": "GaleniCare AG",
      "source": "survey and website",
      "website": "https://www.amavita.ch/de/Standorte/amavita-apotheke-bahnhof-bern-3011-bern/",
      "wheelchair": "yes"
    },
    "distance_to_station": 343.75531398382753
  },
  {
    "feature_type": "pharmacies",
    "lat": 46.9490511,
    "lon": 7.4396413,
    "tags": {
      "addr:city": "Bern",
      "addr:country": "CH",
      "addr:floor": "1",
      "addr:housenumber": "10",
      "addr:postcode": "3011",
      "addr:street": "Bahnhofplatz",
      "alt_name": "Bahnhof Apotheke",
      "amenity": "pharmacy",
      "contact:email": "a14@achillea.ch",
      "contact:fax": "+41 31 3292529",
      "contact:phone": "+41 31 3292525",
      "healthcare": "pharmacy",
      "indoor": "yes",
      "level": "1",
      "name": "Bahnhof",
      "opening_hours": "Mo-Su 06:30-22:00",
      "operator": "Dr. B\u00e4hler Dropa AG",
      "source": "website",
      "website": "https://achillea.ch/de-ch/geschaeftsstellen/region-bern/bahnhof-apotheke.aspx",
      "wheelchair": "yes"
    },
    "distance_to_station": 241.14864904080423
  }
]