[
  {
    "feature_type": "libraries",
    "lat": 46.948987,
    "lon": 7.4473384,
    "tags": {
      "addr:city": "Bern",
      "addr:housenumber": "18",
      "addr:postcode": "3011",
      "addr:street": "Kornhausplatz",
      "alt_name": "Hauptstelle Kornhausbibliothek",
      "amenity": "library",
      "contact:addr": "Kornhausplatz 18, 3011 Bern",
      "contact:email": "info@kob.ch",
      "contact:facebook": "https://www.facebook.com/KornhausbibliothekenBern",
      "contact:phone": "+41313271010",
      "contact:website": "https://www.kob.ch/standort/hauptstelle-kornhausbibliothek/",
      "level": "2;3",
      "name": "Kornhausbibliothek",
      "opening_hours": "Mo off; Tu-Fr 10:00-19:00; Sa 10:00-17:00; Su off; PH off",
      "operator": "Stiftung Kornhausbibliotheken",
      "operator:short": "KOB",
      "operator:type": "public",
      "operator:wikidata": "Q1784554",
      "ref:isil": "CH-002073-3",
      "website": "https://www.kornhausbibliotheken.ch/Veranstaltungen.aspx",
      "wheelchair": "yes"
    },
    "distance_to_station": 874.0208310256705
  },
  {
    "feature_type": "libraries",
    "lat": 46.9513579,
    "lon": 7.461082,
    "tags": {
      "addr:city": "Bern",
      "addr:country": "CH",
      "addr:housenumber": "31",
      "addr:postcode": "3006",
      "addr:street": "Alter Aargauerstalden",
      "alt_name": "Bibliothek Rosengarten",
      "amenity": "library",
      "contact:email": "info@kornhausbibliotheken.ch",
      "contact:mobile": "+41 79 2712098",
      "contact:phone": "+41 31 5509901",
      "name": "Lesepavillon Rosengarten",
      "note": "Postadresse: Laubeggstrasse 1, 3013 Bern",
      "opening_hours": "Apr-Oct Mo-Fr 14:00-18:00; Apr-Oct Sa 11:00-15:00",
      "operator": "Kornhausbibliotheken Bern",
      "operator:short": "KOB",
      "operator:type": "public",
      "operator:wikidata": "Q1784554",
      "ref:isil": "CH-002073-3",
      "source": "Survey and website",
      "website": "https://www.kornhausbibliotheken.ch/Standorte/Rosengarten.aspx",
      "wikidata": "Q107146459"
    },
    "distance_to_station": 791.0628919879035
  },
  {
    "feature_type": "libraries",
    "lat": 46.955216,
    "lon": 7.4602817,
    "tags": {
      "amenity": "library",
      "contact:addr": "Papierm\u00fchlestrasse 13j, 3014 Bern",
      "contact:email": "musikbibliothek@hkb.bfh.ch",
      "contact:phone": "+41 31 8483960",
      "contact:website": "https://www.hkb.bfh.ch/de/ueber-die-hkb/standorte-infrastruktur/bibliotheken/bibliothek-hkb-musik",
      "heritage": "2",
      "heritage:operator": "babs",
      "name": "Musikbibliothek",
      "note": "KGS-Nr: Nummer des Kulturgutes, zu finden in den KGS-Listen des Bundes und der Kantone. BABS: Bundesamt f\u00fcr Bev\u00f6lkerungsschutz",
      "opening_hours": "Mo-Fr 10:00-18:00",
      "operator": "Berner Fachhochschule (BH), Hochschule der K\u00fcnste Bern (HKB)",
      "ref:isil": "CH-000132-7",
      "ref:kgs": "9166",
      "website": "https://www.hkb.bfh.ch/de/ueber-die-hkb/standorte-infrastruktur/bibliotheken/bibliothek-hkb-musik",
      "wikidata": "Q27479796",
      "wikimedia_commons": "Category:Hochschule der K\u00fcnste Bern, Musikbibliothek"
    },
    "distance_to_station": 558.7021880939144
  },
  {
    "feature_type": "libraries",
    "lat": 46.959292,
    "lon": 7.4629912,
    "tags": {
      "addr:city": "Bern",
      "addr:housenumber": "21a",
      "addr:postcode": "3014",
      "addr:street": "Papierm\u00fchlestrasse",
      "amenity": "library",
      "contact:addr": "Papierm\u00fchlestrasse 21a, 3014 Bern",
      "contact:email": "bibliothek@gs-vbs.admin.ch",
      "contact:fax": "+41 58 463 19 06",
      "contact:phone": "+41 58 464 50 99",
      "contact:website": "http://www.big.admin.ch/",
      "image": "https://upload.wikimedia.org/wikipedia/commons/thumb/e/eb/Bibliothek_am_Guisanplatz_%28Luftbild_2011%29.jpg/800px-Bibliothek_am_Guisanplatz_%28Luftbild_2011%29.jpg",
      "name": "Bibliothek am Guisanplatz BiG",
      "old_name": "Eidg. Milit\u00e4rbibliothek",
      "opening_hours": "Mo-Fr 08:30-11:00, 14:00-16:30; Sa-Su off",
      "operator": "Eidgen\u00f6ssisches Departement f\u00fcr Verteidigung, Bev\u00f6lkerungsschutz und Sport VBS",
      "ref:isil": "CH-000515-8",
      "short_name": "BiG",
      "source": "survey and website",
      "website": "https://www.big.admin.ch/",
      "wheelchair": "yes",
      "wikidata": "Q856466",
      "wikimedia_commons": "Category:Bibliothek am Guisanplatz",
      "wikipedia": "de:Bibliothek am Guisanplatz"
    },
    "distance_to_station": 852.6673699427131
  },
  {
    "feature_type": "libraries",
    "lat": 46.9592396,
    "lon": 7.4551492,
    "tags": {
      "addr:city": "Bern",
      "addr:country": "CH",
      "addr:housenumber": "2",
      "addr:postcode": "3014",
      "addr:street": "Stauffacherstrasse",
      "alt_name": "Kornhaus Bibliothek Breitenrain mit Ludothek",
      "amenity": "library",
      "contact:email": "breitenrain@kornhausbibliotheken.ch",
      "contact:phone": "+41 31 332 47 50",
      "contact:website": "https://www.kob.ch/standort/bibliothek-und-ludothek-breitenrain/",
      "internet_access": "wlan",
      "internet_access:fee": "customers",
      "level": "1",
      "name": "Bibliothek Breitenrain mit Ludothek",
      "opening_hours": "Tu 10:00-18:30; We 14:00-18:30; Th-Fr 10:00-18:30; Sa 10:00-16:00; Su,Mo,PH off",
      "operator": "Stiftung Kornhausbibliotheken",
      "operator:short": "KOB",
      "operator:type": "public",
      "operator:wikidata": "Q1784554",
      "ref:isil": "CH-002073-3",
      "wheelchair": "yes",
      "wikidata": "Q107145685"
    },
    "distance_to_station": 413.1393148204184
  },
  {
    "feature_type": "libraries",
    "lat": 46.9535191,
    "lon": 7.4453194,
    "tags": {
      "addr:city": "Bern",
      "addr:housenumber": "21",
      "addr:postcode": "3013",
      "addr:street": "Altenbergrain",
      "amenity": "library",
      "contact:email": "ips@ub.unibe.ch",
      "contact:phone": "+41 31 6318022",
      "name": "Bibliothek Pflanzenwissenschaft",
      "opening_hours": "Mo-Fr 07:30-17:30",
      "operator": "Universit\u00e4tsbibliothek Bern UB",
      "ref:isil": "CH-000752-2",
      "source": "Survey and website",
      "website": "https://www.unibe.ch/universitaet/dienstleistungen/universitaetsbibliothek/teilbibliotheken/philosophisch_naturwissenschaftliche_faecher/pflanzenwissenschaften/index_ger.html"
    },
    "distance_to_station": 638.2743240177441
  },
  {
    "feature_type": "libraries",
    "lat": 46.9473184,
    "lon": 7.4490291,
    "tags": {
      "addr:city": "Bern",
      "addr:housenumber": "61",
      "addr:postcode": "3011",
      "addr:street": "M\u00fcnstergasse",
      "amenity": "library",
      "contact:addr": "M\u00fcnstergasse 61, 3011 Bern",
      "contact:email": "muenstergasse@ub.unibe.ch",
      "contact:phone": "+41 31 684 92 11",
      "internet_access": "wlan",
      "name": "Bibliothek M\u00fcnstergasse",
      "opening_hours": "Mo-Su 08:00-21:00",
      "operator": "Universit\u00e4t Bern",
      "ref:isil": "CH-000011-1",
      "website": "https://www.unibe.ch/universitaet/dienstleistungen/universitaetsbibliothek/teilbibliotheken/bibliothek_muenstergasse/index_ger.html",
      "wikidata": "Q110901157",
      "wikipedia": "de:Bibliothek M\u00fcnstergasse"
    },
    "distance_to_station": 993.0623556969813
  }
]