[
  {
    "feature_type": "libraries",
    "lat": 46.9507025,
    "lon": 7.4378847,
    "tags": {
      "addr:city": "Bern",
      "addr:country": "CH",
      "addr:housenumber": "4",
      "addr:postcode": "3012",
      "addr:street": "Hochschulstrasse",
      "amenity": "library",
      "contact:email": "jbb@ub.unibe.ch",
      "contact:phone": "+41 31 631 82 67",
      "contact:website": "www.unibe.ch/ub/jbb",
      "internet_access": "wlan",
      "name": "Juristische Bibliothek JBB",
      "opening_hours": "Mo-Fr 08:00-21:00; Sa 08:00-17:00",
      "operator": "Universit\u00e4tsbibliothek Bern UB",
      "ref:isil": "CH-000832-5",
      "website": "https://www.unibe.ch/ub/jbb",
      "wheelchair": "yes",
      "wikidata": "Q68330323"
    },
    "distance_to_station": 70.01088263472079
  },
  {
    "feature_type": "libraries",
    "lat": 46.9546772,
    "lon": 7.4349621,
    "tags": {
      "addr:city": "Bern",
      "addr:housenumber": "27",
      "addr:postcode": "3012",
      "addr:street": "Vereinsweg",
      "alt_name": "L\u00e4nggassbibliothek",
      "amenity": "library",
      "contact:addr": "Vereinsweg 27, 3012 Bern",
      "contact:email": "laenggasse@kornhausbibliotheken.ch",
      "contact:phone": "+41 31 3013504",
      "contact:website": "http://www.kornhausbibliotheken.ch/Standorte/L%E4nggasse.aspx",
      "name": "Bibliothek L\u00e4nggasse",
      "opening_hours": "Mo off; Tu-Fr 11:00-18:30; Sa 11:00-16:00; Su off",
      "operator": "Kornhausbibliotheken Bern",
      "operator:short": "KOB",
      "operator:type": "public",
      "operator:wikidata": "Q1784554",
      "ref:isil": "CH-002073-3",
      "source": "survey and website",
      "website": "https://www.kornhausbibliotheken.ch/Veranstaltungen.aspx",
      "wikidata": "Q107145838"
    },
    "distance_to_station": 484.212533486283
  },
  {
    "feature_type": "libraries",
    "lat": 46.9529378,
    "lon": 7.4403756,
    "tags": {
      "access": "yes",
      "addr:city": "Bern",
      "addr:country": "CH",
      "addr:housenumber": "8",
      "addr:postcode": "3012",
      "addr:street": "Neubr\u00fcckstrasse",
      "amenity": "library",
      "contact:email": "infoladen@reitschule.ch",
      "entrance": "yes",
      "name": "Infoladen",
      "opening_hours": "Mo-Tu off; We-Fr 19:00-22:00; Sa-Su off",
      "operator": "Reitschule Bern",
      "source": "survey and website",
      "website": "https://infoladenbern.blackblogs.org/",
      "wheelchair": "yes"
    },
    "distance_to_station": 244.79451094672703
  },
  {
    "feature_type": "libraries",
    "lat": 46.9523762,
    "lon": 7.4345363,
    "tags": {
      "addr:city": "Bern",
      "addr:housenumber": "6",
      "addr:postcode": "3012",
      "addr:street": "Hallerstrasse",
      "alt_name": "Schweizerische Osteuropabibliothek",
      "amenity": "library",
      "contact:addr": "Hallerstrasse 6, 3012 Bern",
      "contact:email": "sob@ub.unibe.ch",
      "contact:fax": "+41 31 6314170",
      "contact:phone": "+41 31 6314180",
      "contact:website": "https://www.unibe.ch/ub/sob",
      "internet_access": "wlan",
      "name": "Schweizerische Osteuropabibliothek SOB",
      "operator": "Universit\u00e4tsbibliothek Bern UB",
      "ref:isil": "CH-000284-9",
      "wikidata": "Q29015150"
    },
    "distance_to_station": 339.52574484045186
  },
  {
    "feature_type": "libraries",
    "lat": 46.9529289,
    "lon": 7.4353295,
    "tags": {
      "addr:city": "Bern",
      "addr:housenumber": "12",
      "addr:postcode": "3012",
      "addr:street": "Hallerstrasse",
      "amenity": "library",
      "contact:addr": "Hallerstrasse 12, 3012 Bern",
      "email": "biblio.giub@ub.unibe.ch",
      "name": "Bibliothek Geographie",
      "opening_hours": "Mo-Fr 07:30-20:15",
      "operator": "Universit\u00e4tsbibliothek Bern",
      "phone": "+41 31 631 88 61",
      "ref:isil": "CH-000715-9",
      "website": "https://www.ub.unibe.ch/teilbibliotheken/philosophisch_naturwissenschaftliche_faecher/geographie/index_ger.html",
      "wikidata": "Q68330084"
    },
    "distance_to_station": 320.90542924867236
  },
  {
    "feature_type": "libraries",
    "lat": 46.9478529,
    "lon": 7.4390357,
    "tags": {
      "addr:city": "Bern",
      "addr:floor": "0",
      "addr:housenumber": "2",
      "addr:postcode": "3011",
      "addr:street": "Bahnhofplatz",
      "alt_name": "Zweigstelle Kornhausbibliotheken Berner GenerationenHaus",
      "amenity": "library",
      "contact:addr": "Bahnhofplatz 2, 3011 Bern",
      "contact:email": "generationenhaus@kornhausbibliotheken.ch",
      "contact:phone": "+41 31 550 99 01",
      "contact:website": "http://www.kornhausbibliotheken.ch/Bibliotheken/Berner-GenerationenHaus",
      "name": "Bibliothek im Berner Generationen Haus",
      "opening_hours": "Mo-Fr 09:00-18:00; Sa 09:00-12:00; Su,PH off",
      "operator": "Kornhausbibliotheken Bern",
      "operator:short": "KOB",
      "operator:type": "public",
      "operator:wikidata": "Q1784554",
      "ref:isil": "CH-002073-3",
      "source": "survey and website",
      "wheelchair": "yes",
      "wikidata": "Q107145603"
    },
    "distance_to_station": 362.5725653445108
  },
  {
    "feature_type": "libraries",
    "lat": 46.9525902,
    "lon": 7.4349172,
    "tags": {
      "addr:city": "Bern",
      "addr:housenumber": "8",
      "addr:postcode": "3012",
      "addr:street": "Hallerstrasse",
      "amenity": "library",
      "name": "Bibliothek Soziale Arbeit",
      "opening_hours": "Mo-Fr 08:00-17:30; Sa,Su,PH off",
      "operator": "Berner Fachhochschule",
      "operator:de": "Berner Fachhochschule",
      "operator:fr": "Haute \u00e9cole sp\u00e9cialis\u00e9e bernoise",
      "ref:isil": "CH-001424-6",
      "website": "https://www.soziale-arbeit.bfh.ch/de/campus/bibliothek.html"
    },
    "distance_to_station": 324.9579600097291
  },
  {
    "feature_type": "libraries",
    "lat": 46.9501968,
    "lon": 7.4359824,
    "tags": {
      "addr:city": "Bern",
      "addr:housenumber": "1",
      "addr:postcode": "3012",
      "addr:street": "Schanzeneckstrasse",
      "amenity": "library",
      "internet_access": "wlan",
      "name": "Bibliothek Wirtschaftswissenschaften",
      "opening_hours": "Mo 09:15-17:00; Tu 09:15-17:00; We 09:15-17:00; Tu 09:15-17:00; Fr 09:15-17:00; Sa-Su off",
      "operator": "Universit\u00e4tsbibliothek Bern",
      "website": "https://www.ub.unibe.ch/teilbibliotheken/wirtschaftswissenschaft/wirtschaftswissenschaften/index_ger.html",
      "wheelchair": "yes",
      "wikidata": "Q68330313"
    },
    "distance_to_station": 222.6286041488191
  },
  {
    "feature_type": "libraries",
    "lat": 46.9523588,
    "lon": 7.4345328,
    "tags": {
      "addr:city": "Bern",
      "addr:housenumber": "6",
      "addr:postcode": "3012",
      "addr:street": "Hallerstrasse",
      "amenity": "library",
      "email": "worldtrade.ub@unibe.ch",
      "name": "Bibliothek World Trade Institute",
      "operator": "Universit\u00e4tsbibliothek Bern UB",
      "phone": "+41 31 684 32 71",
      "website": "https://www.ub.unibe.ch/teilbibliotheken/wirtschaftswissenschaft/bibliothek_world_trade_institute/index_ger.html",
      "wheelchair": "yes"
    },
    "distance_to_station": 338.96362772939847
  },
  {
    "feature_type": "libraries",
    "lat": 46.9535402,
    "lon": 7.4401902,
    "tags": {
      "addr:city": "Bern",
      "addr:housenumber": "14",
      "addr:postcode": "3012",
      "addr:street": "Sch\u00fctzenmattstrasse",
      "amenity": "library",
      "email": "economics.ub@unibe.ch",
      "name": "Lernort Engehalde",
      "operator": "Universit\u00e4tsbibliothek Bern UB",
      "phone": "+41 31 684 80 82",
      "website": "https://www.ub.unibe.ch/teilbibliotheken/wirtschaftswissenschaft/lernort_engehalde/index_ger.html",
      "wheelchair": "yes"
    },
    "distance_to_station": 296.9726008576164
  },
  {
    "feature_type": "libraries",
    "lat": 46.9502239,
    "lon": 7.4359818,
    "tags": {
      "addr:city": "Bern",
      "addr:housenumber": "1",
      "addr:postcode": "3012",
      "addr:street": "Schanzeneckstrasse",
      "amenity": "library",
      "internet_access": "wlan",
      "name": "Bibliothek Lifelong Learning Center (LLC)",
      "opening_hours": "Mo 09:15-17:00; Tu 09:15-17:00; We 09:15-17:00; Tu 09:15-17:00; Fr 09:15-17:00; Sa-Su off",
      "operator": "Universit\u00e4tsbibliothek Bern",
      "website": "https://www.ub.unibe.ch/teilbibliotheken/human__und_sozialwissenschaftliche_faecher/bibliothek_lifelong_learning_center_llc/index_ger.html",
      "wheelchair": "yes"
    },
    "distance_to_station": 221.32641057418226
  },
  {
    "feature_type": "libraries",
    "lat": 46.9513117,
    "lon": 7.4388205,
    "tags": {
      "addr:city": "Bern",
      "addr:country": "CH",
      "addr:housenumber": "5",
      "addr:postcode": "3012",
      "addr:street": "Sidlerstrasse",
      "amenity": "library",
      "contact:email": "bewi@ub.unibe.ch",
      "contact:phone": "+41 31 6318638",
      "contact:website": "http://www.unibe.ch/universitaet/dienstleistungen/universitaetsbibliothek/teilbibliotheken/philosophisch_naturwissenschaftliche_faecher/bibliothek_exakte_wissenschaften_bewi/index_ger.html",
      "internet_access": "wlan",
      "name": "Bibliothek Exakte Wissenschaften",
      "opening_hours": "Mo-Fr 07:15-19:15",
      "operator": "Universit\u00e4tsbibliothek Bern UB",
      "ref:isil": "CH-000341-7",
      "short_name": "BEWI",
      "website": "https://www.unibe.ch/ub/bewi",
      "wheelchair": "yes"
    },
    "distance_to_station": 28.883411172447076
  }
]