[
  {
    "feature_type": "restaurants",
    "lat": 46.9493855,
    "lon": 7.3804233,
    "tags": {
      "addr:city": "Bern",
      "addr:country": "CH",
      "addr:housenumber": "21",
      "addr:postcode": "3027",
      "addr:street": "Holenackerstrasse",
      "alt_name": "Holi Pizza Lieferservice",
      "amenity": "restaurant",
      "contact:phone": "+41 31 9910606",
      "delivery": "yes",
      "name": "Holi",
      "operator": "\u00dcnl\u00fc Rifat",
      "source": "survey and website",
      "takeaway": "yes",
      "website": "http://www.holi-pizza.ch"
    },
    "distance_to_station": 492.6898452339757
  },
  {
    "feature_type": "restaurants",
    "lat": 46.9483029,
    "lon": 7.3769832,
    "tags": {
      "amenity": "restaurant",
      "cuisine": "italian;pizza",
      "name": "Piazza",
      "opening_hours": "Mo-Su 10:00-23:00",
      "outdoor_seating": "yes",
      "website": "https://www.piazzabern.ch"
    },
    "distance_to_station": 399.1311442342233
  },
  {
    "feature_type": "restaurants",
    "lat": 46.9441266,
    "lon": 7.37346,
    "tags": {
      "addr:city": "Bern",
      "addr:housenumber": "4",
      "addr:postcode": "3027",
      "addr:street": "Gilberte-de-Courgenay-Platz",
      "amenity": "restaurant",
      "branch": "Westside",
      "check_date": "2022-09-17",
      "check_date:opening_hours": "2021-09-11",
      "cuisine": "italian",
      "diet:vegetarian": "yes",
      "email": "westside@spiga-ristorante.ch",
      "internet_access": "wlan",
      "internet_access:fee": "no",
      "level": "1",
      "level:ref": "0",
      "name": "Spiga",
      "opening_hours": "Mo-Th 11:00-21:00; Fr 11:00-23:00; Sa 10:00-23:00; Su 11:00-22:00",
      "operator": "SV (Schweiz)",
      "payment:american_express": "yes",
      "payment:diners_club": "yes",
      "payment:jcb": "yes",
      "payment:maestro": "yes",
      "payment:mastercard": "yes",
      "payment:postfinance_card": "yes",
      "payment:visa": "yes",
      "phone": "+41 31 991 99 77",
      "website": "https://www.spiga-ristorante.ch/i-ristoranti/detail/spiga-westside"
    },
    "distance_to_station": 445.0636204181214
  },
  {
    "feature_type": "restaurants",
    "lat": 46.9443121,
    "lon": 7.3731849,
    "tags": {
      "amenity": "restaurant",
      "branch": "Bern Westside",
      "check_date": "2022-09-17",
      "check_date:opening_hours": "2021-09-11",
      "cuisine": "korean",
      "diet:vegan": "yes",
      "diet:vegetarian": "yes",
      "email": "mail@namamen.ch",
      "level": "1",
      "level:ref": "0",
      "name": "Namamen",
      "opening_hours": "Mo-Th 11:00-22:00; Fr 11:00-23:30; Sa 10:00-23:30; Su 11:00-22:00",
      "payment:american_express": "yes",
      "payment:diners_club": "yes",
      "payment:jcb": "yes",
      "payment:maestro": "yes",
      "payment:mastercard": "yes",
      "payment:postfinance_card": "yes",
      "payment:visa": "yes",
      "phone": "+41 31 991 80 30",
      "website": "https://www.namamen.ch/"
    },
    "distance_to_station": 461.3691680364932
  },
  {
    "feature_type": "restaurants",
    "lat": 46.9457136,
    "lon": 7.3736474,
    "tags": {
      "alt_name": "Migros Restaurant Bern Westside",
      "amenity": "restaurant",
      "branch": "Bern Westside",
      "brand": "Migros Restaurant",
      "cuisine": "international",
      "level": "1",
      "level:ref": "0",
      "name": "Migros Restaurant",
      "opening_hours": "Mo-Th 08:00-20:00, Fr 08:00-21:00, Sa 08:00-17:00",
      "operator": "Genossenschaft Migros Aare",
      "website": "https://filialen.migros.ch/de/migros-restaurant-bern-westside"
    },
    "distance_to_station": 425.8095262739737
  },
  {
    "feature_type": "restaurants",
    "lat": 46.9440219,
    "lon": 7.3729417,
    "tags": {
      "addr:city": "Bern",
      "addr:housenumber": "4",
      "addr:postcode": "3027",
      "addr:street": "Gilberte-de-Courgenay-Platz",
      "amenity": "restaurant",
      "branch": "Bern Westside",
      "brand": "Yooji's",
      "check_date": "2022-09-17",
      "check_date:opening_hours": "2021-09-11",
      "cuisine": "sushi",
      "delivery": "yes",
      "email": "westside@yoojis.ch",
      "level": "1",
      "level:ref": "0",
      "name": "Yooji's",
      "opening_hours": "Mo-Th,Su 11:00-22:00; Fr 11:00-23:30; Sa 10:00-23:30",
      "operator": "Two Spice",
      "payment:mastercard": "yes",
      "payment:twint": "yes",
      "payment:visa": "yes",
      "phone": "+41 31 333 02 02",
      "takeaway": "yes",
      "website": "https://www.yoojis.com/standorte/bern-i-westside/"
    },
    "distance_to_station": 486.0332538133343
  },
  {
    "feature_type": "restaurants",
    "lat": 46.9446702,
    "lon": 7.3744319,
    "tags": {
      "amenity": "restaurant",
      "level": "1",
      "level:ref": "0",
      "name": "Nooch",
      "opening_hours": "Mo-Sa 10:00-23:00; Su 10:00-22:00",
      "opening_hours:kitchen": "Mo-Sa 10:00-22:00; Su 10:00-21:30",
      "website": "https://www.nooch.ch/de/bern-westside"
    },
    "distance_to_station": 361.9054551439906
  },
  {
    "feature_type": "restaurants",
    "lat": 46.9475682,
    "lon": 7.3833017,
    "tags": {
      "amenity": "restaurant",
      "branch": "Bern Betlehem",
      "brand": "Migros Restaurant",
      "brand:wikidata": "Q680727",
      "brand:wikipedia": "de:Migros",
      "check_date:opening_hours": "2021-09-09",
      "cuisine": "international",
      "level": "0",
      "name": "Migros Restaurant",
      "opening_hours": "Mo-Fr 08:00-18:00; Sa 08:00-17:00; Su,PH closed",
      "operator": "Genossenschaft Migros Aare",
      "phone": "+41 58 567 60 50",
      "website": "https://filialen.migros.ch/de/migros-restaurant-bern-bethlehem"
    },
    "distance_to_station": 421.39702679399267
  },
  {
    "feature_type": "restaurants",
    "lat": 46.9452788,
    "lon": 7.3751108,
    "tags": {
      "amenity": "restaurant",
      "name": "Le Bistro",
      "outdoor_seating": "yes",
      "website": "https://www.senevita.ch/de/standorte/betreutes-wohnen-westside-bern/gastronomie"
    },
    "distance_to_station": 309.2051630665493
  }
]